{
  "type" : "FeatureCollection",
  "features" : [{"type":"Feature","id":1,"geometry":{"type":"Point","coordinates":[98.977009740000085,18.769203640000057]},"properties":{"OBJECTID":1,"idx":26,"POINT_Y":18.769203640000001,"POINT_X":98.97700974,"name":"ถนนมหิดล","kom":0,"kalae":0,"text_lanna":1,"total_detect":1}},{"type":"Feature","id":2,"geometry":{"type":"Point","coordinates":[99.027296370000045,18.780382770000074]},"properties":{"OBJECTID":2,"idx":69,"POINT_Y":18.780382769999999,"POINT_X":99.027296370000002,"name":"ถนนซุปเปอร์ไฮเวย์","kom":0,"kalae":0,"text_lanna":1,"total_detect":1}},{"type":"Feature","id":3,"geometry":{"type":"Point","coordinates":[99.027629030000071,18.777975570000024]},"properties":{"OBJECTID":3,"idx":82,"POINT_Y":18.777975569999999,"POINT_X":99.02762903,"name":"ถนนซุปเปอร์ไฮเวย์","kom":0,"kalae":0,"text_lanna":1,"total_detect":1}},{"type":"Feature","id":4,"geometry":{"type":"Point","coordinates":[99.027653470000075,18.77779632000005]},"properties":{"OBJECTID":4,"idx":83,"POINT_Y":18.77779632,"POINT_X":99.027653470000004,"name":"ถนนซุปเปอร์ไฮเวย์","kom":0,"kalae":0,"text_lanna":1,"total_detect":1}},{"type":"Feature","id":5,"geometry":{"type":"Point","coordinates":[99.02799568000006,18.775286790000052]},"properties":{"OBJECTID":5,"idx":97,"POINT_Y":18.775286789999999,"POINT_X":99.027995680000004,"name":"ถนนซุปเปอร์ไฮเวย์","kom":0,"kalae":0,"text_lanna":1,"total_detect":1}},{"type":"Feature","id":6,"geometry":{"type":"Point","coordinates":[99.028093450000085,18.774569780000036]},"properties":{"OBJECTID":6,"idx":101,"POINT_Y":18.77456978,"POINT_X":99.02809345,"name":"ถนนซุปเปอร์ไฮเวย์","kom":0,"kalae":0,"text_lanna":1,"total_detect":1}},{"type":"Feature","id":7,"geometry":{"type":"Point","coordinates":[99.028711680000072,18.770136830000069]},"properties":{"OBJECTID":7,"idx":125,"POINT_Y":18.770136829999998,"POINT_X":99.028711680000001,"name":"ถนนซุปเปอร์ไฮเวย์","kom":0,"kalae":0,"text_lanna":1,"total_detect":1}},{"type":"Feature","id":8,"geometry":{"type":"Point","coordinates":[99.028813610000043,18.769420340000067]},"properties":{"OBJECTID":8,"idx":129,"POINT_Y":18.76942034,"POINT_X":99.02881361,"name":"ถนนซุปเปอร์ไฮเวย์","kom":0,"kalae":0,"text_lanna":1,"total_detect":1}},{"type":"Feature","id":9,"geometry":{"type":"Point","coordinates":[99.029221310000082,18.766554410000026]},"properties":{"OBJECTID":9,"idx":145,"POINT_Y":18.766554410000001,"POINT_X":99.029221309999997,"name":"ถนนซุปเปอร์ไฮเวย์","kom":0,"kalae":0,"text_lanna":1,"total_detect":1}},{"type":"Feature","id":10,"geometry":{"type":"Point","coordinates":[99.029272280000043,18.76619616000005]},"properties":{"OBJECTID":10,"idx":147,"POINT_Y":18.76619616,"POINT_X":99.029272280000001,"name":"ถนนซุปเปอร์ไฮเวย์","kom":0,"kalae":0,"text_lanna":2,"total_detect":2}},{"type":"Feature","id":11,"geometry":{"type":"Point","coordinates":[98.991374890000031,18.790860420000058]},"properties":{"OBJECTID":11,"idx":221,"POINT_Y":18.790860420000001,"POINT_X":98.991374890000003,"name":"ถนนราชวิถี ซอย 2","kom":0,"kalae":1,"text_lanna":1,"total_detect":2}},{"type":"Feature","id":12,"geometry":{"type":"Point","coordinates":[98.988476390000073,18.793257710000034]},"properties":{"OBJECTID":12,"idx":234,"POINT_Y":18.793257709999999,"POINT_X":98.988476390000002,"name":"ถนนพระปกเกล้า ซอย 13","kom":0,"kalae":1,"text_lanna":1,"total_detect":2}},{"type":"Feature","id":13,"geometry":{"type":"Point","coordinates":[98.983688050000069,18.793109470000047]},"properties":{"OBJECTID":13,"idx":250,"POINT_Y":18.793109470000001,"POINT_X":98.983688049999998,"name":"ถนนเวียงแก้ว","kom":0,"kalae":0,"text_lanna":1,"total_detect":1}},{"type":"Feature","id":14,"geometry":{"type":"Point","coordinates":[98.98529067000004,18.793097080000052]},"properties":{"OBJECTID":14,"idx":257,"POINT_Y":18.793097079999999,"POINT_X":98.985290669999998,"name":"ถนนเวียงแก้ว","kom":0,"kalae":1,"text_lanna":2,"total_detect":3}},{"type":"Feature","id":15,"geometry":{"type":"Point","coordinates":[98.98683727000008,18.793085180000048]},"properties":{"OBJECTID":15,"idx":265,"POINT_Y":18.793085179999999,"POINT_X":98.986837269999995,"name":"ถนนเวียงแก้ว","kom":0,"kalae":0,"text_lanna":2,"total_detect":2}},{"type":"Feature","id":16,"geometry":{"type":"Point","coordinates":[98.984954630000061,18.786293040000032]},"properties":{"OBJECTID":16,"idx":272,"POINT_Y":18.78629304,"POINT_X":98.984954630000004,"name":"ถนนจ่าบ้าน","kom":0,"kalae":0,"text_lanna":1,"total_detect":1}},{"type":"Feature","id":17,"geometry":{"type":"Point","coordinates":[98.986080650000076,18.788277150000056]},"properties":{"OBJECTID":17,"idx":284,"POINT_Y":18.788277149999999,"POINT_X":98.986080650000005,"name":"ถนนราชดำเนิน","kom":0,"kalae":0,"text_lanna":1,"total_detect":1}},{"type":"Feature","id":18,"geometry":{"type":"Point","coordinates":[98.986483120000059,18.788252290000059]},"properties":{"OBJECTID":18,"idx":286,"POINT_Y":18.788252289999999,"POINT_X":98.986483120000003,"name":"ถนนราชดำเนิน","kom":0,"kalae":0,"text_lanna":1,"total_detect":1}},{"type":"Feature","id":19,"geometry":{"type":"Point","coordinates":[98.990827060000072,18.79061009000003]},"properties":{"OBJECTID":19,"idx":302,"POINT_Y":18.790610090000001,"POINT_X":98.990827060000001,"name":"ถนนราชวิถี","kom":1,"kalae":0,"text_lanna":1,"total_detect":2}},{"type":"Feature","id":20,"geometry":{"type":"Point","coordinates":[98.976068220000059,18.772363580000047]},"properties":{"OBJECTID":20,"idx":312,"POINT_Y":18.77236358,"POINT_X":98.976068220000002,"name":"ถนนมหิดล","kom":0,"kalae":0,"text_lanna":1,"total_detect":1}},{"type":"Feature","id":21,"geometry":{"type":"Point","coordinates":[98.973037440000041,18.805733450000048]},"properties":{"OBJECTID":21,"idx":343,"POINT_Y":18.805733450000002,"POINT_X":98.973037439999999,"name":"ถนนเทวัญ","kom":0,"kalae":0,"text_lanna":1,"total_detect":1}},{"type":"Feature","id":22,"geometry":{"type":"Point","coordinates":[98.975797030000081,18.803836570000044]},"properties":{"OBJECTID":22,"idx":363,"POINT_Y":18.803836570000001,"POINT_X":98.975797029999995,"name":"ถนน เทพารักษ์","kom":0,"kalae":0,"text_lanna":1,"total_detect":1}},{"type":"Feature","id":23,"geometry":{"type":"Point","coordinates":[98.979711910000049,18.804904410000063]},"properties":{"OBJECTID":23,"idx":393,"POINT_Y":18.804904409999999,"POINT_X":98.979711910000006,"name":"ถนนโสตศึกษา","kom":0,"kalae":0,"text_lanna":2,"total_detect":2}},{"type":"Feature","id":24,"geometry":{"type":"Point","coordinates":[98.979669250000086,18.80427093000003]},"properties":{"OBJECTID":24,"idx":396,"POINT_Y":18.804270930000001,"POINT_X":98.979669250000001,"name":"ถนนโสตศึกษา","kom":0,"kalae":0,"text_lanna":2,"total_detect":2}},{"type":"Feature","id":25,"geometry":{"type":"Point","coordinates":[98.979344940000033,18.801021770000034]},"properties":{"OBJECTID":25,"idx":408,"POINT_Y":18.801021769999998,"POINT_X":98.979344940000004,"name":"ถนนเจริญสุข","kom":0,"kalae":0,"text_lanna":2,"total_detect":2}},{"type":"Feature","id":26,"geometry":{"type":"Point","coordinates":[98.978838370000062,18.801354150000066]},"properties":{"OBJECTID":26,"idx":411,"POINT_Y":18.801354150000002,"POINT_X":98.978838370000005,"name":"ถนนเจริญสุข","kom":0,"kalae":2,"text_lanna":1,"total_detect":3}},{"type":"Feature","id":27,"geometry":{"type":"Point","coordinates":[98.981251180000072,18.801540600000067]},"properties":{"OBJECTID":27,"idx":450,"POINT_Y":18.801540599999999,"POINT_X":98.981251180000001,"name":"ถนนช้างเผือก ซอย 4","kom":0,"kalae":0,"text_lanna":1,"total_detect":1}},{"type":"Feature","id":28,"geometry":{"type":"Point","coordinates":[98.985776710000039,18.800318330000039]},"properties":{"OBJECTID":28,"idx":466,"POINT_Y":18.80031833,"POINT_X":98.985776709999996,"name":"ถนนช้างเผือก ซอย 4","kom":0,"kalae":0,"text_lanna":1,"total_detect":1}},{"type":"Feature","id":29,"geometry":{"type":"Point","coordinates":[98.996720740000058,18.796491910000043]},"properties":{"OBJECTID":29,"idx":475,"POINT_Y":18.79649191,"POINT_X":98.996720740000001,"name":"ถนนเมืองสมุทร","kom":0,"kalae":0,"text_lanna":1,"total_detect":1}},{"type":"Feature","id":30,"geometry":{"type":"Point","coordinates":[98.997546520000071,18.798260900000059]},"properties":{"OBJECTID":30,"idx":483,"POINT_Y":18.798260899999999,"POINT_X":98.99754652,"name":"ถนนเมืองสมุทร","kom":0,"kalae":0,"text_lanna":1,"total_detect":1}},{"type":"Feature","id":31,"geometry":{"type":"Point","coordinates":[99.001699930000086,18.809977100000026]},"properties":{"OBJECTID":31,"idx":544,"POINT_Y":18.809977100000001,"POINT_X":99.001699930000001,"name":null,"kom":0,"kalae":0,"text_lanna":1,"total_detect":1}},{"type":"Feature","id":32,"geometry":{"type":"Point","coordinates":[98.98128980000007,18.780228880000038]},"properties":{"OBJECTID":32,"idx":569,"POINT_Y":18.780228879999999,"POINT_X":98.981289799999999,"name":"ถนนทิพย์เนตร","kom":0,"kalae":0,"text_lanna":1,"total_detect":1}},{"type":"Feature","id":33,"geometry":{"type":"Point","coordinates":[98.982541480000066,18.787799610000036]},"properties":{"OBJECTID":33,"idx":623,"POINT_Y":18.78779961,"POINT_X":98.982541479999995,"name":null,"kom":0,"kalae":0,"text_lanna":1,"total_detect":1}},{"type":"Feature","id":34,"geometry":{"type":"Point","coordinates":[98.978932300000054,18.786427970000034]},"properties":{"OBJECTID":34,"idx":637,"POINT_Y":18.786427969999998,"POINT_X":98.978932299999997,"name":"ถนนอารักษ์ ซอย 7","kom":0,"kalae":0,"text_lanna":1,"total_detect":1}},{"type":"Feature","id":35,"geometry":{"type":"Point","coordinates":[98.97938264000004,18.79146693000007]},"properties":{"OBJECTID":35,"idx":655,"POINT_Y":18.791466929999999,"POINT_X":98.979382639999997,"name":"ถนนสิงหราช ซอย 2","kom":0,"kalae":0,"text_lanna":2,"total_detect":2}},{"type":"Feature","id":36,"geometry":{"type":"Point","coordinates":[98.976013200000068,18.79376558000007]},"properties":{"OBJECTID":36,"idx":669,"POINT_Y":18.793765579999999,"POINT_X":98.976013199999997,"name":null,"kom":0,"kalae":0,"text_lanna":1,"total_detect":1}},{"type":"Feature","id":37,"geometry":{"type":"Point","coordinates":[98.998161740000057,18.800883630000044]},"properties":{"OBJECTID":37,"idx":672,"POINT_Y":18.800883630000001,"POINT_X":98.99816174,"name":"ถนนรัตนโกสินทร์","kom":0,"kalae":0,"text_lanna":1,"total_detect":1}},{"type":"Feature","id":38,"geometry":{"type":"Point","coordinates":[98.990866290000042,18.833374740000068]},"properties":{"OBJECTID":38,"idx":696,"POINT_Y":18.83337474,"POINT_X":98.99086629,"name":"ถนนป่าตัน","kom":0,"kalae":0,"text_lanna":1,"total_detect":1}},{"type":"Feature","id":39,"geometry":{"type":"Point","coordinates":[98.99436613000006,18.829792360000056]},"properties":{"OBJECTID":39,"idx":717,"POINT_Y":18.829792359999999,"POINT_X":98.994366130000003,"name":"ถนนป่าตัน","kom":0,"kalae":0,"text_lanna":2,"total_detect":2}},{"type":"Feature","id":40,"geometry":{"type":"Point","coordinates":[98.993974510000044,18.823905800000034]},"properties":{"OBJECTID":40,"idx":739,"POINT_Y":18.823905799999999,"POINT_X":98.993974510000001,"name":"ถนนป่าตัน","kom":0,"kalae":0,"text_lanna":1,"total_detect":1}},{"type":"Feature","id":41,"geometry":{"type":"Point","coordinates":[99.005575910000061,18.802757740000061]},"properties":{"OBJECTID":41,"idx":795,"POINT_Y":18.802757740000001,"POINT_X":99.005575910000005,"name":"ถนนเจริญราษฎร์","kom":4,"kalae":0,"text_lanna":2,"total_detect":6}},{"type":"Feature","id":42,"geometry":{"type":"Point","coordinates":[99.000698470000032,18.786111270000049]},"properties":{"OBJECTID":42,"idx":839,"POINT_Y":18.786111269999999,"POINT_X":99.000698470000003,"name":"ถนนช้างคลาน","kom":0,"kalae":0,"text_lanna":1,"total_detect":1}},{"type":"Feature","id":43,"geometry":{"type":"Point","coordinates":[98.998727540000061,18.772011900000052]},"properties":{"OBJECTID":43,"idx":868,"POINT_Y":18.772011899999999,"POINT_X":98.998727540000004,"name":"ถนนช้างคลาน","kom":0,"kalae":0,"text_lanna":1,"total_detect":1}},{"type":"Feature","id":44,"geometry":{"type":"Point","coordinates":[98.999821510000061,18.766660760000036]},"properties":{"OBJECTID":44,"idx":889,"POINT_Y":18.766660760000001,"POINT_X":98.999821510000004,"name":"ถนนช้างคลาน","kom":0,"kalae":0,"text_lanna":1,"total_detect":1}},{"type":"Feature","id":45,"geometry":{"type":"Point","coordinates":[99.000471470000036,18.765093060000027]},"properties":{"OBJECTID":45,"idx":897,"POINT_Y":18.765093060000002,"POINT_X":99.000471469999994,"name":"ถนนช้างคลาน","kom":0,"kalae":0,"text_lanna":2,"total_detect":2}},{"type":"Feature","id":46,"geometry":{"type":"Point","coordinates":[99.000629470000035,18.764713460000053]},"properties":{"OBJECTID":46,"idx":899,"POINT_Y":18.764713459999999,"POINT_X":99.000629470000007,"name":"ถนนช้างคลาน","kom":0,"kalae":0,"text_lanna":1,"total_detect":1}},{"type":"Feature","id":47,"geometry":{"type":"Point","coordinates":[99.000957400000061,18.763966870000047]},"properties":{"OBJECTID":47,"idx":903,"POINT_Y":18.763966870000001,"POINT_X":99.000957400000004,"name":"ถนนช้างคลาน","kom":0,"kalae":0,"text_lanna":1,"total_detect":1}},{"type":"Feature","id":48,"geometry":{"type":"Point","coordinates":[99.005773610000062,18.763291870000046]},"properties":{"OBJECTID":48,"idx":934,"POINT_Y":18.76329187,"POINT_X":99.005773610000006,"name":"ถนนเชียงใหม่-ลำพูน","kom":0,"kalae":0,"text_lanna":1,"total_detect":1}},{"type":"Feature","id":49,"geometry":{"type":"Point","coordinates":[99.006305860000055,18.761290150000036]},"properties":{"OBJECTID":49,"idx":945,"POINT_Y":18.761290150000001,"POINT_X":99.006305859999998,"name":"ถนนเชียงใหม่-ลำพูน","kom":0,"kalae":0,"text_lanna":1,"total_detect":1}},{"type":"Feature","id":50,"geometry":{"type":"Point","coordinates":[99.005086470000037,18.766757010000049]},"properties":{"OBJECTID":50,"idx":960,"POINT_Y":18.766757009999999,"POINT_X":99.005086469999995,"name":null,"kom":0,"kalae":0,"text_lanna":1,"total_detect":1}},{"type":"Feature","id":51,"geometry":{"type":"Point","coordinates":[98.994251900000052,18.789313230000062]},"properties":{"OBJECTID":51,"idx":986,"POINT_Y":18.789313230000001,"POINT_X":98.994251899999995,"name":"ถนนช้างม่อยเก่า","kom":0,"kalae":0,"text_lanna":1,"total_detect":1}},{"type":"Feature","id":52,"geometry":{"type":"Point","coordinates":[98.994479400000046,18.789828680000028]},"properties":{"OBJECTID":52,"idx":988,"POINT_Y":18.789828679999999,"POINT_X":98.994479400000003,"name":"ถนนช้างม่อยเก่า","kom":0,"kalae":0,"text_lanna":2,"total_detect":2}},{"type":"Feature","id":53,"geometry":{"type":"Point","coordinates":[99.003558540000085,18.792021470000066]},"properties":{"OBJECTID":53,"idx":1043,"POINT_Y":18.792021470000002,"POINT_X":99.00355854,"name":"ถนนหน้าวัดเกตุ","kom":0,"kalae":0,"text_lanna":1,"total_detect":1}},{"type":"Feature","id":54,"geometry":{"type":"Point","coordinates":[99.003084740000077,18.79510558000004]},"properties":{"OBJECTID":54,"idx":1055,"POINT_Y":18.795105580000001,"POINT_X":99.003084740000006,"name":"ถนนแก้วนวรัฐ ซอย 1","kom":0,"kalae":0,"text_lanna":2,"total_detect":2}},{"type":"Feature","id":55,"geometry":{"type":"Point","coordinates":[99.002755620000073,18.797077500000057]},"properties":{"OBJECTID":55,"idx":1058,"POINT_Y":18.7970775,"POINT_X":99.002755620000002,"name":"ถนน เชตุพน","kom":0,"kalae":0,"text_lanna":1,"total_detect":1}},{"type":"Feature","id":56,"geometry":{"type":"Point","coordinates":[99.00501711000004,18.797531700000036]},"properties":{"OBJECTID":56,"idx":1067,"POINT_Y":18.7975317,"POINT_X":99.005017109999997,"name":"ถนน เชตุพน","kom":0,"kalae":0,"text_lanna":1,"total_detect":1}},{"type":"Feature","id":57,"geometry":{"type":"Point","coordinates":[98.983895380000035,18.798460730000045]},"properties":{"OBJECTID":57,"idx":1099,"POINT_Y":18.798460729999999,"POINT_X":98.983895380000007,"name":"ถนน ช้างเผือก ซอย2","kom":0,"kalae":0,"text_lanna":2,"total_detect":2}},{"type":"Feature","id":58,"geometry":{"type":"Point","coordinates":[98.99772463000005,18.762903440000059]},"properties":{"OBJECTID":58,"idx":1187,"POINT_Y":18.762903439999999,"POINT_X":98.997724629999993,"name":null,"kom":0,"kalae":0,"text_lanna":1,"total_detect":1}},{"type":"Feature","id":59,"geometry":{"type":"Point","coordinates":[98.998395950000088,18.763496030000056]},"properties":{"OBJECTID":59,"idx":1191,"POINT_Y":18.763496029999999,"POINT_X":98.998395950000003,"name":null,"kom":0,"kalae":0,"text_lanna":1,"total_detect":1}},{"type":"Feature","id":60,"geometry":{"type":"Point","coordinates":[98.999957640000048,18.765989540000078]},"properties":{"OBJECTID":60,"idx":1218,"POINT_Y":18.76598954,"POINT_X":98.999957640000005,"name":null,"kom":0,"kalae":0,"text_lanna":1,"total_detect":1}},{"type":"Feature","id":61,"geometry":{"type":"Point","coordinates":[99.004364490000057,18.784004870000047]},"properties":{"OBJECTID":61,"idx":1219,"POINT_Y":18.78400487,"POINT_X":99.00436449,"name":"ถนนลอยเคราะห์","kom":0,"kalae":0,"text_lanna":1,"total_detect":1}},{"type":"Feature","id":62,"geometry":{"type":"Point","coordinates":[98.999313820000054,18.782997950000038]},"properties":{"OBJECTID":62,"idx":1260,"POINT_Y":18.782997949999999,"POINT_X":98.999313819999998,"name":"ถนนลอยเคราะห์ 4","kom":0,"kalae":0,"text_lanna":1,"total_detect":1}},{"type":"Feature","id":63,"geometry":{"type":"Point","coordinates":[98.999379870000041,18.783718240000042]},"properties":{"OBJECTID":63,"idx":1264,"POINT_Y":18.783718239999999,"POINT_X":98.999379869999999,"name":"ถนนลอยเคราะห์ 4","kom":0,"kalae":2,"text_lanna":1,"total_detect":3}},{"type":"Feature","id":64,"geometry":{"type":"Point","coordinates":[98.999396390000072,18.783898310000041]},"properties":{"OBJECTID":64,"idx":1265,"POINT_Y":18.783898310000001,"POINT_X":98.999396390000001,"name":"ถนนลอยเคราะห์ 4","kom":0,"kalae":0,"text_lanna":1,"total_detect":1}},{"type":"Feature","id":65,"geometry":{"type":"Point","coordinates":[98.997433310000076,18.779224710000051]},"properties":{"OBJECTID":65,"idx":1304,"POINT_Y":18.779224710000001,"POINT_X":98.997433310000005,"name":"ถนนกำแพงดิน","kom":0,"kalae":0,"text_lanna":1,"total_detect":1}},{"type":"Feature","id":66,"geometry":{"type":"Point","coordinates":[99.002941220000082,18.785119910000049]},"properties":{"OBJECTID":66,"idx":1310,"POINT_Y":18.785119909999999,"POINT_X":99.002941219999997,"name":"ถนนเจริญประเทศ","kom":0,"kalae":0,"text_lanna":1,"total_detect":1}},{"type":"Feature","id":67,"geometry":{"type":"Point","coordinates":[99.003602940000064,18.790724930000067]},"properties":{"OBJECTID":67,"idx":1317,"POINT_Y":18.79072493,"POINT_X":99.003602939999993,"name":"ถนนเจริญราษฎร์","kom":0,"kalae":0,"text_lanna":1,"total_detect":1}},{"type":"Feature","id":68,"geometry":{"type":"Point","coordinates":[98.989019040000073,18.766083070000036]},"properties":{"OBJECTID":68,"idx":1339,"POINT_Y":18.766083070000001,"POINT_X":98.989019040000002,"name":"ถนนมหิดล","kom":0,"kalae":0,"text_lanna":1,"total_detect":1}},{"type":"Feature","id":69,"geometry":{"type":"Point","coordinates":[99.024446170000033,18.762811130000046]},"properties":{"OBJECTID":69,"idx":1368,"POINT_Y":18.762811129999999,"POINT_X":99.024446170000004,"name":"ถนนมหิดล","kom":0,"kalae":0,"text_lanna":1,"total_detect":1}},{"type":"Feature","id":70,"geometry":{"type":"Point","coordinates":[98.984244620000084,18.767454660000055]},"properties":{"OBJECTID":70,"idx":1392,"POINT_Y":18.767454659999999,"POINT_X":98.984244619999998,"name":"ถนนมหิดล","kom":0,"kalae":0,"text_lanna":1,"total_detect":1}},{"type":"Feature","id":71,"geometry":{"type":"Point","coordinates":[98.982715210000038,18.767705070000034]},"properties":{"OBJECTID":71,"idx":1399,"POINT_Y":18.767705070000002,"POINT_X":98.982715209999995,"name":"ถนนมหิดล","kom":0,"kalae":0,"text_lanna":1,"total_detect":1}},{"type":"Feature","id":72,"geometry":{"type":"Point","coordinates":[99.007852100000036,18.760026340000024]},"properties":{"OBJECTID":72,"idx":1438,"POINT_Y":18.76002634,"POINT_X":99.007852099999994,"name":null,"kom":0,"kalae":0,"text_lanna":2,"total_detect":2}},{"type":"Feature","id":73,"geometry":{"type":"Point","coordinates":[99.009376330000066,18.761468190000073]},"properties":{"OBJECTID":73,"idx":1447,"POINT_Y":18.761468189999999,"POINT_X":99.009376329999995,"name":null,"kom":0,"kalae":0,"text_lanna":1,"total_detect":1}},{"type":"Feature","id":74,"geometry":{"type":"Point","coordinates":[99.012217600000042,18.768929590000027]},"properties":{"OBJECTID":74,"idx":1461,"POINT_Y":18.768929589999999,"POINT_X":99.0122176,"name":null,"kom":0,"kalae":0,"text_lanna":1,"total_detect":1}},{"type":"Feature","id":75,"geometry":{"type":"Point","coordinates":[99.012215800000035,18.768568080000023]},"properties":{"OBJECTID":75,"idx":1463,"POINT_Y":18.768568080000001,"POINT_X":99.012215800000007,"name":null,"kom":0,"kalae":0,"text_lanna":1,"total_detect":1}},{"type":"Feature","id":76,"geometry":{"type":"Point","coordinates":[99.012221370000077,18.768247240000051]},"properties":{"OBJECTID":76,"idx":1464,"POINT_Y":18.768247240000001,"POINT_X":99.012221370000006,"name":null,"kom":0,"kalae":0,"text_lanna":1,"total_detect":1}},{"type":"Feature","id":77,"geometry":{"type":"Point","coordinates":[99.012252390000072,18.767600750000042]},"properties":{"OBJECTID":77,"idx":1467,"POINT_Y":18.76760075,"POINT_X":99.01225239,"name":null,"kom":0,"kalae":1,"text_lanna":1,"total_detect":2}},{"type":"Feature","id":78,"geometry":{"type":"Point","coordinates":[99.010654880000061,18.773762040000065]},"properties":{"OBJECTID":78,"idx":1484,"POINT_Y":18.773762040000001,"POINT_X":99.010654880000004,"name":"ถนนราษฎร์อุทิศ ซอย 6","kom":0,"kalae":1,"text_lanna":1,"total_detect":2}},{"type":"Feature","id":79,"geometry":{"type":"Point","coordinates":[99.017901100000074,18.785591550000049]},"properties":{"OBJECTID":79,"idx":1488,"POINT_Y":18.785591549999999,"POINT_X":99.017901100000003,"name":"ถนน ทุ่งโฮเต็ล","kom":1,"kalae":0,"text_lanna":2,"total_detect":3}},{"type":"Feature","id":80,"geometry":{"type":"Point","coordinates":[99.000218320000045,18.790002120000054]},"properties":{"OBJECTID":80,"idx":1582,"POINT_Y":18.79000212,"POINT_X":99.000218320000002,"name":"ถนนข่วงเมรุ","kom":3,"kalae":2,"text_lanna":1,"total_detect":6}},{"type":"Feature","id":81,"geometry":{"type":"Point","coordinates":[98.99689815000005,18.786241800000028]},"properties":{"OBJECTID":81,"idx":1604,"POINT_Y":18.786241799999999,"POINT_X":98.996898150000007,"name":"ถนน ท่าแพ ซอย 3","kom":0,"kalae":0,"text_lanna":1,"total_detect":1}},{"type":"Feature","id":82,"geometry":{"type":"Point","coordinates":[99.00448182000008,18.810280120000073]},"properties":{"OBJECTID":82,"idx":1644,"POINT_Y":18.810280120000002,"POINT_X":99.004481819999995,"name":null,"kom":0,"kalae":0,"text_lanna":2,"total_detect":2}},{"type":"Feature","id":83,"geometry":{"type":"Point","coordinates":[98.984992440000042,18.79439614000006]},"properties":{"OBJECTID":83,"idx":1647,"POINT_Y":18.79439614,"POINT_X":98.984992439999999,"name":"ถนนศรีภูมิ ซอย 6","kom":0,"kalae":0,"text_lanna":1,"total_detect":1}},{"type":"Feature","id":84,"geometry":{"type":"Point","coordinates":[98.950182260000076,18.794193930000063]},"properties":{"OBJECTID":84,"idx":1701,"POINT_Y":18.794193929999999,"POINT_X":98.950182260000005,"name":"ถนนสุเทพ","kom":0,"kalae":0,"text_lanna":1,"total_detect":1}},{"type":"Feature","id":85,"geometry":{"type":"Point","coordinates":[98.94823260000004,18.796901990000038]},"properties":{"OBJECTID":85,"idx":1717,"POINT_Y":18.796901989999999,"POINT_X":98.948232599999997,"name":"ซอย ๑๐ เชิงดอย","kom":0,"kalae":10,"text_lanna":1,"total_detect":11}},{"type":"Feature","id":86,"geometry":{"type":"Point","coordinates":[98.995630580000068,18.794562160000055]},"properties":{"OBJECTID":86,"idx":1736,"POINT_Y":18.794562160000002,"POINT_X":98.995630579999997,"name":"ถนนราชวงศ์ ซอย 3","kom":0,"kalae":0,"text_lanna":1,"total_detect":1}},{"type":"Feature","id":87,"geometry":{"type":"Point","coordinates":[98.995705980000082,18.794195330000036]},"properties":{"OBJECTID":87,"idx":1738,"POINT_Y":18.794195330000001,"POINT_X":98.995705979999997,"name":"ถนนราชวงศ์ ซอย 3","kom":0,"kalae":0,"text_lanna":1,"total_detect":1}},{"type":"Feature","id":88,"geometry":{"type":"Point","coordinates":[98.995815440000058,18.793663170000059]},"properties":{"OBJECTID":88,"idx":1741,"POINT_Y":18.793663169999999,"POINT_X":98.995815440000001,"name":"ถนนราชวงศ์ ซอย 3","kom":0,"kalae":0,"text_lanna":1,"total_detect":1}},{"type":"Feature","id":89,"geometry":{"type":"Point","coordinates":[98.995266790000073,18.782700120000072]},"properties":{"OBJECTID":89,"idx":1757,"POINT_Y":18.782700120000001,"POINT_X":98.995266790000002,"name":"ถนนลอยเคาะห์ ซอย 1","kom":0,"kalae":0,"text_lanna":1,"total_detect":1}},{"type":"Feature","id":90,"geometry":{"type":"Point","coordinates":[98.99516009000007,18.782566820000056]},"properties":{"OBJECTID":90,"idx":1763,"POINT_Y":18.78256682,"POINT_X":98.995160089999999,"name":"ถนนลอยเคราะห์2","kom":0,"kalae":0,"text_lanna":1,"total_detect":1}},{"type":"Feature","id":91,"geometry":{"type":"Point","coordinates":[98.995384260000037,18.782842370000026]},"properties":{"OBJECTID":91,"idx":1764,"POINT_Y":18.782842370000001,"POINT_X":98.995384259999994,"name":"ถนนลอยเคราะห์2","kom":0,"kalae":0,"text_lanna":1,"total_detect":1}},{"type":"Feature","id":92,"geometry":{"type":"Point","coordinates":[98.995254320000072,18.778251680000039]},"properties":{"OBJECTID":92,"idx":1785,"POINT_Y":18.77825168,"POINT_X":98.995254320000001,"name":"ถนน ระแกง 2 ก","kom":0,"kalae":0,"text_lanna":1,"total_detect":1}},{"type":"Feature","id":93,"geometry":{"type":"Point","coordinates":[98.994284880000066,18.779017660000022]},"properties":{"OBJECTID":93,"idx":1795,"POINT_Y":18.779017660000001,"POINT_X":98.994284879999995,"name":"ถนนระแกง","kom":0,"kalae":0,"text_lanna":1,"total_detect":1}},{"type":"Feature","id":94,"geometry":{"type":"Point","coordinates":[98.993734470000049,18.779971850000038]},"properties":{"OBJECTID":94,"idx":1800,"POINT_Y":18.779971849999999,"POINT_X":98.993734470000007,"name":"ถนนระแกง","kom":3,"kalae":0,"text_lanna":2,"total_detect":5}},{"type":"Feature","id":95,"geometry":{"type":"Point","coordinates":[98.991390850000073,18.776952350000045]},"properties":{"OBJECTID":95,"idx":1803,"POINT_Y":18.776952349999998,"POINT_X":98.991390850000002,"name":"ถนน ราชเชียงแสน 2","kom":1,"kalae":0,"text_lanna":1,"total_detect":2}},{"type":"Feature","id":96,"geometry":{"type":"Point","coordinates":[98.991887160000033,18.780413650000071]},"properties":{"OBJECTID":96,"idx":1811,"POINT_Y":18.78041365,"POINT_X":98.991887160000005,"name":"ถนน ราชเชียงแสน 2","kom":0,"kalae":0,"text_lanna":1,"total_detect":1}},{"type":"Feature","id":97,"geometry":{"type":"Point","coordinates":[98.989961900000083,18.776654510000071]},"properties":{"OBJECTID":97,"idx":1813,"POINT_Y":18.77665451,"POINT_X":98.989961899999997,"name":"ถนน ราชเชียงแสน ซอย2","kom":0,"kalae":1,"text_lanna":1,"total_detect":2}},{"type":"Feature","id":98,"geometry":{"type":"Point","coordinates":[98.990150800000038,18.776671820000047]},"properties":{"OBJECTID":98,"idx":1814,"POINT_Y":18.776671820000001,"POINT_X":98.990150799999995,"name":"ถนน ราชเชียงแสน ซอย2","kom":0,"kalae":0,"text_lanna":2,"total_detect":2}},{"type":"Feature","id":99,"geometry":{"type":"Point","coordinates":[98.97722076000008,18.775537760000077]},"properties":{"OBJECTID":99,"idx":1872,"POINT_Y":18.775537759999999,"POINT_X":98.977220759999994,"name":"ถนนหายยา","kom":0,"kalae":0,"text_lanna":1,"total_detect":1}},{"type":"Feature","id":100,"geometry":{"type":"Point","coordinates":[98.979431810000051,18.774498990000041]},"properties":{"OBJECTID":100,"idx":1880,"POINT_Y":18.774498990000001,"POINT_X":98.979431809999994,"name":"ถนนหายยา","kom":4,"kalae":0,"text_lanna":1,"total_detect":5}},{"type":"Feature","id":101,"geometry":{"type":"Point","coordinates":[98.99194508000005,18.814944220000029]},"properties":{"OBJECTID":101,"idx":1900,"POINT_Y":18.814944220000001,"POINT_X":98.991945079999994,"name":"ถนนสุขเกษม","kom":0,"kalae":0,"text_lanna":1,"total_detect":1}},{"type":"Feature","id":102,"geometry":{"type":"Point","coordinates":[98.993190480000067,18.790764220000028]},"properties":{"OBJECTID":102,"idx":1968,"POINT_Y":18.79076422,"POINT_X":98.993190479999996,"name":null,"kom":1,"kalae":0,"text_lanna":1,"total_detect":2}},{"type":"Feature","id":103,"geometry":{"type":"Point","coordinates":[98.989204500000085,18.786752930000034]},"properties":{"OBJECTID":103,"idx":1979,"POINT_Y":18.786752929999999,"POINT_X":98.9892045,"name":"ถนนพระปกเกล้า ซอย 8","kom":0,"kalae":0,"text_lanna":1,"total_detect":1}},{"type":"Feature","id":104,"geometry":{"type":"Point","coordinates":[98.978149220000034,18.783122340000034]},"properties":{"OBJECTID":104,"idx":2000,"POINT_Y":18.783122339999998,"POINT_X":98.978149220000006,"name":"ถนนอารักษ์ ซอย 8","kom":0,"kalae":0,"text_lanna":1,"total_detect":1}},{"type":"Feature","id":105,"geometry":{"type":"Point","coordinates":[98.978640230000053,18.782900820000066]},"properties":{"OBJECTID":105,"idx":2002,"POINT_Y":18.782900819999998,"POINT_X":98.978640229999996,"name":null,"kom":0,"kalae":0,"text_lanna":1,"total_detect":1}},{"type":"Feature","id":106,"geometry":{"type":"Point","coordinates":[98.97973520000005,18.777754250000044]},"properties":{"OBJECTID":106,"idx":2092,"POINT_Y":18.777754250000001,"POINT_X":98.979735199999993,"name":"หมู่บ้านระมิงค์นิเวศน์","kom":0,"kalae":0,"text_lanna":2,"total_detect":2}},{"type":"Feature","id":107,"geometry":{"type":"Point","coordinates":[98.978403220000075,18.776709400000072]},"properties":{"OBJECTID":107,"idx":2105,"POINT_Y":18.776709400000001,"POINT_X":98.978403220000004,"name":null,"kom":0,"kalae":0,"text_lanna":2,"total_detect":2}},{"type":"Feature","id":108,"geometry":{"type":"Point","coordinates":[98.983536220000076,18.779855620000035]},"properties":{"OBJECTID":108,"idx":2163,"POINT_Y":18.779855619999999,"POINT_X":98.983536220000005,"name":"ถนนวัวลาย ซอย 2","kom":1,"kalae":0,"text_lanna":2,"total_detect":3}},{"type":"Feature","id":109,"geometry":{"type":"Point","coordinates":[98.972416320000036,18.788082880000047]},"properties":{"OBJECTID":109,"idx":2200,"POINT_Y":18.788082880000001,"POINT_X":98.972416319999994,"name":"ซอย ทานตะวัน","kom":0,"kalae":1,"text_lanna":1,"total_detect":2}},{"type":"Feature","id":110,"geometry":{"type":"Point","coordinates":[98.970839220000073,18.796879510000053]},"properties":{"OBJECTID":110,"idx":2245,"POINT_Y":18.79687951,"POINT_X":98.970839220000002,"name":"ถนนศิริมังคลาจารย์","kom":0,"kalae":0,"text_lanna":1,"total_detect":1}},{"type":"Feature","id":111,"geometry":{"type":"Point","coordinates":[98.984363080000037,18.801829100000077]},"properties":{"OBJECTID":111,"idx":2275,"POINT_Y":18.801829099999999,"POINT_X":98.984363079999994,"name":null,"kom":0,"kalae":0,"text_lanna":1,"total_detect":1}},{"type":"Feature","id":112,"geometry":{"type":"Point","coordinates":[98.997680350000053,18.776739930000076]},"properties":{"OBJECTID":112,"idx":2324,"POINT_Y":18.776739930000002,"POINT_X":98.997680349999996,"name":"ถนนประชาสัมพันธ์ ซอย2","kom":0,"kalae":0,"text_lanna":1,"total_detect":1}},{"type":"Feature","id":113,"geometry":{"type":"Point","coordinates":[98.996777160000079,18.775961380000069]},"properties":{"OBJECTID":113,"idx":2369,"POINT_Y":18.775961379999998,"POINT_X":98.996777159999994,"name":"ถนนเวียงพิงค์","kom":0,"kalae":0,"text_lanna":2,"total_detect":2}},{"type":"Feature","id":114,"geometry":{"type":"Point","coordinates":[98.995777210000085,18.782184600000051]},"properties":{"OBJECTID":114,"idx":2462,"POINT_Y":18.782184600000001,"POINT_X":98.99577721,"name":null,"kom":0,"kalae":0,"text_lanna":2,"total_detect":2}},{"type":"Feature","id":115,"geometry":{"type":"Point","coordinates":[98.997155950000035,18.773128590000056]},"properties":{"OBJECTID":115,"idx":2490,"POINT_Y":18.773128589999999,"POINT_X":98.997155950000007,"name":"ถนนศรีจันทร์ดร","kom":0,"kalae":0,"text_lanna":1,"total_detect":1}},{"type":"Feature","id":116,"geometry":{"type":"Point","coordinates":[98.99114250000008,18.77954273000006]},"properties":{"OBJECTID":116,"idx":2550,"POINT_Y":18.779542729999999,"POINT_X":98.991142499999995,"name":"ถนนราชเชียงแสน ซอย 1ข","kom":0,"kalae":0,"text_lanna":1,"total_detect":1}},{"type":"Feature","id":117,"geometry":{"type":"Point","coordinates":[99.014182120000044,18.782977320000043]},"properties":{"OBJECTID":117,"idx":2628,"POINT_Y":18.782977320000001,"POINT_X":99.014182120000001,"name":"ถนนกองทราย","kom":0,"kalae":0,"text_lanna":1,"total_detect":1}},{"type":"Feature","id":118,"geometry":{"type":"Point","coordinates":[99.015009340000063,18.782801340000049]},"properties":{"OBJECTID":118,"idx":2632,"POINT_Y":18.782801339999999,"POINT_X":99.015009340000006,"name":"ถนนกองทราย","kom":0,"kalae":2,"text_lanna":1,"total_detect":3}},{"type":"Feature","id":119,"geometry":{"type":"Point","coordinates":[99.017071840000085,18.772630020000065]},"properties":{"OBJECTID":119,"idx":2684,"POINT_Y":18.772630020000001,"POINT_X":99.01707184,"name":null,"kom":0,"kalae":1,"text_lanna":2,"total_detect":3}},{"type":"Feature","id":120,"geometry":{"type":"Point","coordinates":[99.012142850000032,18.772258930000078]},"properties":{"OBJECTID":120,"idx":2708,"POINT_Y":18.77225893,"POINT_X":99.012142850000004,"name":"ถนนราษฎร์อุทิศ ซอย 8","kom":6,"kalae":0,"text_lanna":1,"total_detect":7}},{"type":"Feature","id":121,"geometry":{"type":"Point","coordinates":[99.015231460000052,18.769384460000026]},"properties":{"OBJECTID":121,"idx":2719,"POINT_Y":18.769384460000001,"POINT_X":99.015231459999995,"name":null,"kom":0,"kalae":0,"text_lanna":2,"total_detect":2}},{"type":"Feature","id":122,"geometry":{"type":"Point","coordinates":[99.020175770000037,18.782008010000027]},"properties":{"OBJECTID":122,"idx":2737,"POINT_Y":18.782008009999998,"POINT_X":99.020175769999994,"name":"ถนนเจริญเมือง ซอย 5","kom":0,"kalae":0,"text_lanna":2,"total_detect":2}},{"type":"Feature","id":123,"geometry":{"type":"Point","coordinates":[99.018840170000033,18.777394270000059]},"properties":{"OBJECTID":123,"idx":2746,"POINT_Y":18.777394269999998,"POINT_X":99.018840170000004,"name":null,"kom":0,"kalae":0,"text_lanna":2,"total_detect":2}},{"type":"Feature","id":124,"geometry":{"type":"Point","coordinates":[99.022855280000044,18.781455680000022]},"properties":{"OBJECTID":124,"idx":2751,"POINT_Y":18.781455680000001,"POINT_X":99.022855280000002,"name":"ถนนเจริญเมือง ซอย 7","kom":0,"kalae":0,"text_lanna":1,"total_detect":1}},{"type":"Feature","id":125,"geometry":{"type":"Point","coordinates":[98.971858860000054,18.796093450000058]},"properties":{"OBJECTID":125,"idx":2807,"POINT_Y":18.796093450000001,"POINT_X":98.971858859999998,"name":"ถนนศิริมังคลาจารย์ ซอย 3","kom":0,"kalae":0,"text_lanna":2,"total_detect":2}},{"type":"Feature","id":126,"geometry":{"type":"Point","coordinates":[98.973662060000038,18.79534287000007]},"properties":{"OBJECTID":126,"idx":2813,"POINT_Y":18.795342869999999,"POINT_X":98.973662059999995,"name":"ถนนศิริมังคลาจารย์ ซอย 5","kom":0,"kalae":0,"text_lanna":2,"total_detect":2}},{"type":"Feature","id":127,"geometry":{"type":"Point","coordinates":[98.973329360000037,18.79540041000007]},"properties":{"OBJECTID":127,"idx":2814,"POINT_Y":18.795400409999999,"POINT_X":98.973329359999994,"name":"ถนนศิริมังคลาจารย์ ซอย 5","kom":0,"kalae":0,"text_lanna":1,"total_detect":1}},{"type":"Feature","id":128,"geometry":{"type":"Point","coordinates":[98.97233956000008,18.795568040000035]},"properties":{"OBJECTID":128,"idx":2819,"POINT_Y":18.795568039999999,"POINT_X":98.972339559999995,"name":"ถนนศิริมังคลาจารย์ ซอย 5","kom":0,"kalae":0,"text_lanna":2,"total_detect":2}},{"type":"Feature","id":129,"geometry":{"type":"Point","coordinates":[98.971512270000062,18.794348230000026]},"properties":{"OBJECTID":129,"idx":2846,"POINT_Y":18.794348230000001,"POINT_X":98.971512270000005,"name":"ถนนศิริมังคลาจารย์ ซอย 9","kom":0,"kalae":0,"text_lanna":1,"total_detect":1}},{"type":"Feature","id":130,"geometry":{"type":"Point","coordinates":[98.971498050000037,18.793468000000075]},"properties":{"OBJECTID":130,"idx":2866,"POINT_Y":18.793468000000001,"POINT_X":98.971498049999994,"name":"ถนนศิริมังคลาจารย์ ซอย 13","kom":0,"kalae":0,"text_lanna":1,"total_detect":1}},{"type":"Feature","id":131,"geometry":{"type":"Point","coordinates":[98.972242260000087,18.794243370000061]},"properties":{"OBJECTID":131,"idx":2883,"POINT_Y":18.79424337,"POINT_X":98.972242260000002,"name":null,"kom":0,"kalae":0,"text_lanna":1,"total_detect":1}},{"type":"Feature","id":132,"geometry":{"type":"Point","coordinates":[98.94934438000007,18.796626300000071]},"properties":{"OBJECTID":132,"idx":2935,"POINT_Y":18.7966263,"POINT_X":98.949344379999999,"name":null,"kom":0,"kalae":0,"text_lanna":2,"total_detect":2}},{"type":"Feature","id":133,"geometry":{"type":"Point","coordinates":[98.955259720000072,18.797833010000033]},"properties":{"OBJECTID":133,"idx":2941,"POINT_Y":18.797833010000002,"POINT_X":98.955259720000001,"name":"ซอย ๔๐๑ วังเหนึอ","kom":1,"kalae":0,"text_lanna":2,"total_detect":3}},{"type":"Feature","id":134,"geometry":{"type":"Point","coordinates":[98.981348590000039,18.790234750000025]},"properties":{"OBJECTID":134,"idx":2994,"POINT_Y":18.79023475,"POINT_X":98.981348589999996,"name":"ถนนอินทวโรรส ซอย 3","kom":4,"kalae":0,"text_lanna":1,"total_detect":5}},{"type":"Feature","id":135,"geometry":{"type":"Point","coordinates":[98.996459060000063,18.809663030000024]},"properties":{"OBJECTID":135,"idx":3029,"POINT_Y":18.809663029999999,"POINT_X":98.996459060000007,"name":null,"kom":0,"kalae":0,"text_lanna":1,"total_detect":1}},{"type":"Feature","id":136,"geometry":{"type":"Point","coordinates":[98.999269230000039,18.805423180000048]},"properties":{"OBJECTID":136,"idx":3068,"POINT_Y":18.805423179999998,"POINT_X":98.999269229999996,"name":null,"kom":0,"kalae":0,"text_lanna":2,"total_detect":2}},{"type":"Feature","id":137,"geometry":{"type":"Point","coordinates":[98.997780230000046,18.805503180000073]},"properties":{"OBJECTID":137,"idx":3077,"POINT_Y":18.805503179999999,"POINT_X":98.997780230000004,"name":null,"kom":0,"kalae":0,"text_lanna":1,"total_detect":1}},{"type":"Feature","id":138,"geometry":{"type":"Point","coordinates":[98.998382580000055,18.806315000000041]},"properties":{"OBJECTID":138,"idx":3084,"POINT_Y":18.806315000000001,"POINT_X":98.998382579999998,"name":null,"kom":0,"kalae":0,"text_lanna":1,"total_detect":1}},{"type":"Feature","id":139,"geometry":{"type":"Point","coordinates":[98.999557770000081,18.804714230000059]},"properties":{"OBJECTID":139,"idx":3095,"POINT_Y":18.804714229999998,"POINT_X":98.999557769999996,"name":null,"kom":0,"kalae":0,"text_lanna":6,"total_detect":6}},{"type":"Feature","id":140,"geometry":{"type":"Point","coordinates":[99.00638624000004,18.78260363000004]},"properties":{"OBJECTID":140,"idx":3139,"POINT_Y":18.782603630000001,"POINT_X":99.006386239999998,"name":"ถนนท่าสะต๋อย","kom":0,"kalae":0,"text_lanna":1,"total_detect":1}},{"type":"Feature","id":141,"geometry":{"type":"Point","coordinates":[99.009980210000037,18.765799860000072]},"properties":{"OBJECTID":141,"idx":3150,"POINT_Y":18.765799860000001,"POINT_X":99.009980209999995,"name":"ถนนเชียงใหม่-ลำพูน ซอย9","kom":1,"kalae":0,"text_lanna":1,"total_detect":2}},{"type":"Feature","id":142,"geometry":{"type":"Point","coordinates":[98.998749580000037,18.790141560000052]},"properties":{"OBJECTID":142,"idx":3172,"POINT_Y":18.790141559999999,"POINT_X":98.998749579999995,"name":null,"kom":0,"kalae":0,"text_lanna":4,"total_detect":4}},{"type":"Feature","id":143,"geometry":{"type":"Point","coordinates":[98.987942710000084,18.797953160000077]},"properties":{"OBJECTID":143,"idx":3190,"POINT_Y":18.797953159999999,"POINT_X":98.987942709999999,"name":"ถนนสนามกีฬา ซอย2","kom":0,"kalae":0,"text_lanna":2,"total_detect":2}},{"type":"Feature","id":144,"geometry":{"type":"Point","coordinates":[98.975975650000066,18.799485130000051]},"properties":{"OBJECTID":144,"idx":3210,"POINT_Y":18.799485130000001,"POINT_X":98.975975649999995,"name":null,"kom":0,"kalae":0,"text_lanna":2,"total_detect":2}},{"type":"Feature","id":145,"geometry":{"type":"Point","coordinates":[98.975068410000063,18.799035510000067]},"properties":{"OBJECTID":145,"idx":3233,"POINT_Y":18.79903551,"POINT_X":98.975068410000006,"name":"ถนนราชพฤกษ์","kom":0,"kalae":0,"text_lanna":1,"total_detect":1}},{"type":"Feature","id":146,"geometry":{"type":"Point","coordinates":[98.989279680000038,18.76945696000007]},"properties":{"OBJECTID":146,"idx":3297,"POINT_Y":18.769456959999999,"POINT_X":98.989279679999996,"name":null,"kom":0,"kalae":1,"text_lanna":1,"total_detect":2}},{"type":"Feature","id":147,"geometry":{"type":"Point","coordinates":[98.98765848000005,18.769685450000054]},"properties":{"OBJECTID":147,"idx":3311,"POINT_Y":18.769685450000001,"POINT_X":98.987658479999993,"name":null,"kom":0,"kalae":0,"text_lanna":1,"total_detect":1}},{"type":"Feature","id":148,"geometry":{"type":"Point","coordinates":[98.989203320000058,18.769880150000063]},"properties":{"OBJECTID":148,"idx":3315,"POINT_Y":18.769880149999999,"POINT_X":98.989203320000001,"name":null,"kom":0,"kalae":0,"text_lanna":2,"total_detect":2}},{"type":"Feature","id":149,"geometry":{"type":"Point","coordinates":[98.979923270000086,18.821519810000041]},"properties":{"OBJECTID":149,"idx":3339,"POINT_Y":18.821519810000002,"POINT_X":98.97992327,"name":null,"kom":0,"kalae":0,"text_lanna":2,"total_detect":2}},{"type":"Feature","id":150,"geometry":{"type":"Point","coordinates":[98.983981060000076,18.785749550000048]},"properties":{"OBJECTID":150,"idx":3371,"POINT_Y":18.785749549999998,"POINT_X":98.983981060000005,"name":"ถนนราชมรรคา","kom":0,"kalae":0,"text_lanna":2,"total_detect":2}},{"type":"Feature","id":151,"geometry":{"type":"Point","coordinates":[98.989780840000037,18.767747590000056]},"properties":{"OBJECTID":151,"idx":3389,"POINT_Y":18.767747589999999,"POINT_X":98.989780839999995,"name":null,"kom":0,"kalae":0,"text_lanna":1,"total_detect":1}},{"type":"Feature","id":152,"geometry":{"type":"Point","coordinates":[98.990055880000057,18.77002342000003]},"properties":{"OBJECTID":152,"idx":3399,"POINT_Y":18.770023420000001,"POINT_X":98.99005588,"name":null,"kom":0,"kalae":0,"text_lanna":1,"total_detect":1}},{"type":"Feature","id":153,"geometry":{"type":"Point","coordinates":[98.999659490000056,18.774939190000055]},"properties":{"OBJECTID":153,"idx":3411,"POINT_Y":18.774939190000001,"POINT_X":98.999659489999999,"name":"ถนนเจริญประเทศ 12","kom":0,"kalae":0,"text_lanna":10,"total_detect":10}},{"type":"Feature","id":154,"geometry":{"type":"Point","coordinates":[98.996064480000086,18.767107700000054]},"properties":{"OBJECTID":154,"idx":3440,"POINT_Y":18.7671077,"POINT_X":98.996064480000001,"name":"ถนน เชียงใหม่แลนด์","kom":0,"kalae":0,"text_lanna":1,"total_detect":1}},{"type":"Feature","id":155,"geometry":{"type":"Point","coordinates":[98.984499690000064,18.779014090000032]},"properties":{"OBJECTID":155,"idx":3474,"POINT_Y":18.77901409,"POINT_X":98.984499690000007,"name":"ถนนวัฒนธรรมวัดศรีสุพรรณ","kom":0,"kalae":1,"text_lanna":1,"total_detect":2}},{"type":"Feature","id":156,"geometry":{"type":"Point","coordinates":[98.983226020000075,18.780953630000056]},"properties":{"OBJECTID":156,"idx":3514,"POINT_Y":18.780953629999999,"POINT_X":98.983226020000004,"name":"ถนนวัวลาย ซอย 2ข","kom":0,"kalae":8,"text_lanna":2,"total_detect":10}},{"type":"Feature","id":157,"geometry":{"type":"Point","coordinates":[98.986738410000044,18.777553260000047]},"properties":{"OBJECTID":157,"idx":3516,"POINT_Y":18.777553260000001,"POINT_X":98.986738410000001,"name":"ถนนนันทาราม ซอย 3","kom":4,"kalae":0,"text_lanna":1,"total_detect":5}},{"type":"Feature","id":158,"geometry":{"type":"Point","coordinates":[98.983412420000036,18.776445900000056]},"properties":{"OBJECTID":158,"idx":3560,"POINT_Y":18.776445899999999,"POINT_X":98.983412419999993,"name":"ถนนวัวลาย ซอย 5","kom":0,"kalae":0,"text_lanna":1,"total_detect":1}},{"type":"Feature","id":159,"geometry":{"type":"Point","coordinates":[98.990858830000036,18.778865630000041]},"properties":{"OBJECTID":159,"idx":3629,"POINT_Y":18.778865629999999,"POINT_X":98.990858829999993,"name":"ถนนราชเชียงแสน ซอย 1ค","kom":6,"kalae":0,"text_lanna":1,"total_detect":7}},{"type":"Feature","id":160,"geometry":{"type":"Point","coordinates":[98.981608450000067,18.77316490000004]},"properties":{"OBJECTID":160,"idx":3648,"POINT_Y":18.773164900000001,"POINT_X":98.981608449999996,"name":"ถนนศรีปิงเมือง ซอย 1ก","kom":0,"kalae":0,"text_lanna":1,"total_detect":1}},{"type":"Feature","id":161,"geometry":{"type":"Point","coordinates":[98.982954490000054,18.771134490000065]},"properties":{"OBJECTID":161,"idx":3662,"POINT_Y":18.771134490000001,"POINT_X":98.982954489999997,"name":"ถนนศรีปิงเมือง 5","kom":0,"kalae":0,"text_lanna":2,"total_detect":2}},{"type":"Feature","id":162,"geometry":{"type":"Point","coordinates":[98.985481800000059,18.77005986000006]},"properties":{"OBJECTID":162,"idx":3687,"POINT_Y":18.77005986,"POINT_X":98.985481800000002,"name":null,"kom":0,"kalae":1,"text_lanna":1,"total_detect":2}},{"type":"Feature","id":163,"geometry":{"type":"Point","coordinates":[98.985050040000033,18.769355850000068]},"properties":{"OBJECTID":163,"idx":3701,"POINT_Y":18.76935585,"POINT_X":98.985050040000004,"name":null,"kom":0,"kalae":0,"text_lanna":1,"total_detect":1}},{"type":"Feature","id":164,"geometry":{"type":"Point","coordinates":[98.987183410000057,18.772606680000024]},"properties":{"OBJECTID":164,"idx":3706,"POINT_Y":18.772606679999999,"POINT_X":98.98718341,"name":null,"kom":0,"kalae":0,"text_lanna":2,"total_detect":2}},{"type":"Feature","id":165,"geometry":{"type":"Point","coordinates":[98.991191910000055,18.774242100000038]},"properties":{"OBJECTID":165,"idx":3817,"POINT_Y":18.774242099999999,"POINT_X":98.991191909999998,"name":"ถนน สุริยวงศ์ ซอย 6","kom":0,"kalae":0,"text_lanna":1,"total_detect":1}},{"type":"Feature","id":166,"geometry":{"type":"Point","coordinates":[98.990128730000038,18.77375827000003]},"properties":{"OBJECTID":166,"idx":3823,"POINT_Y":18.773758269999998,"POINT_X":98.990128729999995,"name":"ถนน สุริยวงศ์ ซอย 6","kom":0,"kalae":0,"text_lanna":1,"total_detect":1}},{"type":"Feature","id":167,"geometry":{"type":"Point","coordinates":[98.994499090000033,18.764633060000051]},"properties":{"OBJECTID":167,"idx":3897,"POINT_Y":18.764633060000001,"POINT_X":98.994499090000005,"name":null,"kom":0,"kalae":0,"text_lanna":2,"total_detect":2}},{"type":"Feature","id":168,"geometry":{"type":"Point","coordinates":[98.991571040000053,18.767260990000068]},"properties":{"OBJECTID":168,"idx":3916,"POINT_Y":18.76726099,"POINT_X":98.991571039999997,"name":null,"kom":0,"kalae":1,"text_lanna":3,"total_detect":4}},{"type":"Feature","id":169,"geometry":{"type":"Point","coordinates":[98.991378110000085,18.767272530000071]},"properties":{"OBJECTID":169,"idx":3917,"POINT_Y":18.76727253,"POINT_X":98.991378109999999,"name":null,"kom":0,"kalae":0,"text_lanna":1,"total_detect":1}},{"type":"Feature","id":170,"geometry":{"type":"Point","coordinates":[98.991912960000036,18.766797250000025]},"properties":{"OBJECTID":170,"idx":3924,"POINT_Y":18.76679725,"POINT_X":98.991912959999993,"name":null,"kom":0,"kalae":0,"text_lanna":1,"total_detect":1}},{"type":"Feature","id":171,"geometry":{"type":"Point","coordinates":[99.024686210000084,18.784621380000033]},"properties":{"OBJECTID":171,"idx":3947,"POINT_Y":18.784621380000001,"POINT_X":99.024686209999999,"name":"ซอยเจริญยิ่ง","kom":0,"kalae":0,"text_lanna":2,"total_detect":2}},{"type":"Feature","id":172,"geometry":{"type":"Point","coordinates":[99.024562070000059,18.786346260000073]},"properties":{"OBJECTID":172,"idx":3956,"POINT_Y":18.786346259999998,"POINT_X":99.024562070000002,"name":"ซอยเจริญยิ่ง","kom":0,"kalae":0,"text_lanna":1,"total_detect":1}},{"type":"Feature","id":173,"geometry":{"type":"Point","coordinates":[99.024563840000042,18.781686600000057]},"properties":{"OBJECTID":173,"idx":3983,"POINT_Y":18.7816866,"POINT_X":99.024563839999999,"name":"ถนนเจริญเมือง ซอย 8","kom":0,"kalae":0,"text_lanna":1,"total_detect":1}},{"type":"Feature","id":174,"geometry":{"type":"Point","coordinates":[99.024966950000078,18.782260380000025]},"properties":{"OBJECTID":174,"idx":4000,"POINT_Y":18.78226038,"POINT_X":99.024966950000007,"name":"เจริญเมือง ซอย 8ก","kom":0,"kalae":0,"text_lanna":1,"total_detect":1}},{"type":"Feature","id":175,"geometry":{"type":"Point","coordinates":[99.024974520000058,18.767577970000048]},"properties":{"OBJECTID":175,"idx":4037,"POINT_Y":18.767577970000001,"POINT_X":99.024974520000001,"name":"ซอยร่มเย็น","kom":0,"kalae":0,"text_lanna":1,"total_detect":1}},{"type":"Feature","id":176,"geometry":{"type":"Point","coordinates":[99.02675529000004,18.765336600000069]},"properties":{"OBJECTID":176,"idx":4055,"POINT_Y":18.765336600000001,"POINT_X":99.026755289999997,"name":"ถนนต้นขาม 2","kom":0,"kalae":0,"text_lanna":1,"total_detect":1}},{"type":"Feature","id":177,"geometry":{"type":"Point","coordinates":[99.022446260000038,18.764659820000077]},"properties":{"OBJECTID":177,"idx":4084,"POINT_Y":18.764659819999999,"POINT_X":99.022446259999995,"name":"มงฟอร์ด วิลล่า 4","kom":0,"kalae":0,"text_lanna":1,"total_detect":1}},{"type":"Feature","id":178,"geometry":{"type":"Point","coordinates":[99.020303120000051,18.769218880000039]},"properties":{"OBJECTID":178,"idx":4091,"POINT_Y":18.76921888,"POINT_X":99.020303119999994,"name":null,"kom":0,"kalae":1,"text_lanna":2,"total_detect":3}},{"type":"Feature","id":179,"geometry":{"type":"Point","coordinates":[99.022000480000031,18.766703280000058]},"properties":{"OBJECTID":179,"idx":4104,"POINT_Y":18.766703280000002,"POINT_X":99.022000480000003,"name":"มงฟอร์ด วิลล่า 14","kom":0,"kalae":0,"text_lanna":4,"total_detect":4}},{"type":"Feature","id":180,"geometry":{"type":"Point","coordinates":[99.022130450000077,18.766374810000059]},"properties":{"OBJECTID":180,"idx":4110,"POINT_Y":18.766374809999999,"POINT_X":99.022130450000006,"name":"มงฟอร์ด วิลล่า 12","kom":0,"kalae":0,"text_lanna":2,"total_detect":2}},{"type":"Feature","id":181,"geometry":{"type":"Point","coordinates":[99.021954490000041,18.76630713000003]},"properties":{"OBJECTID":181,"idx":4111,"POINT_Y":18.766307130000001,"POINT_X":99.021954489999999,"name":"มงฟอร์ด วิลล่า 12","kom":0,"kalae":1,"text_lanna":2,"total_detect":3}},{"type":"Feature","id":182,"geometry":{"type":"Point","coordinates":[99.02134183000004,18.765692300000069]},"properties":{"OBJECTID":182,"idx":4122,"POINT_Y":18.765692300000001,"POINT_X":99.021341829999997,"name":"มงฟอร์ด วิลล่า 10","kom":1,"kalae":0,"text_lanna":1,"total_detect":2}},{"type":"Feature","id":183,"geometry":{"type":"Point","coordinates":[99.022609880000061,18.762856660000068]},"properties":{"OBJECTID":183,"idx":4142,"POINT_Y":18.762856660000001,"POINT_X":99.022609880000005,"name":null,"kom":0,"kalae":3,"text_lanna":1,"total_detect":4}},{"type":"Feature","id":184,"geometry":{"type":"Point","coordinates":[99.023018730000047,18.771308950000048]},"properties":{"OBJECTID":184,"idx":4147,"POINT_Y":18.771308950000002,"POINT_X":99.023018730000004,"name":"ตันขาม ซอย 2","kom":0,"kalae":0,"text_lanna":1,"total_detect":1}},{"type":"Feature","id":185,"geometry":{"type":"Point","coordinates":[99.025947110000061,18.770178970000075]},"properties":{"OBJECTID":185,"idx":4158,"POINT_Y":18.77017897,"POINT_X":99.025947110000004,"name":"ตันขาม ซอย 2","kom":0,"kalae":0,"text_lanna":1,"total_detect":1}},{"type":"Feature","id":186,"geometry":{"type":"Point","coordinates":[99.023308610000072,18.770835050000073]},"properties":{"OBJECTID":186,"idx":4169,"POINT_Y":18.770835049999999,"POINT_X":99.023308610000001,"name":null,"kom":0,"kalae":0,"text_lanna":1,"total_detect":1}},{"type":"Feature","id":187,"geometry":{"type":"Point","coordinates":[99.02428615000008,18.77028131000003]},"properties":{"OBJECTID":187,"idx":4176,"POINT_Y":18.770281310000001,"POINT_X":99.024286149999995,"name":null,"kom":0,"kalae":0,"text_lanna":1,"total_detect":1}},{"type":"Feature","id":188,"geometry":{"type":"Point","coordinates":[99.024469420000059,18.769639660000053]},"properties":{"OBJECTID":188,"idx":4184,"POINT_Y":18.769639659999999,"POINT_X":99.024469420000003,"name":null,"kom":0,"kalae":0,"text_lanna":1,"total_detect":1}},{"type":"Feature","id":189,"geometry":{"type":"Point","coordinates":[99.00345585000008,18.810176900000044]},"properties":{"OBJECTID":189,"idx":4252,"POINT_Y":18.810176899999998,"POINT_X":99.003455849999995,"name":"ถนนซุปเปอร์ไฮเวย์","kom":2,"kalae":0,"text_lanna":2,"total_detect":4}},{"type":"Feature","id":190,"geometry":{"type":"Point","coordinates":[98.996720960000061,18.760731240000041]},"properties":{"OBJECTID":190,"idx":4283,"POINT_Y":18.760731239999998,"POINT_X":98.996720960000005,"name":"ถนนมหิดล","kom":0,"kalae":3,"text_lanna":2,"total_detect":5}},{"type":"Feature","id":191,"geometry":{"type":"Point","coordinates":[98.997721680000041,18.759899210000071]},"properties":{"OBJECTID":191,"idx":4290,"POINT_Y":18.75989921,"POINT_X":98.997721679999998,"name":"ถนนมหิดล","kom":0,"kalae":0,"text_lanna":1,"total_detect":1}},{"type":"Feature","id":192,"geometry":{"type":"Point","coordinates":[99.005475320000073,18.763032080000073]},"properties":{"OBJECTID":192,"idx":4307,"POINT_Y":18.763032079999999,"POINT_X":99.005475320000002,"name":"ถนน เกาะกลาง","kom":0,"kalae":0,"text_lanna":1,"total_detect":1}},{"type":"Feature","id":193,"geometry":{"type":"Point","coordinates":[99.003668320000031,18.760600540000041]},"properties":{"OBJECTID":193,"idx":4317,"POINT_Y":18.760600539999999,"POINT_X":99.003668320000003,"name":"ถนน เกาะกลาง","kom":0,"kalae":0,"text_lanna":1,"total_detect":1}},{"type":"Feature","id":194,"geometry":{"type":"Point","coordinates":[99.001683580000076,18.75861290000006]},"properties":{"OBJECTID":194,"idx":4325,"POINT_Y":18.758612899999999,"POINT_X":99.001683580000005,"name":"ถนน เกาะกลาง","kom":0,"kalae":0,"text_lanna":2,"total_detect":2}},{"type":"Feature","id":195,"geometry":{"type":"Point","coordinates":[98.997296000000063,18.792880080000032]},"properties":{"OBJECTID":195,"idx":4331,"POINT_Y":18.79288008,"POINT_X":98.997296000000006,"name":"ถนนราชวงศ์","kom":0,"kalae":0,"text_lanna":1,"total_detect":1}},{"type":"Feature","id":196,"geometry":{"type":"Point","coordinates":[98.985586190000049,18.805377200000066]},"properties":{"OBJECTID":196,"idx":4344,"POINT_Y":18.805377199999999,"POINT_X":98.985586190000006,"name":"ถนนหมื่่นด้ามพร้าคต","kom":0,"kalae":0,"text_lanna":1,"total_detect":1}},{"type":"Feature","id":197,"geometry":{"type":"Point","coordinates":[98.985957290000044,18.812157330000048]},"properties":{"OBJECTID":197,"idx":4380,"POINT_Y":18.812157330000002,"POINT_X":98.985957290000002,"name":"ถนนซุปเปอร์ไฮเวย์","kom":0,"kalae":1,"text_lanna":1,"total_detect":2}},{"type":"Feature","id":198,"geometry":{"type":"Point","coordinates":[99.009215790000042,18.786900680000031]},"properties":{"OBJECTID":198,"idx":4442,"POINT_Y":18.786900679999999,"POINT_X":99.009215789999999,"name":"ถนนเจริญเมือง","kom":0,"kalae":0,"text_lanna":1,"total_detect":1}},{"type":"Feature","id":199,"geometry":{"type":"Point","coordinates":[98.993792080000048,18.792266840000025]},"properties":{"OBJECTID":199,"idx":4473,"POINT_Y":18.79226684,"POINT_X":98.993792080000006,"name":"ถนนชัยภูมิ","kom":0,"kalae":0,"text_lanna":1,"total_detect":1}},{"type":"Feature","id":200,"geometry":{"type":"Point","coordinates":[98.993783270000051,18.792086280000035]},"properties":{"OBJECTID":200,"idx":4474,"POINT_Y":18.792086279999999,"POINT_X":98.993783269999994,"name":"ถนนชัยภูมิ","kom":0,"kalae":0,"text_lanna":1,"total_detect":1}},{"type":"Feature","id":201,"geometry":{"type":"Point","coordinates":[98.981710220000082,18.796056830000055]},"properties":{"OBJECTID":201,"idx":4483,"POINT_Y":18.796056830000001,"POINT_X":98.981710219999997,"name":null,"kom":0,"kalae":1,"text_lanna":1,"total_detect":2}},{"type":"Feature","id":202,"geometry":{"type":"Point","coordinates":[99.019036590000042,18.790742850000072]},"properties":{"OBJECTID":202,"idx":4499,"POINT_Y":18.790742850000001,"POINT_X":99.019036589999999,"name":null,"kom":0,"kalae":0,"text_lanna":1,"total_detect":1}},{"type":"Feature","id":203,"geometry":{"type":"Point","coordinates":[99.020545200000072,18.767092810000065]},"properties":{"OBJECTID":203,"idx":4552,"POINT_Y":18.767092810000001,"POINT_X":99.020545200000001,"name":null,"kom":0,"kalae":0,"text_lanna":2,"total_detect":2}},{"type":"Feature","id":204,"geometry":{"type":"Point","coordinates":[98.990272970000035,18.782780090000074]},"properties":{"OBJECTID":204,"idx":4663,"POINT_Y":18.782780089999999,"POINT_X":98.990272970000007,"name":"ถนนมิตรปราณี","kom":0,"kalae":0,"text_lanna":1,"total_detect":1}},{"type":"Feature","id":205,"geometry":{"type":"Point","coordinates":[98.990319000000056,18.78447914000003]},"properties":{"OBJECTID":205,"idx":4674,"POINT_Y":18.784479139999998,"POINT_X":98.990319,"name":"ถนนพระปกเกล้า ซอย 6","kom":0,"kalae":0,"text_lanna":1,"total_detect":1}},{"type":"Feature","id":206,"geometry":{"type":"Point","coordinates":[98.983697880000079,18.793951010000058]},"properties":{"OBJECTID":206,"idx":4690,"POINT_Y":18.793951010000001,"POINT_X":98.983697879999994,"name":"ถนนสิงหราช ซอย 4","kom":0,"kalae":0,"text_lanna":2,"total_detect":2}},{"type":"Feature","id":207,"geometry":{"type":"Point","coordinates":[98.983502770000086,18.793977570000038]},"properties":{"OBJECTID":207,"idx":4691,"POINT_Y":18.793977569999999,"POINT_X":98.983502770000001,"name":"ถนนสิงหราช ซอย 4","kom":0,"kalae":0,"text_lanna":2,"total_detect":2}},{"type":"Feature","id":208,"geometry":{"type":"Point","coordinates":[98.98225307000007,18.793818790000046]},"properties":{"OBJECTID":208,"idx":4696,"POINT_Y":18.79381879,"POINT_X":98.982253069999999,"name":"ถนนสิงหราช ซอย 4","kom":0,"kalae":0,"text_lanna":1,"total_detect":1}},{"type":"Feature","id":209,"geometry":{"type":"Point","coordinates":[98.963688730000058,18.794901050000078]},"properties":{"OBJECTID":209,"idx":4741,"POINT_Y":18.79490105,"POINT_X":98.963688730000001,"name":"ถนน ๒ เชียงราย","kom":0,"kalae":0,"text_lanna":2,"total_detect":2}},{"type":"Feature","id":210,"geometry":{"type":"Point","coordinates":[99.000933420000081,18.793915840000068]},"properties":{"OBJECTID":210,"idx":4750,"POINT_Y":18.79391584,"POINT_X":99.000933419999996,"name":"ถนนแก้วนวรัฐ","kom":0,"kalae":0,"text_lanna":2,"total_detect":2}},{"type":"Feature","id":211,"geometry":{"type":"Point","coordinates":[98.999965250000059,18.793393020000053]},"properties":{"OBJECTID":211,"idx":4758,"POINT_Y":18.79339302,"POINT_X":98.999965250000002,"name":"สะพานนครพิงค์","kom":0,"kalae":0,"text_lanna":2,"total_detect":2}},{"type":"Feature","id":212,"geometry":{"type":"Point","coordinates":[98.984755730000074,18.778755210000043]},"properties":{"OBJECTID":212,"idx":4814,"POINT_Y":18.77875521,"POINT_X":98.984755730000003,"name":"ถนนวัวลาย","kom":0,"kalae":0,"text_lanna":1,"total_detect":1}},{"type":"Feature","id":213,"geometry":{"type":"Point","coordinates":[99.002377600000045,18.766263000000038]},"properties":{"OBJECTID":213,"idx":4826,"POINT_Y":18.766262999999999,"POINT_X":99.002377600000003,"name":"ถนนเจริญประเทศ","kom":0,"kalae":0,"text_lanna":1,"total_detect":1}},{"type":"Feature","id":214,"geometry":{"type":"Point","coordinates":[99.001662810000084,18.767256240000052]},"properties":{"OBJECTID":214,"idx":4831,"POINT_Y":18.767256239999998,"POINT_X":99.001662809999999,"name":"ถนนเจริญประเทศ","kom":0,"kalae":0,"text_lanna":1,"total_detect":1}},{"type":"Feature","id":215,"geometry":{"type":"Point","coordinates":[99.001148830000034,18.768015940000055]},"properties":{"OBJECTID":215,"idx":4836,"POINT_Y":18.768015940000002,"POINT_X":99.001148830000005,"name":"ถนนเจริญประเทศ","kom":0,"kalae":0,"text_lanna":1,"total_detect":1}},{"type":"Feature","id":216,"geometry":{"type":"Point","coordinates":[98.999847180000074,18.771378920000075]},"properties":{"OBJECTID":216,"idx":4850,"POINT_Y":18.77137892,"POINT_X":98.999847180000003,"name":"ถนนเจริญประเทศ","kom":0,"kalae":0,"text_lanna":1,"total_detect":1}},{"type":"Feature","id":217,"geometry":{"type":"Point","coordinates":[99.008279660000085,18.766497250000043]},"properties":{"OBJECTID":217,"idx":4942,"POINT_Y":18.76649725,"POINT_X":99.008279659999999,"name":"ถนนลำพูน ซอย9","kom":0,"kalae":2,"text_lanna":1,"total_detect":3}},{"type":"Feature","id":218,"geometry":{"type":"Point","coordinates":[99.018041120000078,18.794045480000023]},"properties":{"OBJECTID":218,"idx":4997,"POINT_Y":18.794045480000001,"POINT_X":99.018041120000007,"name":"ถนนทุ่งโฮเต็ล ซอย 1","kom":0,"kalae":1,"text_lanna":1,"total_detect":2}},{"type":"Feature","id":219,"geometry":{"type":"Point","coordinates":[99.018929240000034,18.794363890000056]},"properties":{"OBJECTID":219,"idx":5002,"POINT_Y":18.79436389,"POINT_X":99.018929240000006,"name":"ถนนทุ่งโฮเต็ล ซอย 1","kom":0,"kalae":0,"text_lanna":1,"total_detect":1}},{"type":"Feature","id":220,"geometry":{"type":"Point","coordinates":[98.98133099000006,18.822990490000052]},"properties":{"OBJECTID":220,"idx":5098,"POINT_Y":18.822990489999999,"POINT_X":98.981330990000004,"name":"ถนนโชตนา ซอย12","kom":0,"kalae":0,"text_lanna":1,"total_detect":1}},{"type":"Feature","id":221,"geometry":{"type":"Point","coordinates":[99.005260720000081,18.789637370000037]},"properties":{"OBJECTID":221,"idx":5161,"POINT_Y":18.789637370000001,"POINT_X":99.005260719999995,"name":"ถนนเจริญเมือง ซอย 1","kom":0,"kalae":0,"text_lanna":1,"total_detect":1}},{"type":"Feature","id":222,"geometry":{"type":"Point","coordinates":[99.005816320000065,18.788823960000059]},"properties":{"OBJECTID":222,"idx":5164,"POINT_Y":18.788823959999998,"POINT_X":99.005816319999994,"name":"ถนนเจริญเมือง ซอย 1","kom":0,"kalae":0,"text_lanna":1,"total_detect":1}},{"type":"Feature","id":223,"geometry":{"type":"Point","coordinates":[99.005882890000066,18.79248817000007]},"properties":{"OBJECTID":223,"idx":5237,"POINT_Y":18.792488169999999,"POINT_X":99.005882889999995,"name":"ถนนแก้วนวรัฐ ซอย3","kom":0,"kalae":0,"text_lanna":1,"total_detect":1}},{"type":"Feature","id":224,"geometry":{"type":"Point","coordinates":[99.010019960000079,18.791706020000049]},"properties":{"OBJECTID":224,"idx":5320,"POINT_Y":18.791706019999999,"POINT_X":99.010019959999994,"name":null,"kom":0,"kalae":0,"text_lanna":1,"total_detect":1}},{"type":"Feature","id":225,"geometry":{"type":"Point","coordinates":[99.01259366000005,18.788537090000034]},"properties":{"OBJECTID":225,"idx":5336,"POINT_Y":18.788537089999998,"POINT_X":99.012593659999993,"name":"ถนนเทวีอุทิศ","kom":0,"kalae":0,"text_lanna":1,"total_detect":1}},{"type":"Feature","id":226,"geometry":{"type":"Point","coordinates":[99.013420150000059,18.789727740000046]},"properties":{"OBJECTID":226,"idx":5356,"POINT_Y":18.78972774,"POINT_X":99.013420150000002,"name":"ถนน มนตรี","kom":2,"kalae":0,"text_lanna":1,"total_detect":3}},{"type":"Feature","id":227,"geometry":{"type":"Point","coordinates":[99.013525370000082,18.788795260000029]},"properties":{"OBJECTID":227,"idx":5360,"POINT_Y":18.788795260000001,"POINT_X":99.013525369999996,"name":"ถนน มนตรี","kom":0,"kalae":0,"text_lanna":1,"total_detect":1}},{"type":"Feature","id":228,"geometry":{"type":"Point","coordinates":[98.98149047000004,18.81604346000006]},"properties":{"OBJECTID":228,"idx":5439,"POINT_Y":18.816043459999999,"POINT_X":98.981490469999997,"name":null,"kom":0,"kalae":0,"text_lanna":2,"total_detect":2}},{"type":"Feature","id":229,"geometry":{"type":"Point","coordinates":[99.006909370000074,18.757944420000058]},"properties":{"OBJECTID":229,"idx":5550,"POINT_Y":18.757944420000001,"POINT_X":99.006909370000002,"name":"ถนนมหิดล","kom":0,"kalae":0,"text_lanna":1,"total_detect":1}},{"type":"Feature","id":230,"geometry":{"type":"Point","coordinates":[98.982993960000044,18.804248290000032]},"properties":{"OBJECTID":230,"idx":5677,"POINT_Y":18.80424829,"POINT_X":98.982993960000002,"name":"ถนนธานินท์","kom":1,"kalae":0,"text_lanna":1,"total_detect":2}},{"type":"Feature","id":231,"geometry":{"type":"Point","coordinates":[98.977913820000083,18.833644610000022]},"properties":{"OBJECTID":231,"idx":5735,"POINT_Y":18.83364461,"POINT_X":98.977913819999998,"name":"ถนนโชตนา ซอย 20","kom":0,"kalae":0,"text_lanna":1,"total_detect":1}},{"type":"Feature","id":232,"geometry":{"type":"Point","coordinates":[99.001845960000082,18.788802030000056]},"properties":{"OBJECTID":232,"idx":5745,"POINT_Y":18.788802029999999,"POINT_X":99.001845959999997,"name":null,"kom":0,"kalae":0,"text_lanna":1,"total_detect":1}},{"type":"Feature","id":233,"geometry":{"type":"Point","coordinates":[98.95724720000004,18.804475230000037]},"properties":{"OBJECTID":233,"idx":5823,"POINT_Y":18.804475230000001,"POINT_X":98.957247199999998,"name":"ถนน ห้วยแก้ว ซอย 3ข","kom":0,"kalae":0,"text_lanna":1,"total_detect":1}},{"type":"Feature","id":234,"geometry":{"type":"Point","coordinates":[99.010113690000082,18.775481240000033]},"properties":{"OBJECTID":234,"idx":5985,"POINT_Y":18.775481240000001,"POINT_X":99.010113689999997,"name":"ถนนราษฎร์อุทิศ ซอย 3","kom":0,"kalae":0,"text_lanna":1,"total_detect":1}},{"type":"Feature","id":235,"geometry":{"type":"Point","coordinates":[99.009719990000065,18.774995240000067]},"properties":{"OBJECTID":235,"idx":5990,"POINT_Y":18.774995239999999,"POINT_X":99.009719989999994,"name":"ถนนราษฎร์อุทิศ ซอย 3","kom":0,"kalae":0,"text_lanna":1,"total_detect":1}},{"type":"Feature","id":236,"geometry":{"type":"Point","coordinates":[99.010425890000079,18.776511780000078]},"properties":{"OBJECTID":236,"idx":6043,"POINT_Y":18.77651178,"POINT_X":99.010425889999993,"name":"ถนนราษฎร์อุทิศ ซอย 2","kom":0,"kalae":0,"text_lanna":1,"total_detect":1}},{"type":"Feature","id":237,"geometry":{"type":"Point","coordinates":[99.00947737000007,18.776354630000071]},"properties":{"OBJECTID":237,"idx":6046,"POINT_Y":18.77635463,"POINT_X":99.009477369999999,"name":"ถนนราษฎร์อุทิศ ซอย 2","kom":0,"kalae":0,"text_lanna":1,"total_detect":1}},{"type":"Feature","id":238,"geometry":{"type":"Point","coordinates":[99.025199110000074,18.779988640000056]},"properties":{"OBJECTID":238,"idx":6087,"POINT_Y":18.779988639999999,"POINT_X":99.025199110000003,"name":"อนุวิถี ซอย 2ก","kom":0,"kalae":0,"text_lanna":1,"total_detect":1}},{"type":"Feature","id":239,"geometry":{"type":"Point","coordinates":[99.011259060000043,18.796517020000067]},"properties":{"OBJECTID":239,"idx":6180,"POINT_Y":18.79651702,"POINT_X":99.01125906,"name":null,"kom":0,"kalae":0,"text_lanna":1,"total_detect":1}},{"type":"Feature","id":240,"geometry":{"type":"Point","coordinates":[98.99285991000005,18.806269130000032]},"properties":{"OBJECTID":240,"idx":6536,"POINT_Y":18.80626913,"POINT_X":98.992859910000007,"name":"ถนนศรีมงคล","kom":0,"kalae":0,"text_lanna":1,"total_detect":1}},{"type":"Feature","id":241,"geometry":{"type":"Point","coordinates":[98.98842742000005,18.817938920000074]},"properties":{"OBJECTID":241,"idx":6581,"POINT_Y":18.81793892,"POINT_X":98.988427419999994,"name":null,"kom":0,"kalae":0,"text_lanna":1,"total_detect":1}},{"type":"Feature","id":242,"geometry":{"type":"Point","coordinates":[98.98837812000005,18.816515270000025]},"properties":{"OBJECTID":242,"idx":6587,"POINT_Y":18.81651527,"POINT_X":98.988378119999993,"name":null,"kom":0,"kalae":0,"text_lanna":1,"total_detect":1}},{"type":"Feature","id":243,"geometry":{"type":"Point","coordinates":[98.993834040000081,18.808552970000051]},"properties":{"OBJECTID":243,"idx":6675,"POINT_Y":18.808552970000001,"POINT_X":98.993834039999996,"name":null,"kom":0,"kalae":0,"text_lanna":1,"total_detect":1}},{"type":"Feature","id":244,"geometry":{"type":"Point","coordinates":[98.993966110000088,18.808368450000046]},"properties":{"OBJECTID":244,"idx":6676,"POINT_Y":18.80836845,"POINT_X":98.993966110000002,"name":null,"kom":0,"kalae":0,"text_lanna":1,"total_detect":1}},{"type":"Feature","id":245,"geometry":{"type":"Point","coordinates":[98.989666600000078,18.80688506000007]},"properties":{"OBJECTID":245,"idx":6713,"POINT_Y":18.806885059999999,"POINT_X":98.989666600000007,"name":"ถนนหมื่่นด้ามพร้าคต ซอย3","kom":0,"kalae":0,"text_lanna":1,"total_detect":1}},{"type":"Feature","id":246,"geometry":{"type":"Point","coordinates":[98.992214740000065,18.797917280000036]},"properties":{"OBJECTID":246,"idx":6752,"POINT_Y":18.79791728,"POINT_X":98.992214739999994,"name":null,"kom":0,"kalae":0,"text_lanna":2,"total_detect":2}},{"type":"Feature","id":247,"geometry":{"type":"Point","coordinates":[98.995066190000045,18.817373670000052]},"properties":{"OBJECTID":247,"idx":6880,"POINT_Y":18.817373669999998,"POINT_X":98.995066190000003,"name":null,"kom":0,"kalae":0,"text_lanna":1,"total_detect":1}},{"type":"Feature","id":248,"geometry":{"type":"Point","coordinates":[98.994167460000085,18.785681960000034]},"properties":{"OBJECTID":248,"idx":6920,"POINT_Y":18.785681960000002,"POINT_X":98.99416746,"name":"ถนนคชสาร ซอย 2","kom":0,"kalae":0,"text_lanna":1,"total_detect":1}},{"type":"Feature","id":249,"geometry":{"type":"Point","coordinates":[98.994014500000048,18.786527290000038]},"properties":{"OBJECTID":249,"idx":6921,"POINT_Y":18.786527289999999,"POINT_X":98.994014500000006,"name":"ถนน ท่าแพ ซอย 6","kom":1,"kalae":0,"text_lanna":1,"total_detect":2}},{"type":"Feature","id":250,"geometry":{"type":"Point","coordinates":[98.993719290000058,18.779468990000055]},"properties":{"OBJECTID":250,"idx":6951,"POINT_Y":18.779468990000002,"POINT_X":98.993719290000001,"name":"ถนนระแกง ซอย 3ก","kom":0,"kalae":0,"text_lanna":1,"total_detect":1}},{"type":"Feature","id":251,"geometry":{"type":"Point","coordinates":[98.977172710000048,18.773803790000045]},"properties":{"OBJECTID":251,"idx":6959,"POINT_Y":18.773803789999999,"POINT_X":98.977172710000005,"name":null,"kom":0,"kalae":0,"text_lanna":1,"total_detect":1}},{"type":"Feature","id":252,"geometry":{"type":"Point","coordinates":[98.973908280000046,18.83795224000005]},"properties":{"OBJECTID":252,"idx":7001,"POINT_Y":18.83795224,"POINT_X":98.973908280000003,"name":null,"kom":0,"kalae":0,"text_lanna":1,"total_detect":1}},{"type":"Feature","id":253,"geometry":{"type":"Point","coordinates":[99.028909190000036,18.764400260000059]},"properties":{"OBJECTID":253,"idx":7010,"POINT_Y":18.764400259999999,"POINT_X":99.028909189999993,"name":"ถนนมหิดล","kom":0,"kalae":0,"text_lanna":1,"total_detect":1}},{"type":"Feature","id":254,"geometry":{"type":"Point","coordinates":[99.028729990000045,18.764340820000029]},"properties":{"OBJECTID":254,"idx":7011,"POINT_Y":18.764340820000001,"POINT_X":99.028729990000002,"name":"ถนนมหิดล","kom":0,"kalae":0,"text_lanna":1,"total_detect":1}},{"type":"Feature","id":255,"geometry":{"type":"Point","coordinates":[99.01409539000008,18.765466970000034]},"properties":{"OBJECTID":255,"idx":7037,"POINT_Y":18.765466969999999,"POINT_X":99.014095389999994,"name":"ซอย ต๋าเหิน","kom":0,"kalae":0,"text_lanna":1,"total_detect":1}},{"type":"Feature","id":256,"geometry":{"type":"Point","coordinates":[98.961952820000079,18.787378400000023]},"properties":{"OBJECTID":256,"idx":7110,"POINT_Y":18.787378400000001,"POINT_X":98.961952819999993,"name":"ซอย 1 77/1-27","kom":0,"kalae":0,"text_lanna":1,"total_detect":1}},{"type":"Feature","id":257,"geometry":{"type":"Point","coordinates":[98.965895050000086,18.784932730000037]},"properties":{"OBJECTID":257,"idx":7126,"POINT_Y":18.784932730000001,"POINT_X":98.96589505,"name":null,"kom":0,"kalae":0,"text_lanna":2,"total_detect":2}},{"type":"Feature","id":258,"geometry":{"type":"Point","coordinates":[98.978539540000043,18.778124150000053]},"properties":{"OBJECTID":258,"idx":7246,"POINT_Y":18.77812415,"POINT_X":98.97853954,"name":null,"kom":0,"kalae":0,"text_lanna":1,"total_detect":1}},{"type":"Feature","id":259,"geometry":{"type":"Point","coordinates":[98.978708150000045,18.779913360000023]},"properties":{"OBJECTID":259,"idx":7253,"POINT_Y":18.779913359999998,"POINT_X":98.978708150000003,"name":null,"kom":0,"kalae":0,"text_lanna":1,"total_detect":1}},{"type":"Feature","id":260,"geometry":{"type":"Point","coordinates":[98.968569450000075,18.785792810000032]},"properties":{"OBJECTID":260,"idx":7302,"POINT_Y":18.78579281,"POINT_X":98.968569450000004,"name":"ถนนสวนดอก","kom":0,"kalae":0,"text_lanna":1,"total_detect":1}},{"type":"Feature","id":261,"geometry":{"type":"Point","coordinates":[98.968571240000074,18.784063250000031]},"properties":{"OBJECTID":261,"idx":7308,"POINT_Y":18.784063249999999,"POINT_X":98.968571240000003,"name":"ถนนสวนดอก","kom":0,"kalae":0,"text_lanna":1,"total_detect":1}},{"type":"Feature","id":262,"geometry":{"type":"Point","coordinates":[98.967521020000049,18.784746790000042]},"properties":{"OBJECTID":262,"idx":7383,"POINT_Y":18.78474679,"POINT_X":98.967521020000007,"name":"ซอยไปรวยมารวย","kom":0,"kalae":0,"text_lanna":2,"total_detect":2}},{"type":"Feature","id":263,"geometry":{"type":"Point","coordinates":[98.968916040000067,18.798124040000062]},"properties":{"OBJECTID":263,"idx":7445,"POINT_Y":18.798124040000001,"POINT_X":98.968916039999996,"name":"ถนนนิมมานเหมินท์ ซอย 7","kom":0,"kalae":0,"text_lanna":1,"total_detect":1}},{"type":"Feature","id":264,"geometry":{"type":"Point","coordinates":[98.967020520000062,18.795280870000056]},"properties":{"OBJECTID":264,"idx":7523,"POINT_Y":18.795280869999999,"POINT_X":98.967020520000005,"name":"ถนนนิมมานเหมินท์ ซอย 17","kom":0,"kalae":0,"text_lanna":1,"total_detect":1}},{"type":"Feature","id":265,"geometry":{"type":"Point","coordinates":[98.981496380000067,18.837566630000026]},"properties":{"OBJECTID":265,"idx":7718,"POINT_Y":18.837566630000001,"POINT_X":98.981496379999996,"name":"ถนนร่มเย็น ซอย 3","kom":0,"kalae":1,"text_lanna":1,"total_detect":2}},{"type":"Feature","id":266,"geometry":{"type":"Point","coordinates":[98.981954180000059,18.836604240000042]},"properties":{"OBJECTID":266,"idx":7742,"POINT_Y":18.83660424,"POINT_X":98.981954180000002,"name":"ถนนร่มเย็น","kom":0,"kalae":0,"text_lanna":1,"total_detect":1}},{"type":"Feature","id":267,"geometry":{"type":"Point","coordinates":[99.019791980000036,18.79024467000005]},"properties":{"OBJECTID":267,"idx":7787,"POINT_Y":18.79024467,"POINT_X":99.019791979999994,"name":null,"kom":0,"kalae":1,"text_lanna":1,"total_detect":2}},{"type":"Feature","id":268,"geometry":{"type":"Point","coordinates":[98.989936880000073,18.799047590000043]},"properties":{"OBJECTID":268,"idx":8033,"POINT_Y":18.799047590000001,"POINT_X":98.989936880000002,"name":"ถนนสนามกีฬา","kom":0,"kalae":0,"text_lanna":1,"total_detect":1}},{"type":"Feature","id":269,"geometry":{"type":"Point","coordinates":[99.010578510000073,18.777548030000048]},"properties":{"OBJECTID":269,"idx":8206,"POINT_Y":18.777548029999998,"POINT_X":99.010578510000002,"name":null,"kom":0,"kalae":0,"text_lanna":1,"total_detect":1}},{"type":"Feature","id":270,"geometry":{"type":"Point","coordinates":[99.011778640000045,18.778324420000047]},"properties":{"OBJECTID":270,"idx":8229,"POINT_Y":18.778324420000001,"POINT_X":99.011778640000003,"name":null,"kom":0,"kalae":0,"text_lanna":1,"total_detect":1}},{"type":"Feature","id":271,"geometry":{"type":"Point","coordinates":[98.973549680000076,18.800397360000034]},"properties":{"OBJECTID":271,"idx":8374,"POINT_Y":18.800397360000002,"POINT_X":98.973549680000005,"name":"ซอยพลับพลึง","kom":0,"kalae":0,"text_lanna":1,"total_detect":1}},{"type":"Feature","id":272,"geometry":{"type":"Point","coordinates":[99.008964280000043,18.767343700000026]},"properties":{"OBJECTID":272,"idx":8594,"POINT_Y":18.767343700000001,"POINT_X":99.008964280000001,"name":"ถนนลำพูน ซอย8","kom":0,"kalae":0,"text_lanna":1,"total_detect":1}},{"type":"Feature","id":273,"geometry":{"type":"Point","coordinates":[98.980379250000055,18.78925361000006]},"properties":{"OBJECTID":273,"idx":8841,"POINT_Y":18.789253609999999,"POINT_X":98.980379249999999,"name":"ถนนอินทวโรรส","kom":0,"kalae":1,"text_lanna":1,"total_detect":2}},{"type":"Feature","id":274,"geometry":{"type":"Point","coordinates":[98.980360120000057,18.787741940000046]},"properties":{"OBJECTID":274,"idx":8939,"POINT_Y":18.78774194,"POINT_X":98.98036012,"name":"ถนนสามล้าน ซอย1","kom":0,"kalae":0,"text_lanna":1,"total_detect":1}},{"type":"Feature","id":275,"geometry":{"type":"Point","coordinates":[99.024613570000042,18.773480690000042]},"properties":{"OBJECTID":275,"idx":9006,"POINT_Y":18.77348069,"POINT_X":99.02461357,"name":null,"kom":0,"kalae":0,"text_lanna":1,"total_detect":1}}]
}