{
  "type" : "FeatureCollection",
  "features" : [{"type":"Feature","id":1,"geometry":{"type":"Point","coordinates":[98.977957390000086,18.768766910000068]},"properties":{"OBJECTID":1,"idx":31,"POINT_Y":18.76876691,"POINT_X":98.97795739,"name":"ถนนมหิดล","kom":8,"kalae":1,"text_lanna":0,"total_detect":9}},{"type":"Feature","id":2,"geometry":{"type":"Point","coordinates":[98.973238120000076,18.808296100000064]},"properties":{"OBJECTID":2,"idx":44,"POINT_Y":18.8082961,"POINT_X":98.973238120000005,"name":"ถนนซุปเปอร์ไฮเวย์","kom":6,"kalae":0,"text_lanna":0,"total_detect":6}},{"type":"Feature","id":3,"geometry":{"type":"Point","coordinates":[98.975710830000082,18.809824390000074]},"properties":{"OBJECTID":3,"idx":57,"POINT_Y":18.809824389999999,"POINT_X":98.975710829999997,"name":"ถนนซุปเปอร์ไฮเวย์","kom":3,"kalae":0,"text_lanna":0,"total_detect":3}},{"type":"Feature","id":4,"geometry":{"type":"Point","coordinates":[98.976245680000034,18.81009264000005]},"properties":{"OBJECTID":4,"idx":60,"POINT_Y":18.810092640000001,"POINT_X":98.976245680000005,"name":"ถนนซุปเปอร์ไฮเวย์","kom":10,"kalae":0,"text_lanna":0,"total_detect":10}},{"type":"Feature","id":5,"geometry":{"type":"Point","coordinates":[99.027384590000054,18.779768100000069]},"properties":{"OBJECTID":5,"idx":72,"POINT_Y":18.779768099999998,"POINT_X":99.027384589999997,"name":"ถนนซุปเปอร์ไฮเวย์","kom":5,"kalae":0,"text_lanna":0,"total_detect":5}},{"type":"Feature","id":6,"geometry":{"type":"Point","coordinates":[99.027482370000087,18.779051090000053]},"properties":{"OBJECTID":6,"idx":76,"POINT_Y":18.779051089999999,"POINT_X":99.027482370000001,"name":"ถนนซุปเปอร์ไฮเวย์","kom":2,"kalae":0,"text_lanna":0,"total_detect":2}},{"type":"Feature","id":7,"geometry":{"type":"Point","coordinates":[99.02780013000006,18.776720810000029]},"properties":{"OBJECTID":7,"idx":89,"POINT_Y":18.77672081,"POINT_X":99.027800130000003,"name":"ถนนซุปเปอร์ไฮเวย์","kom":4,"kalae":0,"text_lanna":0,"total_detect":4}},{"type":"Feature","id":8,"geometry":{"type":"Point","coordinates":[99.027971240000056,18.775466040000026]},"properties":{"OBJECTID":8,"idx":96,"POINT_Y":18.775466040000001,"POINT_X":99.027971239999999,"name":"ถนนซุปเปอร์ไฮเวย์","kom":2,"kalae":0,"text_lanna":0,"total_detect":2}},{"type":"Feature","id":9,"geometry":{"type":"Point","coordinates":[99.028405880000037,18.77228628000006]},"properties":{"OBJECTID":9,"idx":113,"POINT_Y":18.772286279999999,"POINT_X":99.028405879999994,"name":"ถนนซุปเปอร์ไฮเวย์","kom":8,"kalae":0,"text_lanna":0,"total_detect":8}},{"type":"Feature","id":10,"geometry":{"type":"Point","coordinates":[99.028635230000077,18.770674190000022]},"properties":{"OBJECTID":10,"idx":122,"POINT_Y":18.770674190000001,"POINT_X":99.028635230000006,"name":"ถนนซุปเปอร์ไฮเวย์","kom":2,"kalae":0,"text_lanna":0,"total_detect":2}},{"type":"Feature","id":11,"geometry":{"type":"Point","coordinates":[99.028762640000082,18.769778590000044]},"properties":{"OBJECTID":11,"idx":127,"POINT_Y":18.769778590000001,"POINT_X":99.028762639999997,"name":"ถนนซุปเปอร์ไฮเวย์","kom":8,"kalae":0,"text_lanna":0,"total_detect":8}},{"type":"Feature","id":12,"geometry":{"type":"Point","coordinates":[99.026178420000065,18.786477830000024]},"properties":{"OBJECTID":12,"idx":169,"POINT_Y":18.786477829999999,"POINT_X":99.026178419999994,"name":"ถนนซุปเปอร์ไฮเวย์","kom":4,"kalae":0,"text_lanna":0,"total_detect":4}},{"type":"Feature","id":13,"geometry":{"type":"Point","coordinates":[99.025744840000073,18.787700710000024]},"properties":{"OBJECTID":13,"idx":175,"POINT_Y":18.787700709999999,"POINT_X":99.025744840000002,"name":"ถนนซุปเปอร์ไฮเวย์","kom":4,"kalae":0,"text_lanna":0,"total_detect":4}},{"type":"Feature","id":14,"geometry":{"type":"Point","coordinates":[99.024478830000078,18.790215420000038]},"properties":{"OBJECTID":14,"idx":189,"POINT_Y":18.790215419999999,"POINT_X":99.024478830000007,"name":"ถนนซุปเปอร์ไฮเวย์","kom":3,"kalae":0,"text_lanna":0,"total_detect":3}},{"type":"Feature","id":15,"geometry":{"type":"Point","coordinates":[99.023727990000054,18.791450390000023]},"properties":{"OBJECTID":15,"idx":196,"POINT_Y":18.791450390000001,"POINT_X":99.023727989999998,"name":"ถนนซุปเปอร์ไฮเวย์","kom":5,"kalae":0,"text_lanna":0,"total_detect":5}},{"type":"Feature","id":16,"geometry":{"type":"Point","coordinates":[99.023377290000042,18.792038440000056]},"properties":{"OBJECTID":16,"idx":199,"POINT_Y":18.792038439999999,"POINT_X":99.023377289999999,"name":"ถนนซุปเปอร์ไฮเวย์","kom":2,"kalae":1,"text_lanna":0,"total_detect":3}},{"type":"Feature","id":17,"geometry":{"type":"Point","coordinates":[98.989030330000048,18.795232140000053]},"properties":{"OBJECTID":17,"idx":209,"POINT_Y":18.79523214,"POINT_X":98.989030330000006,"name":"ถนนศรีภูมิ ซอย3","kom":2,"kalae":0,"text_lanna":0,"total_detect":2}},{"type":"Feature","id":18,"geometry":{"type":"Point","coordinates":[98.982321570000067,18.793119990000037]},"properties":{"OBJECTID":18,"idx":244,"POINT_Y":18.793119990000001,"POINT_X":98.982321569999996,"name":"ถนนเวียงแก้ว","kom":2,"kalae":0,"text_lanna":0,"total_detect":2}},{"type":"Feature","id":19,"geometry":{"type":"Point","coordinates":[98.973414290000051,18.80568997000006]},"properties":{"OBJECTID":19,"idx":341,"POINT_Y":18.80568997,"POINT_X":98.973414289999994,"name":"ถนนเทวัญ","kom":3,"kalae":2,"text_lanna":0,"total_detect":5}},{"type":"Feature","id":20,"geometry":{"type":"Point","coordinates":[98.975608560000069,18.803857930000049]},"properties":{"OBJECTID":20,"idx":364,"POINT_Y":18.803857929999999,"POINT_X":98.975608559999998,"name":"ถนน เทพารักษ์","kom":2,"kalae":0,"text_lanna":0,"total_detect":2}},{"type":"Feature","id":21,"geometry":{"type":"Point","coordinates":[98.97965959000004,18.800819550000028]},"properties":{"OBJECTID":21,"idx":406,"POINT_Y":18.80081955,"POINT_X":98.979659589999997,"name":"ถนนเจริญสุข","kom":5,"kalae":0,"text_lanna":0,"total_detect":5}},{"type":"Feature","id":22,"geometry":{"type":"Point","coordinates":[98.97724536000004,18.798587570000052]},"properties":{"OBJECTID":22,"idx":426,"POINT_Y":18.798587569999999,"POINT_X":98.977245359999998,"name":"ถนนเสริมสุข","kom":20,"kalae":0,"text_lanna":0,"total_detect":20}},{"type":"Feature","id":23,"geometry":{"type":"Point","coordinates":[98.97732239000004,18.799523930000078]},"properties":{"OBJECTID":23,"idx":436,"POINT_Y":18.799523929999999,"POINT_X":98.977322389999998,"name":"ถนนเม็งรายรัศมี","kom":3,"kalae":1,"text_lanna":0,"total_detect":4}},{"type":"Feature","id":24,"geometry":{"type":"Point","coordinates":[98.987203110000053,18.800478100000078]},"properties":{"OBJECTID":24,"idx":441,"POINT_Y":18.800478099999999,"POINT_X":98.987203109999996,"name":"ถนนสนามกีฬา","kom":4,"kalae":0,"text_lanna":0,"total_detect":4}},{"type":"Feature","id":25,"geometry":{"type":"Point","coordinates":[98.997706890000075,18.798607450000077]},"properties":{"OBJECTID":25,"idx":485,"POINT_Y":18.798607449999999,"POINT_X":98.997706890000003,"name":"ถนนเมืองสมุทร","kom":16,"kalae":0,"text_lanna":0,"total_detect":16}},{"type":"Feature","id":26,"geometry":{"type":"Point","coordinates":[99.01105836000005,18.801697110000077]},"properties":{"OBJECTID":26,"idx":489,"POINT_Y":18.801697109999999,"POINT_X":99.011058360000007,"name":"ถนนรัตนโกสินทร์","kom":8,"kalae":0,"text_lanna":0,"total_detect":8}},{"type":"Feature","id":27,"geometry":{"type":"Point","coordinates":[99.010723680000069,18.801526520000039]},"properties":{"OBJECTID":27,"idx":491,"POINT_Y":18.801526519999999,"POINT_X":99.010723679999998,"name":"ถนนรัตนโกสินทร์","kom":8,"kalae":0,"text_lanna":0,"total_detect":8}},{"type":"Feature","id":28,"geometry":{"type":"Point","coordinates":[99.010556340000051,18.801441220000072]},"properties":{"OBJECTID":28,"idx":492,"POINT_Y":18.801441220000001,"POINT_X":99.010556339999994,"name":"ถนนรัตนโกสินทร์","kom":2,"kalae":2,"text_lanna":0,"total_detect":4}},{"type":"Feature","id":29,"geometry":{"type":"Point","coordinates":[99.002686060000087,18.807149930000037]},"properties":{"OBJECTID":29,"idx":509,"POINT_Y":18.807149930000001,"POINT_X":99.002686060000002,"name":"ถนนวังสิงห์คำ","kom":33,"kalae":0,"text_lanna":0,"total_detect":33}},{"type":"Feature","id":30,"geometry":{"type":"Point","coordinates":[99.00252179000006,18.800845490000029]},"properties":{"OBJECTID":30,"idx":539,"POINT_Y":18.80084549,"POINT_X":99.002521790000003,"name":"ถนนวังสิงห์คำ","kom":2,"kalae":0,"text_lanna":0,"total_detect":2}},{"type":"Feature","id":31,"geometry":{"type":"Point","coordinates":[98.981217240000035,18.779555050000056]},"properties":{"OBJECTID":31,"idx":566,"POINT_Y":18.779555049999999,"POINT_X":98.981217240000007,"name":"ถนนทิพย์เนตร","kom":8,"kalae":0,"text_lanna":0,"total_detect":8}},{"type":"Feature","id":32,"geometry":{"type":"Point","coordinates":[98.981309490000058,18.780408660000035]},"properties":{"OBJECTID":32,"idx":570,"POINT_Y":18.780408659999999,"POINT_X":98.981309490000001,"name":"ถนนทิพย์เนตร","kom":8,"kalae":0,"text_lanna":0,"total_detect":8}},{"type":"Feature","id":33,"geometry":{"type":"Point","coordinates":[98.984325470000044,18.787215280000055]},"properties":{"OBJECTID":33,"idx":615,"POINT_Y":18.787215280000002,"POINT_X":98.984325470000002,"name":null,"kom":12,"kalae":0,"text_lanna":0,"total_detect":12}},{"type":"Feature","id":34,"geometry":{"type":"Point","coordinates":[98.978743030000032,18.786441310000043]},"properties":{"OBJECTID":34,"idx":636,"POINT_Y":18.786441310000001,"POINT_X":98.978743030000004,"name":"ถนนอารักษ์ ซอย 7","kom":6,"kalae":1,"text_lanna":0,"total_detect":7}},{"type":"Feature","id":35,"geometry":{"type":"Point","coordinates":[98.980154520000042,18.78639916000003]},"properties":{"OBJECTID":35,"idx":642,"POINT_Y":18.786399159999998,"POINT_X":98.980154519999999,"name":"ถนนอารักษ์ ซอย 7","kom":7,"kalae":0,"text_lanna":0,"total_detect":7}},{"type":"Feature","id":36,"geometry":{"type":"Point","coordinates":[98.997498040000039,18.800656720000063]},"properties":{"OBJECTID":36,"idx":675,"POINT_Y":18.800656719999999,"POINT_X":98.997498039999996,"name":"ถนนรัตนโกสินทร์","kom":2,"kalae":0,"text_lanna":0,"total_detect":2}},{"type":"Feature","id":37,"geometry":{"type":"Point","coordinates":[98.99168418000005,18.832575470000052]},"properties":{"OBJECTID":37,"idx":700,"POINT_Y":18.832575469999998,"POINT_X":98.991684179999993,"name":"ถนนป่าตัน","kom":2,"kalae":0,"text_lanna":0,"total_detect":2}},{"type":"Feature","id":38,"geometry":{"type":"Point","coordinates":[98.994582770000079,18.825532690000045]},"properties":{"OBJECTID":38,"idx":731,"POINT_Y":18.825532689999999,"POINT_X":98.994582769999994,"name":"ถนนป่าตัน","kom":2,"kalae":0,"text_lanna":0,"total_detect":2}},{"type":"Feature","id":39,"geometry":{"type":"Point","coordinates":[98.995746670000074,18.820508240000038]},"properties":{"OBJECTID":39,"idx":755,"POINT_Y":18.820508239999999,"POINT_X":98.995746670000003,"name":"ถนนป่าตัน","kom":4,"kalae":0,"text_lanna":0,"total_detect":4}},{"type":"Feature","id":40,"geometry":{"type":"Point","coordinates":[98.998332290000064,18.817736030000049]},"properties":{"OBJECTID":40,"idx":771,"POINT_Y":18.817736029999999,"POINT_X":98.998332289999993,"name":"ถนนป่าตัน","kom":2,"kalae":0,"text_lanna":0,"total_detect":2}},{"type":"Feature","id":41,"geometry":{"type":"Point","coordinates":[98.999593280000056,18.816555090000065]},"properties":{"OBJECTID":41,"idx":778,"POINT_Y":18.816555090000001,"POINT_X":98.999593279999999,"name":"ถนนป่าตัน","kom":2,"kalae":0,"text_lanna":0,"total_detect":2}},{"type":"Feature","id":42,"geometry":{"type":"Point","coordinates":[99.004650600000048,18.800157510000076]},"properties":{"OBJECTID":42,"idx":787,"POINT_Y":18.800157509999998,"POINT_X":99.004650600000005,"name":"ถนนเจริญราษฎร์","kom":4,"kalae":1,"text_lanna":0,"total_detect":5}},{"type":"Feature","id":43,"geometry":{"type":"Point","coordinates":[99.004949670000087,18.800877890000038]},"properties":{"OBJECTID":43,"idx":789,"POINT_Y":18.800877889999999,"POINT_X":99.004949670000002,"name":"ถนนเจริญราษฎร์","kom":5,"kalae":0,"text_lanna":0,"total_detect":5}},{"type":"Feature","id":44,"geometry":{"type":"Point","coordinates":[99.005575910000061,18.802757740000061]},"properties":{"OBJECTID":44,"idx":795,"POINT_Y":18.802757740000001,"POINT_X":99.005575910000005,"name":"ถนนเจริญราษฎร์","kom":4,"kalae":0,"text_lanna":2,"total_detect":6}},{"type":"Feature","id":45,"geometry":{"type":"Point","coordinates":[98.999890380000068,18.792702010000028]},"properties":{"OBJECTID":45,"idx":823,"POINT_Y":18.792702009999999,"POINT_X":98.999890379999997,"name":"ถนนวิชยานนท์","kom":4,"kalae":0,"text_lanna":0,"total_detect":4}},{"type":"Feature","id":46,"geometry":{"type":"Point","coordinates":[99.000297180000075,18.765525000000025]},"properties":{"OBJECTID":46,"idx":895,"POINT_Y":18.765525,"POINT_X":99.000297180000004,"name":"ถนนช้างคลาน","kom":6,"kalae":0,"text_lanna":0,"total_detect":6}},{"type":"Feature","id":47,"geometry":{"type":"Point","coordinates":[99.000882950000062,18.764133140000069]},"properties":{"OBJECTID":47,"idx":902,"POINT_Y":18.764133139999998,"POINT_X":99.000882950000005,"name":"ถนนช้างคลาน","kom":9,"kalae":0,"text_lanna":0,"total_detect":9}},{"type":"Feature","id":48,"geometry":{"type":"Point","coordinates":[99.003654250000068,18.766292040000053]},"properties":{"OBJECTID":48,"idx":963,"POINT_Y":18.76629204,"POINT_X":99.003654249999997,"name":null,"kom":2,"kalae":1,"text_lanna":0,"total_detect":3}},{"type":"Feature","id":49,"geometry":{"type":"Point","coordinates":[98.995733200000075,18.792221330000075]},"properties":{"OBJECTID":49,"idx":1000,"POINT_Y":18.79222133,"POINT_X":98.995733200000004,"name":"ถนนสิทธิวงศ์","kom":3,"kalae":9,"text_lanna":0,"total_detect":12}},{"type":"Feature","id":50,"geometry":{"type":"Point","coordinates":[98.994944320000059,18.793058470000062]},"properties":{"OBJECTID":50,"idx":1003,"POINT_Y":18.793058469999998,"POINT_X":98.994944320000002,"name":"ถนนสิทธิวงศ์","kom":4,"kalae":0,"text_lanna":0,"total_detect":4}},{"type":"Feature","id":51,"geometry":{"type":"Point","coordinates":[98.994148610000082,18.793681510000056]},"properties":{"OBJECTID":51,"idx":1006,"POINT_Y":18.793681509999999,"POINT_X":98.994148609999996,"name":"ถนนสิทธิวงศ์","kom":2,"kalae":0,"text_lanna":0,"total_detect":2}},{"type":"Feature","id":52,"geometry":{"type":"Point","coordinates":[99.003449160000059,18.791320190000022]},"properties":{"OBJECTID":52,"idx":1032,"POINT_Y":18.79132019,"POINT_X":99.003449160000002,"name":"ถนนหน้าวัดเกตุ","kom":8,"kalae":0,"text_lanna":0,"total_detect":8}},{"type":"Feature","id":53,"geometry":{"type":"Point","coordinates":[99.002924410000048,18.794021560000033]},"properties":{"OBJECTID":53,"idx":1037,"POINT_Y":18.794021560000001,"POINT_X":99.002924410000006,"name":"ถนนหน้าวัดเกตุ","kom":2,"kalae":0,"text_lanna":0,"total_detect":2}},{"type":"Feature","id":54,"geometry":{"type":"Point","coordinates":[99.003054650000081,18.795465960000058]},"properties":{"OBJECTID":54,"idx":1053,"POINT_Y":18.795465960000001,"POINT_X":99.003054649999996,"name":"ถนนแก้วนวรัฐ ซอย 1","kom":2,"kalae":0,"text_lanna":0,"total_detect":2}},{"type":"Feature","id":55,"geometry":{"type":"Point","coordinates":[99.003069700000083,18.795285770000078]},"properties":{"OBJECTID":55,"idx":1054,"POINT_Y":18.79528577,"POINT_X":99.003069699999998,"name":"ถนนแก้วนวรัฐ ซอย 1","kom":2,"kalae":0,"text_lanna":0,"total_detect":2}},{"type":"Feature","id":56,"geometry":{"type":"Point","coordinates":[99.002379140000073,18.797123700000043]},"properties":{"OBJECTID":56,"idx":1056,"POINT_Y":18.7971237,"POINT_X":99.002379140000002,"name":"ถนน เชตุพน","kom":4,"kalae":1,"text_lanna":0,"total_detect":5}},{"type":"Feature","id":57,"geometry":{"type":"Point","coordinates":[99.002567380000073,18.797100600000022]},"properties":{"OBJECTID":57,"idx":1057,"POINT_Y":18.7971006,"POINT_X":99.002567380000002,"name":"ถนน เชตุพน","kom":2,"kalae":0,"text_lanna":0,"total_detect":2}},{"type":"Feature","id":58,"geometry":{"type":"Point","coordinates":[98.985851600000046,18.798378440000022]},"properties":{"OBJECTID":58,"idx":1091,"POINT_Y":18.79837844,"POINT_X":98.985851600000004,"name":"ถนน ช้างเผือก ซอย2","kom":8,"kalae":0,"text_lanna":0,"total_detect":8}},{"type":"Feature","id":59,"geometry":{"type":"Point","coordinates":[98.987689390000071,18.802700540000046]},"properties":{"OBJECTID":59,"idx":1104,"POINT_Y":18.80270054,"POINT_X":98.98768939,"name":"ถนนช้างเผือก ซอย6","kom":3,"kalae":1,"text_lanna":0,"total_detect":4}},{"type":"Feature","id":60,"geometry":{"type":"Point","coordinates":[99.012819730000047,18.807088830000055]},"properties":{"OBJECTID":60,"idx":1128,"POINT_Y":18.807088830000001,"POINT_X":99.012819730000004,"name":"ถนน ตรัสวงศ์","kom":4,"kalae":0,"text_lanna":0,"total_detect":4}},{"type":"Feature","id":61,"geometry":{"type":"Point","coordinates":[98.99853137000008,18.761916130000031]},"properties":{"OBJECTID":61,"idx":1167,"POINT_Y":18.761916129999999,"POINT_X":98.998531369999995,"name":"ถนนป่าพร้าว","kom":4,"kalae":0,"text_lanna":0,"total_detect":4}},{"type":"Feature","id":62,"geometry":{"type":"Point","coordinates":[98.99859108000004,18.763672590000056]},"properties":{"OBJECTID":62,"idx":1192,"POINT_Y":18.763672589999999,"POINT_X":98.998591079999997,"name":null,"kom":8,"kalae":0,"text_lanna":0,"total_detect":8}},{"type":"Feature","id":63,"geometry":{"type":"Point","coordinates":[98.998958360000074,18.763985820000073]},"properties":{"OBJECTID":63,"idx":1194,"POINT_Y":18.763985819999998,"POINT_X":98.998958360000003,"name":null,"kom":2,"kalae":0,"text_lanna":0,"total_detect":2}},{"type":"Feature","id":64,"geometry":{"type":"Point","coordinates":[98.999363360000075,18.783538160000035]},"properties":{"OBJECTID":64,"idx":1263,"POINT_Y":18.783538159999999,"POINT_X":98.999363360000004,"name":"ถนนลอยเคราะห์ 4","kom":4,"kalae":2,"text_lanna":0,"total_detect":6}},{"type":"Feature","id":65,"geometry":{"type":"Point","coordinates":[98.998359220000054,18.783526040000027]},"properties":{"OBJECTID":65,"idx":1287,"POINT_Y":18.783526040000002,"POINT_X":98.998359219999998,"name":"ถนนกำแพงดิน","kom":10,"kalae":0,"text_lanna":0,"total_detect":10}},{"type":"Feature","id":66,"geometry":{"type":"Point","coordinates":[99.004107550000072,18.789874760000032]},"properties":{"OBJECTID":66,"idx":1315,"POINT_Y":18.78987476,"POINT_X":99.004107550000001,"name":"ถนนเจริญราษฎร์","kom":2,"kalae":1,"text_lanna":0,"total_detect":3}},{"type":"Feature","id":67,"geometry":{"type":"Point","coordinates":[98.979308320000086,18.768281400000035]},"properties":{"OBJECTID":67,"idx":1324,"POINT_Y":18.768281399999999,"POINT_X":98.979308320000001,"name":"ถนนมหิดล","kom":3,"kalae":0,"text_lanna":0,"total_detect":3}},{"type":"Feature","id":68,"geometry":{"type":"Point","coordinates":[98.989735620000033,18.765844630000061]},"properties":{"OBJECTID":68,"idx":1343,"POINT_Y":18.76584463,"POINT_X":98.989735620000005,"name":"ถนนมหิดล","kom":4,"kalae":0,"text_lanna":0,"total_detect":4}},{"type":"Feature","id":69,"geometry":{"type":"Point","coordinates":[98.991831910000087,18.764702710000051]},"properties":{"OBJECTID":69,"idx":1352,"POINT_Y":18.764702710000002,"POINT_X":98.991831910000002,"name":"ถนนมหิดล","kom":2,"kalae":0,"text_lanna":0,"total_detect":2}},{"type":"Feature","id":70,"geometry":{"type":"Point","coordinates":[99.022759610000037,18.762203530000022]},"properties":{"OBJECTID":70,"idx":1375,"POINT_Y":18.762203530000001,"POINT_X":99.022759609999994,"name":"ถนนมหิดล","kom":2,"kalae":0,"text_lanna":0,"total_detect":2}},{"type":"Feature","id":71,"geometry":{"type":"Point","coordinates":[98.993049320000068,18.763548230000026]},"properties":{"OBJECTID":71,"idx":1408,"POINT_Y":18.763548230000001,"POINT_X":98.993049319999997,"name":"ถนนมหิดล","kom":3,"kalae":0,"text_lanna":0,"total_detect":3}},{"type":"Feature","id":72,"geometry":{"type":"Point","coordinates":[98.992545790000065,18.763962420000041]},"properties":{"OBJECTID":72,"idx":1411,"POINT_Y":18.763962419999999,"POINT_X":98.992545789999994,"name":"ถนนมหิดล","kom":6,"kalae":0,"text_lanna":0,"total_detect":6}},{"type":"Feature","id":73,"geometry":{"type":"Point","coordinates":[98.991774710000072,18.764594270000032]},"properties":{"OBJECTID":73,"idx":1415,"POINT_Y":18.76459427,"POINT_X":98.991774710000001,"name":"ถนนมหิดล","kom":6,"kalae":0,"text_lanna":0,"total_detect":6}},{"type":"Feature","id":74,"geometry":{"type":"Point","coordinates":[99.008257780000065,18.760089510000057]},"properties":{"OBJECTID":74,"idx":1436,"POINT_Y":18.76008951,"POINT_X":99.008257779999994,"name":null,"kom":2,"kalae":0,"text_lanna":0,"total_detect":2}},{"type":"Feature","id":75,"geometry":{"type":"Point","coordinates":[99.01118469000005,18.803763760000038]},"properties":{"OBJECTID":75,"idx":1507,"POINT_Y":18.803763759999999,"POINT_X":99.011184689999993,"name":"ถนนรัตนโกสินทร์ ซอย1","kom":2,"kalae":0,"text_lanna":0,"total_detect":2}},{"type":"Feature","id":76,"geometry":{"type":"Point","coordinates":[99.009685420000039,18.801838270000076]},"properties":{"OBJECTID":76,"idx":1514,"POINT_Y":18.801838270000001,"POINT_X":99.009685419999997,"name":"ถนนรัตนโกสินทร์ ซอย1","kom":14,"kalae":0,"text_lanna":0,"total_detect":14}},{"type":"Feature","id":77,"geometry":{"type":"Point","coordinates":[99.014424190000057,18.803391260000069]},"properties":{"OBJECTID":77,"idx":1525,"POINT_Y":18.803391260000001,"POINT_X":99.01442419,"name":"แก้วนวรัฐ ซอย 6","kom":4,"kalae":0,"text_lanna":0,"total_detect":4}},{"type":"Feature","id":78,"geometry":{"type":"Point","coordinates":[99.014509560000079,18.805900950000023]},"properties":{"OBJECTID":78,"idx":1546,"POINT_Y":18.805900950000002,"POINT_X":99.014509559999993,"name":null,"kom":6,"kalae":1,"text_lanna":0,"total_detect":7}},{"type":"Feature","id":79,"geometry":{"type":"Point","coordinates":[98.997767030000034,18.790092170000037]},"properties":{"OBJECTID":79,"idx":1570,"POINT_Y":18.790092170000001,"POINT_X":98.997767030000006,"name":"Sittiwong","kom":2,"kalae":1,"text_lanna":0,"total_detect":3}},{"type":"Feature","id":80,"geometry":{"type":"Point","coordinates":[99.000184430000047,18.788782770000068]},"properties":{"OBJECTID":80,"idx":1576,"POINT_Y":18.788782770000001,"POINT_X":99.000184430000004,"name":"ถนนข่วงเมรุ","kom":2,"kalae":0,"text_lanna":0,"total_detect":2}},{"type":"Feature","id":81,"geometry":{"type":"Point","coordinates":[99.00038864000004,18.789679040000067]},"properties":{"OBJECTID":81,"idx":1580,"POINT_Y":18.789679039999999,"POINT_X":99.000388639999997,"name":"ถนนข่วงเมรุ","kom":2,"kalae":0,"text_lanna":0,"total_detect":2}},{"type":"Feature","id":82,"geometry":{"type":"Point","coordinates":[99.000218320000045,18.790002120000054]},"properties":{"OBJECTID":82,"idx":1582,"POINT_Y":18.79000212,"POINT_X":99.000218320000002,"name":"ถนนข่วงเมรุ","kom":3,"kalae":2,"text_lanna":1,"total_detect":6}},{"type":"Feature","id":83,"geometry":{"type":"Point","coordinates":[99.000116700000035,18.798456890000068]},"properties":{"OBJECTID":83,"idx":1594,"POINT_Y":18.798456890000001,"POINT_X":99.000116700000007,"name":"ถนนวังสิงห์คำ ซอย 1","kom":2,"kalae":2,"text_lanna":0,"total_detect":4}},{"type":"Feature","id":84,"geometry":{"type":"Point","coordinates":[98.996020340000086,18.78919097000005]},"properties":{"OBJECTID":84,"idx":1613,"POINT_Y":18.78919097,"POINT_X":98.996020340000001,"name":"ถนนช้างม่อย ซอย 2","kom":2,"kalae":2,"text_lanna":0,"total_detect":4}},{"type":"Feature","id":85,"geometry":{"type":"Point","coordinates":[99.004324240000074,18.792226810000045]},"properties":{"OBJECTID":85,"idx":1636,"POINT_Y":18.792226809999999,"POINT_X":99.004324240000003,"name":"หน้าวัดเกตุซอย 1","kom":2,"kalae":0,"text_lanna":0,"total_detect":2}},{"type":"Feature","id":86,"geometry":{"type":"Point","coordinates":[99.004427720000081,18.809778340000037]},"properties":{"OBJECTID":86,"idx":1640,"POINT_Y":18.809778340000001,"POINT_X":99.004427719999995,"name":null,"kom":2,"kalae":0,"text_lanna":0,"total_detect":2}},{"type":"Feature","id":87,"geometry":{"type":"Point","coordinates":[98.949559040000054,18.79430780000007]},"properties":{"OBJECTID":87,"idx":1698,"POINT_Y":18.794307799999999,"POINT_X":98.949559039999997,"name":"ถนนสุเทพ","kom":4,"kalae":0,"text_lanna":0,"total_detect":4}},{"type":"Feature","id":88,"geometry":{"type":"Point","coordinates":[98.994954120000045,18.783578430000034]},"properties":{"OBJECTID":88,"idx":1754,"POINT_Y":18.783578429999999,"POINT_X":98.994954120000003,"name":"ถนนลอยเคาะห์ ซอย 1","kom":32,"kalae":0,"text_lanna":0,"total_detect":32}},{"type":"Feature","id":89,"geometry":{"type":"Point","coordinates":[98.993734470000049,18.779971850000038]},"properties":{"OBJECTID":89,"idx":1800,"POINT_Y":18.779971849999999,"POINT_X":98.993734470000007,"name":"ถนนระแกง","kom":3,"kalae":0,"text_lanna":2,"total_detect":5}},{"type":"Feature","id":90,"geometry":{"type":"Point","coordinates":[98.99033970000005,18.776689130000022]},"properties":{"OBJECTID":90,"idx":1815,"POINT_Y":18.776689130000001,"POINT_X":98.990339700000007,"name":"ถนน ราชเชียงแสน ซอย2","kom":10,"kalae":0,"text_lanna":0,"total_detect":10}},{"type":"Feature","id":91,"geometry":{"type":"Point","coordinates":[98.989566330000059,18.774805750000041]},"properties":{"OBJECTID":91,"idx":1827,"POINT_Y":18.774805749999999,"POINT_X":98.989566330000002,"name":"ถนนสุริยะวงษ์","kom":8,"kalae":1,"text_lanna":0,"total_detect":9}},{"type":"Feature","id":92,"geometry":{"type":"Point","coordinates":[98.989480140000069,18.775204660000043]},"properties":{"OBJECTID":92,"idx":1829,"POINT_Y":18.77520466,"POINT_X":98.989480139999998,"name":"ถนนสุริยะวงษ์","kom":2,"kalae":16,"text_lanna":0,"total_detect":18}},{"type":"Feature","id":93,"geometry":{"type":"Point","coordinates":[98.988673350000056,18.778442810000058]},"properties":{"OBJECTID":93,"idx":1842,"POINT_Y":18.778442810000001,"POINT_X":98.988673349999999,"name":"ถนนสุริยะวงษ์","kom":2,"kalae":0,"text_lanna":0,"total_detect":2}},{"type":"Feature","id":94,"geometry":{"type":"Point","coordinates":[98.981961930000068,18.775393620000045]},"properties":{"OBJECTID":94,"idx":1850,"POINT_Y":18.775393619999999,"POINT_X":98.981961929999997,"name":"ถนนนันทาราม","kom":2,"kalae":0,"text_lanna":0,"total_detect":2}},{"type":"Feature","id":95,"geometry":{"type":"Point","coordinates":[98.986396110000044,18.775437360000069]},"properties":{"OBJECTID":95,"idx":1869,"POINT_Y":18.775437360000002,"POINT_X":98.986396110000001,"name":"ถนนนันทาราม","kom":2,"kalae":0,"text_lanna":0,"total_detect":2}},{"type":"Feature","id":96,"geometry":{"type":"Point","coordinates":[98.979431810000051,18.774498990000041]},"properties":{"OBJECTID":96,"idx":1880,"POINT_Y":18.774498990000001,"POINT_X":98.979431809999994,"name":"ถนนหายยา","kom":4,"kalae":0,"text_lanna":1,"total_detect":5}},{"type":"Feature","id":97,"geometry":{"type":"Point","coordinates":[98.994202470000062,18.816253110000048]},"properties":{"OBJECTID":97,"idx":1905,"POINT_Y":18.816253110000002,"POINT_X":98.994202470000005,"name":"สุขเกษม ซอย 2","kom":20,"kalae":0,"text_lanna":0,"total_detect":20}},{"type":"Feature","id":98,"geometry":{"type":"Point","coordinates":[98.99325465000004,18.816299620000052]},"properties":{"OBJECTID":98,"idx":1910,"POINT_Y":18.816299619999999,"POINT_X":98.993254649999997,"name":"สุขเกษม ซอย 2","kom":4,"kalae":0,"text_lanna":0,"total_detect":4}},{"type":"Feature","id":99,"geometry":{"type":"Point","coordinates":[98.996741650000047,18.816008500000066]},"properties":{"OBJECTID":99,"idx":1922,"POINT_Y":18.816008499999999,"POINT_X":98.996741650000004,"name":null,"kom":2,"kalae":0,"text_lanna":0,"total_detect":2}},{"type":"Feature","id":100,"geometry":{"type":"Point","coordinates":[98.99779194000007,18.816084170000067]},"properties":{"OBJECTID":100,"idx":1931,"POINT_Y":18.81608417,"POINT_X":98.997791939999999,"name":null,"kom":3,"kalae":0,"text_lanna":0,"total_detect":3}},{"type":"Feature","id":101,"geometry":{"type":"Point","coordinates":[99.001536130000034,18.810989490000054]},"properties":{"OBJECTID":101,"idx":1956,"POINT_Y":18.810989490000001,"POINT_X":99.001536130000005,"name":null,"kom":6,"kalae":0,"text_lanna":0,"total_detect":6}},{"type":"Feature","id":102,"geometry":{"type":"Point","coordinates":[98.992261940000049,18.791512200000057]},"properties":{"OBJECTID":102,"idx":1971,"POINT_Y":18.7915122,"POINT_X":98.992261940000006,"name":"ถนนราชวิถี ซอย 1","kom":10,"kalae":0,"text_lanna":0,"total_detect":10}},{"type":"Feature","id":103,"geometry":{"type":"Point","coordinates":[98.980071070000065,18.783447820000049]},"properties":{"OBJECTID":103,"idx":1987,"POINT_Y":18.783447819999999,"POINT_X":98.980071069999994,"name":null,"kom":2,"kalae":0,"text_lanna":0,"total_detect":2}},{"type":"Feature","id":104,"geometry":{"type":"Point","coordinates":[98.980342850000056,18.783641790000047]},"properties":{"OBJECTID":104,"idx":1990,"POINT_Y":18.783641790000001,"POINT_X":98.98034285,"name":null,"kom":3,"kalae":0,"text_lanna":0,"total_detect":3}},{"type":"Feature","id":105,"geometry":{"type":"Point","coordinates":[98.987319110000044,18.783319050000046]},"properties":{"OBJECTID":105,"idx":2008,"POINT_Y":18.783319049999999,"POINT_X":98.987319110000001,"name":"ถนนพระปกเกล้า ซอย 4","kom":8,"kalae":2,"text_lanna":0,"total_detect":10}},{"type":"Feature","id":106,"geometry":{"type":"Point","coordinates":[98.991067730000054,18.788995190000037]},"properties":{"OBJECTID":106,"idx":2019,"POINT_Y":18.788995190000001,"POINT_X":98.991067729999997,"name":"ถนนราชดำเนิน ซอย 5","kom":4,"kalae":0,"text_lanna":0,"total_detect":4}},{"type":"Feature","id":107,"geometry":{"type":"Point","coordinates":[98.991110080000055,18.789171390000035]},"properties":{"OBJECTID":107,"idx":2020,"POINT_Y":18.78917139,"POINT_X":98.991110079999999,"name":"ถนนราชดำเนิน ซอย 5","kom":4,"kalae":0,"text_lanna":0,"total_detect":4}},{"type":"Feature","id":108,"geometry":{"type":"Point","coordinates":[98.978590050000037,18.772990570000047]},"properties":{"OBJECTID":108,"idx":2060,"POINT_Y":18.772990570000001,"POINT_X":98.978590049999994,"name":"ซอยบุญเมือง","kom":5,"kalae":0,"text_lanna":0,"total_detect":5}},{"type":"Feature","id":109,"geometry":{"type":"Point","coordinates":[98.979473340000084,18.777081150000072]},"properties":{"OBJECTID":109,"idx":2116,"POINT_Y":18.777081150000001,"POINT_X":98.979473339999998,"name":null,"kom":6,"kalae":1,"text_lanna":0,"total_detect":7}},{"type":"Feature","id":110,"geometry":{"type":"Point","coordinates":[98.979309240000077,18.769446840000057]},"properties":{"OBJECTID":110,"idx":2122,"POINT_Y":18.769446840000001,"POINT_X":98.979309240000006,"name":null,"kom":2,"kalae":0,"text_lanna":0,"total_detect":2}},{"type":"Feature","id":111,"geometry":{"type":"Point","coordinates":[98.98234165000008,18.772935110000049]},"properties":{"OBJECTID":111,"idx":2147,"POINT_Y":18.772935109999999,"POINT_X":98.982341649999995,"name":"ถนนศรีปิงเมือง","kom":5,"kalae":0,"text_lanna":0,"total_detect":5}},{"type":"Feature","id":112,"geometry":{"type":"Point","coordinates":[98.992259040000079,18.793584900000042]},"properties":{"OBJECTID":112,"idx":2229,"POINT_Y":18.793584899999999,"POINT_X":98.992259039999993,"name":"ถนนศรีภูมิ ซอย 1","kom":4,"kalae":0,"text_lanna":0,"total_detect":4}},{"type":"Feature","id":113,"geometry":{"type":"Point","coordinates":[98.989847980000036,18.782108950000065]},"properties":{"OBJECTID":113,"idx":2233,"POINT_Y":18.782108950000001,"POINT_X":98.989847979999993,"name":"ถนนราชภาคินัย","kom":2,"kalae":0,"text_lanna":0,"total_detect":2}},{"type":"Feature","id":114,"geometry":{"type":"Point","coordinates":[98.989849370000059,18.781928190000031]},"properties":{"OBJECTID":114,"idx":2234,"POINT_Y":18.781928189999999,"POINT_X":98.989849370000002,"name":"ถนนราชภาคินัย","kom":2,"kalae":0,"text_lanna":0,"total_detect":2}},{"type":"Feature","id":115,"geometry":{"type":"Point","coordinates":[98.970769410000059,18.795819820000077]},"properties":{"OBJECTID":115,"idx":2241,"POINT_Y":18.795819819999998,"POINT_X":98.970769410000003,"name":"ถนนศิริมังคลาจารย์","kom":12,"kalae":0,"text_lanna":0,"total_detect":12}},{"type":"Feature","id":116,"geometry":{"type":"Point","coordinates":[98.970813690000057,18.796561700000041]},"properties":{"OBJECTID":116,"idx":2244,"POINT_Y":18.796561700000002,"POINT_X":98.97081369,"name":"ถนนศิริมังคลาจารย์","kom":4,"kalae":0,"text_lanna":0,"total_detect":4}},{"type":"Feature","id":117,"geometry":{"type":"Point","coordinates":[98.984852960000069,18.801863970000056]},"properties":{"OBJECTID":117,"idx":2276,"POINT_Y":18.801863969999999,"POINT_X":98.984852959999998,"name":null,"kom":2,"kalae":0,"text_lanna":0,"total_detect":2}},{"type":"Feature","id":118,"geometry":{"type":"Point","coordinates":[98.987913900000081,18.804926270000067]},"properties":{"OBJECTID":118,"idx":2303,"POINT_Y":18.804926269999999,"POINT_X":98.987913899999995,"name":"ถนน กู่เต้า","kom":4,"kalae":0,"text_lanna":0,"total_detect":4}},{"type":"Feature","id":119,"geometry":{"type":"Point","coordinates":[98.994533690000083,18.773802970000077]},"properties":{"OBJECTID":119,"idx":2357,"POINT_Y":18.773802969999998,"POINT_X":98.994533689999997,"name":"ถนนเวียงพิงค์","kom":4,"kalae":0,"text_lanna":0,"total_detect":4}},{"type":"Feature","id":120,"geometry":{"type":"Point","coordinates":[98.99836909000004,18.796562280000046]},"properties":{"OBJECTID":120,"idx":2396,"POINT_Y":18.79656228,"POINT_X":98.998369089999997,"name":null,"kom":2,"kalae":2,"text_lanna":0,"total_detect":4}},{"type":"Feature","id":121,"geometry":{"type":"Point","coordinates":[98.992412580000064,18.782857020000051]},"properties":{"OBJECTID":121,"idx":2399,"POINT_Y":18.782857020000002,"POINT_X":98.992412580000007,"name":"ถนนมูลเมือง ซอย 1","kom":6,"kalae":0,"text_lanna":0,"total_detect":6}},{"type":"Feature","id":122,"geometry":{"type":"Point","coordinates":[98.991648920000046,18.783059110000067]},"properties":{"OBJECTID":122,"idx":2402,"POINT_Y":18.78305911,"POINT_X":98.991648920000003,"name":"ถนนมูลเมือง ซอย 1","kom":2,"kalae":0,"text_lanna":0,"total_detect":2}},{"type":"Feature","id":123,"geometry":{"type":"Point","coordinates":[98.990189790000045,18.783372870000051]},"properties":{"OBJECTID":123,"idx":2403,"POINT_Y":18.783372870000001,"POINT_X":98.990189790000002,"name":"ถนนพระปกเกล้า ซอย 3","kom":4,"kalae":0,"text_lanna":0,"total_detect":4}},{"type":"Feature","id":124,"geometry":{"type":"Point","coordinates":[98.980300770000042,18.787931160000028]},"properties":{"OBJECTID":124,"idx":2416,"POINT_Y":18.787931159999999,"POINT_X":98.980300769999999,"name":"ถนนราชมรรคา ซอย 9","kom":6,"kalae":0,"text_lanna":0,"total_detect":6}},{"type":"Feature","id":125,"geometry":{"type":"Point","coordinates":[98.981308070000068,18.786592810000059]},"properties":{"OBJECTID":125,"idx":2418,"POINT_Y":18.786592809999998,"POINT_X":98.981308069999997,"name":"ถนนสามล้าน ซอย 2","kom":4,"kalae":0,"text_lanna":0,"total_detect":4}},{"type":"Feature","id":126,"geometry":{"type":"Point","coordinates":[98.99656211000007,18.781568520000064]},"properties":{"OBJECTID":126,"idx":2438,"POINT_Y":18.78156852,"POINT_X":98.996562109999999,"name":"ถนนลอยเคราะห์ 3","kom":7,"kalae":0,"text_lanna":0,"total_detect":7}},{"type":"Feature","id":127,"geometry":{"type":"Point","coordinates":[98.996060990000046,18.781975580000051]},"properties":{"OBJECTID":127,"idx":2460,"POINT_Y":18.781975580000001,"POINT_X":98.996060990000004,"name":null,"kom":2,"kalae":0,"text_lanna":0,"total_detect":2}},{"type":"Feature","id":128,"geometry":{"type":"Point","coordinates":[98.99682394000007,18.771920350000073]},"properties":{"OBJECTID":128,"idx":2487,"POINT_Y":18.771920349999998,"POINT_X":98.996823939999999,"name":"ถนนศรีจันทร์ดร","kom":2,"kalae":0,"text_lanna":0,"total_detect":2}},{"type":"Feature","id":129,"geometry":{"type":"Point","coordinates":[98.991629260000082,18.779970400000025]},"properties":{"OBJECTID":129,"idx":2561,"POINT_Y":18.7799704,"POINT_X":98.991629259999996,"name":"ถนน ราชเชียงแสน ซอย1ก","kom":2,"kalae":0,"text_lanna":0,"total_detect":2}},{"type":"Feature","id":130,"geometry":{"type":"Point","coordinates":[99.01106905000006,18.784623080000074]},"properties":{"OBJECTID":130,"idx":2577,"POINT_Y":18.784623079999999,"POINT_X":99.011069050000003,"name":"ถนน สันนาลุง","kom":3,"kalae":1,"text_lanna":0,"total_detect":4}},{"type":"Feature","id":131,"geometry":{"type":"Point","coordinates":[99.009671380000043,18.785387870000022]},"properties":{"OBJECTID":131,"idx":2585,"POINT_Y":18.785387870000001,"POINT_X":99.00967138,"name":"ถนน สันนาลุง","kom":4,"kalae":1,"text_lanna":0,"total_detect":5}},{"type":"Feature","id":132,"geometry":{"type":"Point","coordinates":[99.016657810000083,18.778126520000058]},"properties":{"OBJECTID":132,"idx":2600,"POINT_Y":18.778126520000001,"POINT_X":99.016657809999998,"name":"ถนน สันนาลุง","kom":2,"kalae":0,"text_lanna":0,"total_detect":2}},{"type":"Feature","id":133,"geometry":{"type":"Point","coordinates":[99.014555140000084,18.782910550000054]},"properties":{"OBJECTID":133,"idx":2630,"POINT_Y":18.78291055,"POINT_X":99.014555139999999,"name":"ถนนกองทราย","kom":2,"kalae":5,"text_lanna":0,"total_detect":7}},{"type":"Feature","id":134,"geometry":{"type":"Point","coordinates":[99.017051880000054,18.774250580000057]},"properties":{"OBJECTID":134,"idx":2676,"POINT_Y":18.77425058,"POINT_X":99.017051879999997,"name":null,"kom":4,"kalae":0,"text_lanna":0,"total_detect":4}},{"type":"Feature","id":135,"geometry":{"type":"Point","coordinates":[99.012142850000032,18.772258930000078]},"properties":{"OBJECTID":135,"idx":2708,"POINT_Y":18.77225893,"POINT_X":99.012142850000004,"name":"ถนนราษฎร์อุทิศ ซอย 8","kom":6,"kalae":0,"text_lanna":1,"total_detect":7}},{"type":"Feature","id":136,"geometry":{"type":"Point","coordinates":[99.018362010000033,18.780577740000069]},"properties":{"OBJECTID":136,"idx":2727,"POINT_Y":18.780577739999998,"POINT_X":99.018362010000004,"name":null,"kom":4,"kalae":0,"text_lanna":0,"total_detect":4}},{"type":"Feature","id":137,"geometry":{"type":"Point","coordinates":[99.022823560000063,18.78109543000005]},"properties":{"OBJECTID":137,"idx":2749,"POINT_Y":18.781095430000001,"POINT_X":99.022823560000006,"name":"ถนนเจริญเมือง ซอย 7","kom":2,"kalae":0,"text_lanna":0,"total_detect":2}},{"type":"Feature","id":138,"geometry":{"type":"Point","coordinates":[99.022839420000082,18.781275550000032]},"properties":{"OBJECTID":138,"idx":2750,"POINT_Y":18.78127555,"POINT_X":99.022839419999997,"name":"ถนนเจริญเมือง ซอย 7","kom":2,"kalae":0,"text_lanna":0,"total_detect":2}},{"type":"Feature","id":139,"geometry":{"type":"Point","coordinates":[99.026591340000039,18.78010708000005]},"properties":{"OBJECTID":139,"idx":2767,"POINT_Y":18.780107080000001,"POINT_X":99.026591339999996,"name":"อนุวิถี ซอย 1","kom":5,"kalae":0,"text_lanna":0,"total_detect":5}},{"type":"Feature","id":140,"geometry":{"type":"Point","coordinates":[98.972792230000039,18.795930240000075]},"properties":{"OBJECTID":140,"idx":2802,"POINT_Y":18.795930240000001,"POINT_X":98.972792229999996,"name":"ถนนศิริมังคลาจารย์ ซอย 3","kom":2,"kalae":0,"text_lanna":0,"total_detect":2}},{"type":"Feature","id":141,"geometry":{"type":"Point","coordinates":[98.973298330000034,18.795658930000059]},"properties":{"OBJECTID":141,"idx":2828,"POINT_Y":18.795658929999998,"POINT_X":98.973298330000006,"name":null,"kom":2,"kalae":0,"text_lanna":0,"total_detect":2}},{"type":"Feature","id":142,"geometry":{"type":"Point","coordinates":[98.973048020000078,18.793655490000049]},"properties":{"OBJECTID":142,"idx":2838,"POINT_Y":18.793655489999999,"POINT_X":98.973048019999993,"name":null,"kom":7,"kalae":0,"text_lanna":0,"total_detect":7}},{"type":"Feature","id":143,"geometry":{"type":"Point","coordinates":[98.972321660000034,18.79301466000004]},"properties":{"OBJECTID":143,"idx":2871,"POINT_Y":18.793014660000001,"POINT_X":98.972321660000006,"name":"ถนนศิริมังคลาจารย์ ซอย 13","kom":12,"kalae":0,"text_lanna":0,"total_detect":12}},{"type":"Feature","id":144,"geometry":{"type":"Point","coordinates":[98.954739640000071,18.796299870000041]},"properties":{"OBJECTID":144,"idx":2912,"POINT_Y":18.796299869999999,"POINT_X":98.95473964,"name":"ซอยเชียงราย 2","kom":2,"kalae":0,"text_lanna":0,"total_detect":2}},{"type":"Feature","id":145,"geometry":{"type":"Point","coordinates":[98.956168240000068,18.796089570000049]},"properties":{"OBJECTID":145,"idx":2917,"POINT_Y":18.796089569999999,"POINT_X":98.956168239999997,"name":"ซอยเชียงราย 2","kom":2,"kalae":0,"text_lanna":0,"total_detect":2}},{"type":"Feature","id":146,"geometry":{"type":"Point","coordinates":[98.956544270000052,18.796040230000074]},"properties":{"OBJECTID":146,"idx":2919,"POINT_Y":18.796040229999999,"POINT_X":98.956544269999995,"name":"ซอยเชียงราย 2","kom":5,"kalae":1,"text_lanna":0,"total_detect":6}},{"type":"Feature","id":147,"geometry":{"type":"Point","coordinates":[98.949288510000088,18.796799050000061]},"properties":{"OBJECTID":147,"idx":2936,"POINT_Y":18.796799050000001,"POINT_X":98.949288510000002,"name":null,"kom":10,"kalae":0,"text_lanna":0,"total_detect":10}},{"type":"Feature","id":148,"geometry":{"type":"Point","coordinates":[98.954539470000043,18.797482820000027]},"properties":{"OBJECTID":148,"idx":2949,"POINT_Y":18.797482819999999,"POINT_X":98.95453947,"name":"ซอย ๔๐๑ วังเหนึอ","kom":2,"kalae":0,"text_lanna":0,"total_detect":2}},{"type":"Feature","id":149,"geometry":{"type":"Point","coordinates":[98.955813840000076,18.796903630000031]},"properties":{"OBJECTID":149,"idx":2957,"POINT_Y":18.796903629999999,"POINT_X":98.955813840000005,"name":"ซอย ๔๐๑ วังเหนึอ","kom":20,"kalae":0,"text_lanna":0,"total_detect":20}},{"type":"Feature","id":150,"geometry":{"type":"Point","coordinates":[98.954147100000057,18.807124530000067]},"properties":{"OBJECTID":150,"idx":2976,"POINT_Y":18.807124529999999,"POINT_X":98.9541471,"name":null,"kom":6,"kalae":0,"text_lanna":0,"total_detect":6}},{"type":"Feature","id":151,"geometry":{"type":"Point","coordinates":[98.954055990000086,18.806965950000063]},"properties":{"OBJECTID":151,"idx":2977,"POINT_Y":18.806965949999999,"POINT_X":98.954055990000001,"name":null,"kom":6,"kalae":0,"text_lanna":0,"total_detect":6}},{"type":"Feature","id":152,"geometry":{"type":"Point","coordinates":[98.953597690000038,18.806164850000073]},"properties":{"OBJECTID":152,"idx":2982,"POINT_Y":18.806164849999998,"POINT_X":98.953597689999995,"name":null,"kom":4,"kalae":0,"text_lanna":0,"total_detect":4}},{"type":"Feature","id":153,"geometry":{"type":"Point","coordinates":[98.981348590000039,18.790234750000025]},"properties":{"OBJECTID":153,"idx":2994,"POINT_Y":18.79023475,"POINT_X":98.981348589999996,"name":"ถนนอินทวโรรส ซอย 3","kom":4,"kalae":0,"text_lanna":1,"total_detect":5}},{"type":"Feature","id":154,"geometry":{"type":"Point","coordinates":[98.97951289000008,18.768133200000022]},"properties":{"OBJECTID":154,"idx":3002,"POINT_Y":18.768133200000001,"POINT_X":98.979512889999995,"name":"ถนนมหิดล","kom":14,"kalae":0,"text_lanna":0,"total_detect":14}},{"type":"Feature","id":155,"geometry":{"type":"Point","coordinates":[98.996521280000081,18.81019445000004]},"properties":{"OBJECTID":155,"idx":3031,"POINT_Y":18.810194450000001,"POINT_X":98.996521279999996,"name":null,"kom":8,"kalae":3,"text_lanna":0,"total_detect":11}},{"type":"Feature","id":156,"geometry":{"type":"Point","coordinates":[98.995593860000042,18.806852450000065]},"properties":{"OBJECTID":156,"idx":3040,"POINT_Y":18.806852450000001,"POINT_X":98.99559386,"name":null,"kom":3,"kalae":0,"text_lanna":0,"total_detect":3}},{"type":"Feature","id":157,"geometry":{"type":"Point","coordinates":[98.996013340000047,18.806722530000059]},"properties":{"OBJECTID":157,"idx":3042,"POINT_Y":18.806722529999998,"POINT_X":98.996013340000005,"name":null,"kom":2,"kalae":0,"text_lanna":0,"total_detect":2}},{"type":"Feature","id":158,"geometry":{"type":"Point","coordinates":[98.997441400000071,18.805729800000051]},"properties":{"OBJECTID":158,"idx":3059,"POINT_Y":18.805729800000002,"POINT_X":98.9974414,"name":null,"kom":7,"kalae":0,"text_lanna":0,"total_detect":7}},{"type":"Feature","id":159,"geometry":{"type":"Point","coordinates":[98.998140760000069,18.805840200000034]},"properties":{"OBJECTID":159,"idx":3062,"POINT_Y":18.805840199999999,"POINT_X":98.998140759999998,"name":null,"kom":6,"kalae":0,"text_lanna":0,"total_detect":6}},{"type":"Feature","id":160,"geometry":{"type":"Point","coordinates":[98.997600530000057,18.805290170000035]},"properties":{"OBJECTID":160,"idx":3089,"POINT_Y":18.805290169999999,"POINT_X":98.99760053,"name":null,"kom":5,"kalae":0,"text_lanna":0,"total_detect":5}},{"type":"Feature","id":161,"geometry":{"type":"Point","coordinates":[99.002086440000085,18.803753110000059]},"properties":{"OBJECTID":161,"idx":3108,"POINT_Y":18.803753109999999,"POINT_X":99.002086439999999,"name":"ถนนวังสิงห์คำ ซอย2","kom":4,"kalae":0,"text_lanna":0,"total_detect":4}},{"type":"Feature","id":162,"geometry":{"type":"Point","coordinates":[99.017104910000057,18.798542370000064]},"properties":{"OBJECTID":162,"idx":3131,"POINT_Y":18.79854237,"POINT_X":99.01710491,"name":"ถนนทุ่งโฮเต็ล ซอย 5","kom":2,"kalae":0,"text_lanna":0,"total_detect":2}},{"type":"Feature","id":163,"geometry":{"type":"Point","coordinates":[99.00736943000004,18.783078470000078]},"properties":{"OBJECTID":163,"idx":3144,"POINT_Y":18.78307847,"POINT_X":99.007369429999997,"name":"ถนนท่าสะต๋อย","kom":2,"kalae":2,"text_lanna":0,"total_detect":4}},{"type":"Feature","id":164,"geometry":{"type":"Point","coordinates":[98.993301500000086,18.793970040000033]},"properties":{"OBJECTID":164,"idx":3157,"POINT_Y":18.793970040000001,"POINT_X":98.993301500000001,"name":"ถนนมูลเมือง ซอย 9","kom":3,"kalae":0,"text_lanna":0,"total_detect":3}},{"type":"Feature","id":165,"geometry":{"type":"Point","coordinates":[98.993115010000054,18.794003570000029]},"properties":{"OBJECTID":165,"idx":3158,"POINT_Y":18.794003570000001,"POINT_X":98.993115009999997,"name":"ถนนมูลเมือง ซอย 9","kom":2,"kalae":0,"text_lanna":0,"total_detect":2}},{"type":"Feature","id":166,"geometry":{"type":"Point","coordinates":[98.990405930000065,18.794426060000035]},"properties":{"OBJECTID":166,"idx":3162,"POINT_Y":18.794426059999999,"POINT_X":98.990405929999994,"name":"ถนนมูลเมือง ซอย 9","kom":3,"kalae":0,"text_lanna":0,"total_detect":3}},{"type":"Feature","id":167,"geometry":{"type":"Point","coordinates":[98.975718140000083,18.800960950000047]},"properties":{"OBJECTID":167,"idx":3223,"POINT_Y":18.80096095,"POINT_X":98.975718139999998,"name":"ถนนราชพฤกษ์","kom":6,"kalae":0,"text_lanna":0,"total_detect":6}},{"type":"Feature","id":168,"geometry":{"type":"Point","coordinates":[98.97544675000006,18.800079130000029]},"properties":{"OBJECTID":168,"idx":3227,"POINT_Y":18.80007913,"POINT_X":98.975446750000003,"name":"ถนนราชพฤกษ์","kom":4,"kalae":8,"text_lanna":0,"total_detect":12}},{"type":"Feature","id":169,"geometry":{"type":"Point","coordinates":[98.995088340000052,18.785396900000023]},"properties":{"OBJECTID":169,"idx":3258,"POINT_Y":18.785396899999999,"POINT_X":98.995088339999995,"name":"ถนนคชสาร ซอย 3","kom":4,"kalae":2,"text_lanna":0,"total_detect":6}},{"type":"Feature","id":170,"geometry":{"type":"Point","coordinates":[98.99830060000005,18.78662791000005]},"properties":{"OBJECTID":170,"idx":3260,"POINT_Y":18.78662791,"POINT_X":98.998300599999993,"name":"ถนน ท่าแพ ซอย 1ก","kom":2,"kalae":0,"text_lanna":0,"total_detect":2}},{"type":"Feature","id":171,"geometry":{"type":"Point","coordinates":[98.998021300000062,18.785235030000024]},"properties":{"OBJECTID":171,"idx":3267,"POINT_Y":18.785235029999999,"POINT_X":98.998021300000005,"name":"ถนนกำแพงดิน ซอย2","kom":8,"kalae":0,"text_lanna":0,"total_detect":8}},{"type":"Feature","id":172,"geometry":{"type":"Point","coordinates":[98.995761300000083,18.77955865000007]},"properties":{"OBJECTID":172,"idx":3288,"POINT_Y":18.779558649999998,"POINT_X":98.995761299999998,"name":"ถนน ระแกง 2","kom":4,"kalae":0,"text_lanna":0,"total_detect":4}},{"type":"Feature","id":173,"geometry":{"type":"Point","coordinates":[98.996289450000063,18.777235200000064]},"properties":{"OBJECTID":173,"idx":3291,"POINT_Y":18.7772352,"POINT_X":98.996289450000006,"name":null,"kom":2,"kalae":0,"text_lanna":0,"total_detect":2}},{"type":"Feature","id":174,"geometry":{"type":"Point","coordinates":[98.988273390000074,18.769433080000056]},"properties":{"OBJECTID":174,"idx":3301,"POINT_Y":18.769433079999999,"POINT_X":98.988273390000003,"name":null,"kom":3,"kalae":0,"text_lanna":0,"total_detect":3}},{"type":"Feature","id":175,"geometry":{"type":"Point","coordinates":[98.980912810000063,18.78576675000005]},"properties":{"OBJECTID":175,"idx":3357,"POINT_Y":18.785766750000001,"POINT_X":98.980912810000007,"name":"ถนนราชมรรคา","kom":11,"kalae":0,"text_lanna":0,"total_detect":11}},{"type":"Feature","id":176,"geometry":{"type":"Point","coordinates":[99.000268770000048,18.774631330000034]},"properties":{"OBJECTID":176,"idx":3408,"POINT_Y":18.774631329999998,"POINT_X":99.000268770000005,"name":"ถนนเจริญประเทศ 12","kom":2,"kalae":0,"text_lanna":0,"total_detect":2}},{"type":"Feature","id":177,"geometry":{"type":"Point","coordinates":[98.997160050000048,18.768007800000078]},"properties":{"OBJECTID":177,"idx":3447,"POINT_Y":18.768007799999999,"POINT_X":98.997160050000005,"name":"ถนน เชียงใหม่แลนด์","kom":2,"kalae":0,"text_lanna":0,"total_detect":2}},{"type":"Feature","id":178,"geometry":{"type":"Point","coordinates":[99.008629560000031,18.758286260000034]},"properties":{"OBJECTID":178,"idx":3468,"POINT_Y":18.758286259999998,"POINT_X":99.008629560000003,"name":"ถนนมหิดล","kom":2,"kalae":0,"text_lanna":0,"total_detect":2}},{"type":"Feature","id":179,"geometry":{"type":"Point","coordinates":[98.982245140000032,18.777308270000049]},"properties":{"OBJECTID":179,"idx":3483,"POINT_Y":18.777308269999999,"POINT_X":98.982245140000003,"name":"ถนนวัวลาย ซอย 6","kom":3,"kalae":0,"text_lanna":0,"total_detect":3}},{"type":"Feature","id":180,"geometry":{"type":"Point","coordinates":[98.983940680000046,18.777237010000022]},"properties":{"OBJECTID":180,"idx":3506,"POINT_Y":18.77723701,"POINT_X":98.983940680000003,"name":"ถนนวัวลาย ซอย 4","kom":5,"kalae":0,"text_lanna":0,"total_detect":5}},{"type":"Feature","id":181,"geometry":{"type":"Point","coordinates":[98.983759120000059,18.777172970000038]},"properties":{"OBJECTID":181,"idx":3507,"POINT_Y":18.777172969999999,"POINT_X":98.983759120000002,"name":"ถนนวัวลาย ซอย 4","kom":2,"kalae":0,"text_lanna":0,"total_detect":2}},{"type":"Feature","id":182,"geometry":{"type":"Point","coordinates":[98.983220350000067,18.780354310000064]},"properties":{"OBJECTID":182,"idx":3512,"POINT_Y":18.78035431,"POINT_X":98.983220349999996,"name":"ถนนวัวลาย ซอย 2ข","kom":2,"kalae":0,"text_lanna":0,"total_detect":2}},{"type":"Feature","id":183,"geometry":{"type":"Point","coordinates":[98.986738410000044,18.777553260000047]},"properties":{"OBJECTID":183,"idx":3516,"POINT_Y":18.777553260000001,"POINT_X":98.986738410000001,"name":"ถนนนันทาราม ซอย 3","kom":4,"kalae":0,"text_lanna":1,"total_detect":5}},{"type":"Feature","id":184,"geometry":{"type":"Point","coordinates":[98.979988120000087,18.776530470000068]},"properties":{"OBJECTID":184,"idx":3535,"POINT_Y":18.776530470000001,"POINT_X":98.979988120000002,"name":null,"kom":2,"kalae":0,"text_lanna":0,"total_detect":2}},{"type":"Feature","id":185,"geometry":{"type":"Point","coordinates":[98.984316260000071,18.775355710000042]},"properties":{"OBJECTID":185,"idx":3554,"POINT_Y":18.775355709999999,"POINT_X":98.98431626,"name":"ถนนวัวลาย ซอย 5","kom":3,"kalae":0,"text_lanna":0,"total_detect":3}},{"type":"Feature","id":186,"geometry":{"type":"Point","coordinates":[98.983144250000066,18.776864770000032]},"properties":{"OBJECTID":186,"idx":3561,"POINT_Y":18.77686477,"POINT_X":98.983144249999995,"name":"ถนนวัวลาย ซอย 5","kom":2,"kalae":0,"text_lanna":0,"total_detect":2}},{"type":"Feature","id":187,"geometry":{"type":"Point","coordinates":[98.984279300000082,18.775832870000045]},"properties":{"OBJECTID":187,"idx":3562,"POINT_Y":18.775832869999999,"POINT_X":98.984279299999997,"name":"ถนนนันทาราม 4","kom":4,"kalae":0,"text_lanna":0,"total_detect":4}},{"type":"Feature","id":188,"geometry":{"type":"Point","coordinates":[98.985522060000051,18.776360380000028]},"properties":{"OBJECTID":188,"idx":3567,"POINT_Y":18.77636038,"POINT_X":98.985522059999994,"name":null,"kom":2,"kalae":0,"text_lanna":0,"total_detect":2}},{"type":"Feature","id":189,"geometry":{"type":"Point","coordinates":[98.988427320000085,18.77547308000004]},"properties":{"OBJECTID":189,"idx":3578,"POINT_Y":18.775473080000001,"POINT_X":98.98842732,"name":null,"kom":2,"kalae":0,"text_lanna":0,"total_detect":2}},{"type":"Feature","id":190,"geometry":{"type":"Point","coordinates":[98.990858830000036,18.778865630000041]},"properties":{"OBJECTID":190,"idx":3629,"POINT_Y":18.778865629999999,"POINT_X":98.990858829999993,"name":"ถนนราชเชียงแสน ซอย 1ค","kom":6,"kalae":0,"text_lanna":1,"total_detect":7}},{"type":"Feature","id":191,"geometry":{"type":"Point","coordinates":[98.981601870000077,18.772984250000036]},"properties":{"OBJECTID":191,"idx":3649,"POINT_Y":18.77298425,"POINT_X":98.981601870000006,"name":"ถนนศรีปิงเมือง ซอย 1ก","kom":2,"kalae":0,"text_lanna":0,"total_detect":2}},{"type":"Feature","id":192,"geometry":{"type":"Point","coordinates":[98.983749750000072,18.769833940000069]},"properties":{"OBJECTID":192,"idx":3672,"POINT_Y":18.769833940000002,"POINT_X":98.983749750000001,"name":null,"kom":2,"kalae":0,"text_lanna":0,"total_detect":2}},{"type":"Feature","id":193,"geometry":{"type":"Point","coordinates":[98.983817010000053,18.772135930000047]},"properties":{"OBJECTID":193,"idx":3715,"POINT_Y":18.772135930000001,"POINT_X":98.983817009999996,"name":"ถนนศรีปิงเมือง 3","kom":4,"kalae":0,"text_lanna":0,"total_detect":4}},{"type":"Feature","id":194,"geometry":{"type":"Point","coordinates":[98.984790760000067,18.772247920000041]},"properties":{"OBJECTID":194,"idx":3718,"POINT_Y":18.772247920000002,"POINT_X":98.984790759999996,"name":"ถนนศรีปิงเมือง 3","kom":2,"kalae":0,"text_lanna":0,"total_detect":2}},{"type":"Feature","id":195,"geometry":{"type":"Point","coordinates":[98.98121677000006,18.774475560000042]},"properties":{"OBJECTID":195,"idx":3747,"POINT_Y":18.774475559999999,"POINT_X":98.981216770000003,"name":null,"kom":6,"kalae":0,"text_lanna":0,"total_detect":6}},{"type":"Feature","id":196,"geometry":{"type":"Point","coordinates":[98.986725750000062,18.774564290000058]},"properties":{"OBJECTID":196,"idx":3772,"POINT_Y":18.774564290000001,"POINT_X":98.986725750000005,"name":null,"kom":2,"kalae":0,"text_lanna":0,"total_detect":2}},{"type":"Feature","id":197,"geometry":{"type":"Point","coordinates":[98.987271760000056,18.774697270000047]},"properties":{"OBJECTID":197,"idx":3774,"POINT_Y":18.774697270000001,"POINT_X":98.987271759999999,"name":null,"kom":2,"kalae":0,"text_lanna":0,"total_detect":2}},{"type":"Feature","id":198,"geometry":{"type":"Point","coordinates":[98.992402080000033,18.775021380000055]},"properties":{"OBJECTID":198,"idx":3810,"POINT_Y":18.775021379999998,"POINT_X":98.992402080000005,"name":"ถนน สุริยวงศ์ ซอย 6","kom":2,"kalae":0,"text_lanna":0,"total_detect":2}},{"type":"Feature","id":199,"geometry":{"type":"Point","coordinates":[98.97913058000006,18.767793980000022]},"properties":{"OBJECTID":199,"idx":3857,"POINT_Y":18.76779398,"POINT_X":98.979130580000003,"name":null,"kom":2,"kalae":1,"text_lanna":0,"total_detect":3}},{"type":"Feature","id":200,"geometry":{"type":"Point","coordinates":[98.995258550000074,18.764577270000075]},"properties":{"OBJECTID":200,"idx":3873,"POINT_Y":18.76457727,"POINT_X":98.995258550000003,"name":null,"kom":2,"kalae":0,"text_lanna":0,"total_detect":2}},{"type":"Feature","id":201,"geometry":{"type":"Point","coordinates":[98.997206880000078,18.766155240000046]},"properties":{"OBJECTID":201,"idx":3886,"POINT_Y":18.76615524,"POINT_X":98.997206879999993,"name":null,"kom":4,"kalae":0,"text_lanna":0,"total_detect":4}},{"type":"Feature","id":202,"geometry":{"type":"Point","coordinates":[99.024704600000064,18.784260290000077]},"properties":{"OBJECTID":202,"idx":3945,"POINT_Y":18.784260289999999,"POINT_X":99.024704600000007,"name":"ซอยเจริญยิ่ง","kom":2,"kalae":0,"text_lanna":0,"total_detect":2}},{"type":"Feature","id":203,"geometry":{"type":"Point","coordinates":[99.024181490000046,18.782543410000073]},"properties":{"OBJECTID":203,"idx":3987,"POINT_Y":18.782543409999999,"POINT_X":99.024181490000004,"name":"ถนนเจริญเมือง ซอย 8","kom":2,"kalae":0,"text_lanna":0,"total_detect":2}},{"type":"Feature","id":204,"geometry":{"type":"Point","coordinates":[99.023611190000054,18.783684040000026]},"properties":{"OBJECTID":204,"idx":3992,"POINT_Y":18.783684040000001,"POINT_X":99.023611189999997,"name":"ถนนเจริญเมือง ซอย 8","kom":2,"kalae":2,"text_lanna":0,"total_detect":4}},{"type":"Feature","id":205,"geometry":{"type":"Point","coordinates":[99.025173300000063,18.78121297000007]},"properties":{"OBJECTID":205,"idx":4005,"POINT_Y":18.781212969999999,"POINT_X":99.025173300000006,"name":"เจริญเมือง ซอย 8ก","kom":2,"kalae":0,"text_lanna":0,"total_detect":2}},{"type":"Feature","id":206,"geometry":{"type":"Point","coordinates":[99.021101990000034,18.783683600000074]},"properties":{"OBJECTID":206,"idx":4013,"POINT_Y":18.7836836,"POINT_X":99.021101990000005,"name":"ถนนเจริญเมือง ซอย 6","kom":4,"kalae":0,"text_lanna":0,"total_detect":4}},{"type":"Feature","id":207,"geometry":{"type":"Point","coordinates":[99.025731530000087,18.766282840000031]},"properties":{"OBJECTID":207,"idx":4079,"POINT_Y":18.766282839999999,"POINT_X":99.025731530000002,"name":"ซอยข้างเรงเรียนกาวิละ","kom":6,"kalae":0,"text_lanna":0,"total_detect":6}},{"type":"Feature","id":208,"geometry":{"type":"Point","coordinates":[99.021633960000088,18.766565820000039]},"properties":{"OBJECTID":208,"idx":4106,"POINT_Y":18.76656582,"POINT_X":99.021633960000003,"name":"มงฟอร์ด วิลล่า 14","kom":26,"kalae":0,"text_lanna":0,"total_detect":26}},{"type":"Feature","id":209,"geometry":{"type":"Point","coordinates":[99.022747130000084,18.763481610000042]},"properties":{"OBJECTID":209,"idx":4130,"POINT_Y":18.763481609999999,"POINT_X":99.022747129999999,"name":null,"kom":2,"kalae":0,"text_lanna":0,"total_detect":2}},{"type":"Feature","id":210,"geometry":{"type":"Point","coordinates":[99.023573820000081,18.77109530000007]},"properties":{"OBJECTID":210,"idx":4148,"POINT_Y":18.771095299999999,"POINT_X":99.023573819999996,"name":"ตันขาม ซอย 2","kom":2,"kalae":0,"text_lanna":0,"total_detect":2}},{"type":"Feature","id":211,"geometry":{"type":"Point","coordinates":[99.023579500000039,18.770709730000078]},"properties":{"OBJECTID":211,"idx":4172,"POINT_Y":18.77070973,"POINT_X":99.023579499999997,"name":null,"kom":3,"kalae":0,"text_lanna":0,"total_detect":3}},{"type":"Feature","id":212,"geometry":{"type":"Point","coordinates":[99.023513970000067,18.792137700000069]},"properties":{"OBJECTID":212,"idx":4199,"POINT_Y":18.792137700000001,"POINT_X":99.023513969999996,"name":"ถนนซุปเปอร์ไฮเวย์","kom":2,"kalae":0,"text_lanna":0,"total_detect":2}},{"type":"Feature","id":213,"geometry":{"type":"Point","coordinates":[99.02443063000004,18.79055494000005]},"properties":{"OBJECTID":213,"idx":4209,"POINT_Y":18.79055494,"POINT_X":99.024430629999998,"name":"ถนนซุปเปอร์ไฮเวย์","kom":2,"kalae":0,"text_lanna":0,"total_detect":2}},{"type":"Feature","id":214,"geometry":{"type":"Point","coordinates":[99.002783180000051,18.810076200000026]},"properties":{"OBJECTID":214,"idx":4244,"POINT_Y":18.810076200000001,"POINT_X":99.002783179999994,"name":"ถนนซุปเปอร์ไฮเวย์","kom":13,"kalae":0,"text_lanna":0,"total_detect":13}},{"type":"Feature","id":215,"geometry":{"type":"Point","coordinates":[99.00345585000008,18.810176900000044]},"properties":{"OBJECTID":215,"idx":4252,"POINT_Y":18.810176899999998,"POINT_X":99.003455849999995,"name":"ถนนซุปเปอร์ไฮเวย์","kom":2,"kalae":0,"text_lanna":2,"total_detect":4}},{"type":"Feature","id":216,"geometry":{"type":"Point","coordinates":[98.999533520000057,18.758273400000064]},"properties":{"OBJECTID":216,"idx":4274,"POINT_Y":18.7582734,"POINT_X":98.99953352,"name":"ถนนมหิดล","kom":2,"kalae":0,"text_lanna":0,"total_detect":2}},{"type":"Feature","id":217,"geometry":{"type":"Point","coordinates":[98.996966850000035,18.79364269000007]},"properties":{"OBJECTID":217,"idx":4333,"POINT_Y":18.793642689999999,"POINT_X":98.996966850000007,"name":"ถนนราชวงศ์","kom":16,"kalae":0,"text_lanna":0,"total_detect":16}},{"type":"Feature","id":218,"geometry":{"type":"Point","coordinates":[98.985772980000036,18.805409300000065]},"properties":{"OBJECTID":218,"idx":4345,"POINT_Y":18.805409300000001,"POINT_X":98.985772979999993,"name":"ถนนหมื่่นด้ามพร้าคต","kom":2,"kalae":0,"text_lanna":0,"total_detect":2}},{"type":"Feature","id":219,"geometry":{"type":"Point","coordinates":[98.986146550000058,18.805473500000062]},"properties":{"OBJECTID":219,"idx":4347,"POINT_Y":18.805473500000002,"POINT_X":98.986146550000001,"name":"ถนนหมื่่นด้ามพร้าคต","kom":7,"kalae":2,"text_lanna":0,"total_detect":9}},{"type":"Feature","id":220,"geometry":{"type":"Point","coordinates":[98.997917880000045,18.81057966000003]},"properties":{"OBJECTID":220,"idx":4363,"POINT_Y":18.810579659999998,"POINT_X":98.997917880000003,"name":"ถนนซุปเปอร์ไฮเวย์","kom":4,"kalae":1,"text_lanna":0,"total_detect":5}},{"type":"Feature","id":221,"geometry":{"type":"Point","coordinates":[98.943804320000083,18.802822990000038]},"properties":{"OBJECTID":221,"idx":4390,"POINT_Y":18.802822989999999,"POINT_X":98.943804319999998,"name":null,"kom":2,"kalae":0,"text_lanna":0,"total_detect":2}},{"type":"Feature","id":222,"geometry":{"type":"Point","coordinates":[98.945050930000036,18.802589530000034]},"properties":{"OBJECTID":222,"idx":4395,"POINT_Y":18.802589529999999,"POINT_X":98.945050929999994,"name":null,"kom":2,"kalae":0,"text_lanna":0,"total_detect":2}},{"type":"Feature","id":223,"geometry":{"type":"Point","coordinates":[98.946413690000043,18.803184720000047]},"properties":{"OBJECTID":223,"idx":4402,"POINT_Y":18.803184720000001,"POINT_X":98.94641369,"name":null,"kom":2,"kalae":0,"text_lanna":0,"total_detect":2}},{"type":"Feature","id":224,"geometry":{"type":"Point","coordinates":[98.946962880000058,18.807784810000044]},"properties":{"OBJECTID":224,"idx":4413,"POINT_Y":18.807784810000001,"POINT_X":98.946962880000001,"name":null,"kom":3,"kalae":1,"text_lanna":0,"total_detect":4}},{"type":"Feature","id":225,"geometry":{"type":"Point","coordinates":[99.007787520000079,18.787175360000049]},"properties":{"OBJECTID":225,"idx":4435,"POINT_Y":18.787175359999999,"POINT_X":99.007787519999994,"name":"ถนนเจริญเมือง","kom":3,"kalae":0,"text_lanna":0,"total_detect":3}},{"type":"Feature","id":226,"geometry":{"type":"Point","coordinates":[99.015912750000041,18.785614690000045]},"properties":{"OBJECTID":226,"idx":4470,"POINT_Y":18.785614689999999,"POINT_X":99.015912749999998,"name":"ถนนเจริญเมือง","kom":3,"kalae":0,"text_lanna":0,"total_detect":3}},{"type":"Feature","id":227,"geometry":{"type":"Point","coordinates":[99.018467390000069,18.790729620000036]},"properties":{"OBJECTID":227,"idx":4496,"POINT_Y":18.79072962,"POINT_X":99.018467389999998,"name":null,"kom":2,"kalae":0,"text_lanna":0,"total_detect":2}},{"type":"Feature","id":228,"geometry":{"type":"Point","coordinates":[99.008483540000043,18.794688680000036]},"properties":{"OBJECTID":228,"idx":4511,"POINT_Y":18.79468868,"POINT_X":99.00848354,"name":"ถนน บำรุงราษฏร์","kom":4,"kalae":0,"text_lanna":0,"total_detect":4}},{"type":"Feature","id":229,"geometry":{"type":"Point","coordinates":[99.008701500000086,18.789177830000028]},"properties":{"OBJECTID":229,"idx":4535,"POINT_Y":18.78917783,"POINT_X":99.008701500000001,"name":"ถนน บำรุงราษฏร์","kom":3,"kalae":0,"text_lanna":0,"total_detect":3}},{"type":"Feature","id":230,"geometry":{"type":"Point","coordinates":[99.008698580000043,18.788285940000037]},"properties":{"OBJECTID":230,"idx":4539,"POINT_Y":18.788285940000002,"POINT_X":99.008698580000001,"name":"ถนน บำรุงราษฏร์","kom":6,"kalae":0,"text_lanna":0,"total_detect":6}},{"type":"Feature","id":231,"geometry":{"type":"Point","coordinates":[99.020472950000055,18.767259960000047]},"properties":{"OBJECTID":231,"idx":4551,"POINT_Y":18.767259960000001,"POINT_X":99.020472949999998,"name":null,"kom":2,"kalae":0,"text_lanna":0,"total_detect":2}},{"type":"Feature","id":232,"geometry":{"type":"Point","coordinates":[98.98673959000007,18.783466240000052]},"properties":{"OBJECTID":232,"idx":4631,"POINT_Y":18.783466239999999,"POINT_X":98.986739589999999,"name":"ถนนพระปกเกล้า ซอย 4ข","kom":2,"kalae":0,"text_lanna":0,"total_detect":2}},{"type":"Feature","id":233,"geometry":{"type":"Point","coordinates":[98.984862230000033,18.784175340000047]},"properties":{"OBJECTID":233,"idx":4647,"POINT_Y":18.784175340000001,"POINT_X":98.984862230000005,"name":"ถนนสามล้าน ซอย 7 ก","kom":2,"kalae":0,"text_lanna":0,"total_detect":2}},{"type":"Feature","id":234,"geometry":{"type":"Point","coordinates":[98.982533970000077,18.781761610000046]},"properties":{"OBJECTID":234,"idx":4654,"POINT_Y":18.78176161,"POINT_X":98.982533970000006,"name":"ถนนบำรุงบุรี ซอย1","kom":2,"kalae":1,"text_lanna":0,"total_detect":3}},{"type":"Feature","id":235,"geometry":{"type":"Point","coordinates":[98.989167420000058,18.784398460000034]},"properties":{"OBJECTID":235,"idx":4669,"POINT_Y":18.784398459999998,"POINT_X":98.989167420000001,"name":"ถนนพระปกเกล้า ซอย 6","kom":16,"kalae":0,"text_lanna":0,"total_detect":16}},{"type":"Feature","id":236,"geometry":{"type":"Point","coordinates":[98.984849460000078,18.793743050000046]},"properties":{"OBJECTID":236,"idx":4685,"POINT_Y":18.79374305,"POINT_X":98.984849460000007,"name":"ถนนสิงหราช ซอย 4","kom":8,"kalae":0,"text_lanna":0,"total_detect":8}},{"type":"Feature","id":237,"geometry":{"type":"Point","coordinates":[98.988034880000043,18.789736740000023]},"properties":{"OBJECTID":237,"idx":4698,"POINT_Y":18.789736739999999,"POINT_X":98.988034880000001,"name":"ถนนพระปกเกล้า ซอย 12","kom":8,"kalae":0,"text_lanna":0,"total_detect":8}},{"type":"Feature","id":238,"geometry":{"type":"Point","coordinates":[98.988508990000071,18.787576880000074]},"properties":{"OBJECTID":238,"idx":4712,"POINT_Y":18.78757688,"POINT_X":98.98850899,"name":"ถนนพระปกเกล้า ซอย 9","kom":2,"kalae":0,"text_lanna":0,"total_detect":2}},{"type":"Feature","id":239,"geometry":{"type":"Point","coordinates":[98.983552770000074,18.787082090000069]},"properties":{"OBJECTID":239,"idx":4725,"POINT_Y":18.787082089999998,"POINT_X":98.983552770000003,"name":null,"kom":2,"kalae":0,"text_lanna":0,"total_detect":2}},{"type":"Feature","id":240,"geometry":{"type":"Point","coordinates":[99.019686910000075,18.761097180000036]},"properties":{"OBJECTID":240,"idx":4774,"POINT_Y":18.76109718,"POINT_X":99.019686910000004,"name":"ถนนมหิดล","kom":7,"kalae":0,"text_lanna":0,"total_detect":7}},{"type":"Feature","id":241,"geometry":{"type":"Point","coordinates":[99.024063320000039,18.762788160000071]},"properties":{"OBJECTID":241,"idx":4793,"POINT_Y":18.762788159999999,"POINT_X":99.024063319999996,"name":"ถนนมหิดล","kom":2,"kalae":0,"text_lanna":0,"total_detect":2}},{"type":"Feature","id":242,"geometry":{"type":"Point","coordinates":[98.98619382000004,18.780071830000054]},"properties":{"OBJECTID":242,"idx":4808,"POINT_Y":18.780071830000001,"POINT_X":98.986193819999997,"name":"ถนนวัวลาย","kom":4,"kalae":0,"text_lanna":0,"total_detect":4}},{"type":"Feature","id":243,"geometry":{"type":"Point","coordinates":[99.001457210000069,18.767560120000041]},"properties":{"OBJECTID":243,"idx":4833,"POINT_Y":18.767560119999999,"POINT_X":99.001457209999998,"name":"ถนนเจริญประเทศ","kom":3,"kalae":0,"text_lanna":0,"total_detect":3}},{"type":"Feature","id":244,"geometry":{"type":"Point","coordinates":[99.000923810000074,18.768479640000066]},"properties":{"OBJECTID":244,"idx":4838,"POINT_Y":18.768479639999999,"POINT_X":99.000923810000003,"name":"ถนนเจริญประเทศ","kom":8,"kalae":1,"text_lanna":0,"total_detect":9}},{"type":"Feature","id":245,"geometry":{"type":"Point","coordinates":[98.979829590000065,18.768307540000023]},"properties":{"OBJECTID":245,"idx":4865,"POINT_Y":18.768307539999999,"POINT_X":98.979829589999994,"name":"ถนนมหิดล","kom":2,"kalae":0,"text_lanna":0,"total_detect":2}},{"type":"Feature","id":246,"geometry":{"type":"Point","coordinates":[99.003720280000039,18.769089920000056]},"properties":{"OBJECTID":246,"idx":4930,"POINT_Y":18.769089919999999,"POINT_X":99.003720279999996,"name":"ถนนลำพูน ซอย 7","kom":4,"kalae":0,"text_lanna":0,"total_detect":4}},{"type":"Feature","id":247,"geometry":{"type":"Point","coordinates":[99.00419805000007,18.767800090000037]},"properties":{"OBJECTID":247,"idx":4937,"POINT_Y":18.767800090000001,"POINT_X":99.004198049999999,"name":"ถนนลำพูน ซอย 7","kom":2,"kalae":0,"text_lanna":0,"total_detect":2}},{"type":"Feature","id":248,"geometry":{"type":"Point","coordinates":[99.007018250000044,18.766699030000041]},"properties":{"OBJECTID":248,"idx":4948,"POINT_Y":18.766699030000002,"POINT_X":99.007018250000002,"name":"ถนนลำพูน ซอย9","kom":8,"kalae":0,"text_lanna":0,"total_detect":8}},{"type":"Feature","id":249,"geometry":{"type":"Point","coordinates":[99.019375040000057,18.79457756000005]},"properties":{"OBJECTID":249,"idx":5003,"POINT_Y":18.79457756,"POINT_X":99.01937504,"name":"ถนนทุ่งโฮเต็ล ซอย 1","kom":3,"kalae":0,"text_lanna":0,"total_detect":3}},{"type":"Feature","id":250,"geometry":{"type":"Point","coordinates":[98.981702520000056,18.823064850000037]},"properties":{"OBJECTID":250,"idx":5100,"POINT_Y":18.823064850000002,"POINT_X":98.981702519999999,"name":"ถนนโชตนา ซอย12","kom":2,"kalae":0,"text_lanna":0,"total_detect":2}},{"type":"Feature","id":251,"geometry":{"type":"Point","coordinates":[98.973047540000039,18.802884430000063]},"properties":{"OBJECTID":251,"idx":5121,"POINT_Y":18.802884429999999,"POINT_X":98.973047539999996,"name":null,"kom":5,"kalae":0,"text_lanna":0,"total_detect":5}},{"type":"Feature","id":252,"geometry":{"type":"Point","coordinates":[99.012261030000047,18.79044145000006]},"properties":{"OBJECTID":252,"idx":5308,"POINT_Y":18.790441449999999,"POINT_X":99.012261030000005,"name":null,"kom":3,"kalae":0,"text_lanna":0,"total_detect":3}},{"type":"Feature","id":253,"geometry":{"type":"Point","coordinates":[99.013420150000059,18.789727740000046]},"properties":{"OBJECTID":253,"idx":5356,"POINT_Y":18.78972774,"POINT_X":99.013420150000002,"name":"ถนน มนตรี","kom":2,"kalae":0,"text_lanna":1,"total_detect":3}},{"type":"Feature","id":254,"geometry":{"type":"Point","coordinates":[98.989973260000056,18.767242410000051]},"properties":{"OBJECTID":254,"idx":5390,"POINT_Y":18.767242410000001,"POINT_X":98.989973259999999,"name":"ซอยทวีคูณ","kom":2,"kalae":0,"text_lanna":0,"total_detect":2}},{"type":"Feature","id":255,"geometry":{"type":"Point","coordinates":[99.007608840000046,18.789897320000023]},"properties":{"OBJECTID":255,"idx":5499,"POINT_Y":18.789897320000001,"POINT_X":99.007608840000003,"name":"บำรุงราษฏร์ ซอย 1","kom":10,"kalae":1,"text_lanna":0,"total_detect":11}},{"type":"Feature","id":256,"geometry":{"type":"Point","coordinates":[99.012759460000041,18.759046140000066]},"properties":{"OBJECTID":256,"idx":5608,"POINT_Y":18.759046139999999,"POINT_X":99.012759459999998,"name":"ถนนมหิดล","kom":4,"kalae":0,"text_lanna":0,"total_detect":4}},{"type":"Feature","id":257,"geometry":{"type":"Point","coordinates":[98.957266980000043,18.797582090000049]},"properties":{"OBJECTID":257,"idx":5648,"POINT_Y":18.797582089999999,"POINT_X":98.95726698,"name":null,"kom":3,"kalae":0,"text_lanna":0,"total_detect":3}},{"type":"Feature","id":258,"geometry":{"type":"Point","coordinates":[98.948621880000076,18.809606450000047]},"properties":{"OBJECTID":258,"idx":6295,"POINT_Y":18.80960645,"POINT_X":98.948621880000005,"name":null,"kom":4,"kalae":0,"text_lanna":0,"total_detect":4}},{"type":"Feature","id":259,"geometry":{"type":"Point","coordinates":[98.994059490000041,18.797722220000026]},"properties":{"OBJECTID":259,"idx":6327,"POINT_Y":18.797722220000001,"POINT_X":98.994059489999998,"name":"ชุมชนหมู่บ้านอุ่นอารี","kom":2,"kalae":0,"text_lanna":0,"total_detect":2}},{"type":"Feature","id":260,"geometry":{"type":"Point","coordinates":[98.989965110000071,18.808562400000028]},"properties":{"OBJECTID":260,"idx":6485,"POINT_Y":18.8085624,"POINT_X":98.98996511,"name":"ถนนพัฒนาช้างเผือก","kom":3,"kalae":0,"text_lanna":0,"total_detect":3}},{"type":"Feature","id":261,"geometry":{"type":"Point","coordinates":[98.994437110000035,18.806058320000034]},"properties":{"OBJECTID":261,"idx":6575,"POINT_Y":18.806058320000002,"POINT_X":98.994437110000007,"name":"ถนนศรีมงคล ซอย3","kom":2,"kalae":1,"text_lanna":0,"total_detect":3}},{"type":"Feature","id":262,"geometry":{"type":"Point","coordinates":[98.991736150000065,18.798591370000054]},"properties":{"OBJECTID":262,"idx":6591,"POINT_Y":18.79859137,"POINT_X":98.991736149999994,"name":"ถนน อุ่นอารี ซอย6","kom":2,"kalae":0,"text_lanna":0,"total_detect":2}},{"type":"Feature","id":263,"geometry":{"type":"Point","coordinates":[98.994283550000034,18.820271190000028]},"properties":{"OBJECTID":263,"idx":6618,"POINT_Y":18.82027119,"POINT_X":98.994283550000006,"name":"สุขเกษม ซอย 18","kom":3,"kalae":0,"text_lanna":0,"total_detect":3}},{"type":"Feature","id":264,"geometry":{"type":"Point","coordinates":[98.992096860000061,18.800866490000033]},"properties":{"OBJECTID":264,"idx":6807,"POINT_Y":18.800866490000001,"POINT_X":98.992096860000004,"name":null,"kom":2,"kalae":0,"text_lanna":0,"total_detect":2}},{"type":"Feature","id":265,"geometry":{"type":"Point","coordinates":[98.992262400000072,18.80095491000003]},"properties":{"OBJECTID":265,"idx":6808,"POINT_Y":18.800954910000002,"POINT_X":98.992262400000001,"name":null,"kom":3,"kalae":0,"text_lanna":0,"total_detect":3}},{"type":"Feature","id":266,"geometry":{"type":"Point","coordinates":[98.987082650000048,18.81036763000003]},"properties":{"OBJECTID":266,"idx":6866,"POINT_Y":18.810367629999998,"POINT_X":98.987082650000005,"name":"ถนนหลิ่งกอก","kom":3,"kalae":0,"text_lanna":0,"total_detect":3}},{"type":"Feature","id":267,"geometry":{"type":"Point","coordinates":[98.998961830000042,18.778246170000045]},"properties":{"OBJECTID":267,"idx":6933,"POINT_Y":18.778246169999999,"POINT_X":98.998961829999999,"name":null,"kom":3,"kalae":0,"text_lanna":0,"total_detect":3}},{"type":"Feature","id":268,"geometry":{"type":"Point","coordinates":[98.993954580000036,18.805997630000036]},"properties":{"OBJECTID":268,"idx":6964,"POINT_Y":18.80599763,"POINT_X":98.993954579999993,"name":"ถนนศรีมงคล ซอย 1","kom":4,"kalae":0,"text_lanna":0,"total_detect":4}},{"type":"Feature","id":269,"geometry":{"type":"Point","coordinates":[99.013033630000052,18.766191320000075]},"properties":{"OBJECTID":269,"idx":7029,"POINT_Y":18.766191320000001,"POINT_X":99.013033629999995,"name":null,"kom":2,"kalae":0,"text_lanna":0,"total_detect":2}},{"type":"Feature","id":270,"geometry":{"type":"Point","coordinates":[99.011643220000053,18.760669050000047]},"properties":{"OBJECTID":270,"idx":7061,"POINT_Y":18.760669050000001,"POINT_X":99.011643219999996,"name":null,"kom":3,"kalae":0,"text_lanna":0,"total_detect":3}},{"type":"Feature","id":271,"geometry":{"type":"Point","coordinates":[99.012905810000063,18.761883080000075]},"properties":{"OBJECTID":271,"idx":7076,"POINT_Y":18.76188308,"POINT_X":99.012905810000007,"name":null,"kom":2,"kalae":0,"text_lanna":0,"total_detect":2}},{"type":"Feature","id":272,"geometry":{"type":"Point","coordinates":[98.976719260000039,18.786541580000062]},"properties":{"OBJECTID":272,"idx":7134,"POINT_Y":18.786541580000002,"POINT_X":98.976719259999996,"name":null,"kom":2,"kalae":0,"text_lanna":0,"total_detect":2}},{"type":"Feature","id":273,"geometry":{"type":"Point","coordinates":[98.969332050000048,18.783820900000023]},"properties":{"OBJECTID":273,"idx":7354,"POINT_Y":18.783820899999998,"POINT_X":98.969332050000006,"name":null,"kom":3,"kalae":0,"text_lanna":0,"total_detect":3}},{"type":"Feature","id":274,"geometry":{"type":"Point","coordinates":[98.970594340000048,18.796719890000077]},"properties":{"OBJECTID":274,"idx":7393,"POINT_Y":18.796719889999999,"POINT_X":98.970594340000005,"name":"ถนนนิมมานเหมินทร์ ซอย 11","kom":4,"kalae":0,"text_lanna":0,"total_detect":4}},{"type":"Feature","id":275,"geometry":{"type":"Point","coordinates":[98.96662230000004,18.795309800000041]},"properties":{"OBJECTID":275,"idx":7469,"POINT_Y":18.795309799999998,"POINT_X":98.966622299999997,"name":"ซอย จำปี","kom":5,"kalae":1,"text_lanna":0,"total_detect":6}},{"type":"Feature","id":276,"geometry":{"type":"Point","coordinates":[98.992648200000076,18.786596270000075]},"properties":{"OBJECTID":276,"idx":8924,"POINT_Y":18.78659627,"POINT_X":98.992648200000005,"name":"ถนนมูลเมือง ซอย 3","kom":3,"kalae":0,"text_lanna":0,"total_detect":3}},{"type":"Feature","id":277,"geometry":{"type":"Point","coordinates":[98.992160430000069,18.786499960000071]},"properties":{"OBJECTID":277,"idx":8926,"POINT_Y":18.78649996,"POINT_X":98.992160429999998,"name":"ถนนมูลเมือง ซอย 3","kom":6,"kalae":0,"text_lanna":0,"total_detect":6}},{"type":"Feature","id":278,"geometry":{"type":"Point","coordinates":[99.001083350000044,18.808314630000041]},"properties":{"OBJECTID":278,"idx":8961,"POINT_Y":18.808314630000002,"POINT_X":99.001083350000002,"name":null,"kom":10,"kalae":0,"text_lanna":0,"total_detect":10}}]
}