{
  "type" : "FeatureCollection",
  "features" : [{"type":"Feature","id":1,"geometry":{"type":"Point","coordinates":[98.986587430359748,18.77257200992825]},"properties":{"OBJECTID":1,"idx":3709,"POINT_Y":18.772572010000001,"POINT_X":98.98658743,"name":null,"kom":0,"kalae":1,"text_lanna":0,"total_detect":1}},{"type":"Feature","id":2,"geometry":{"type":"Point","coordinates":[98.986994419770824,18.772590360333787]},"properties":{"OBJECTID":2,"idx":3707,"POINT_Y":18.772590359999999,"POINT_X":98.986994420000002,"name":null,"kom":0,"kalae":1,"text_lanna":0,"total_detect":1}},{"type":"Feature","id":3,"geometry":{"type":"Point","coordinates":[98.987183410028138,18.772606679579088]},"properties":{"OBJECTID":3,"idx":3706,"POINT_Y":18.772606679999999,"POINT_X":98.98718341,"name":null,"kom":0,"kalae":0,"text_lanna":2,"total_detect":2}},{"type":"Feature","id":4,"geometry":{"type":"Point","coordinates":[98.987440440130712,18.772628979985118]},"properties":{"OBJECTID":4,"idx":3705,"POINT_Y":18.77262898,"POINT_X":98.98744044,"name":null,"kom":0,"kalae":1,"text_lanna":0,"total_detect":1}},{"type":"Feature","id":5,"geometry":{"type":"Point","coordinates":[98.982341650471369,18.772935110109557]},"properties":{"OBJECTID":5,"idx":2147,"POINT_Y":18.772935109999999,"POINT_X":98.982341649999995,"name":"ถนนศรีปิงเมือง","kom":5,"kalae":0,"text_lanna":0,"total_detect":5}},{"type":"Feature","id":6,"geometry":{"type":"Point","coordinates":[98.982304440220688,18.773249419649279]},"properties":{"OBJECTID":6,"idx":2148,"POINT_Y":18.773249419999999,"POINT_X":98.982304439999993,"name":"ถนนศรีปิงเมือง","kom":0,"kalae":3,"text_lanna":0,"total_detect":3}},{"type":"Feature","id":7,"geometry":{"type":"Point","coordinates":[98.990170799863492,18.773327440156706]},"properties":{"OBJECTID":7,"idx":3807,"POINT_Y":18.773327439999999,"POINT_X":98.990170800000001,"name":"ถนนสุริยะางษ์","kom":0,"kalae":2,"text_lanna":0,"total_detect":2}},{"type":"Feature","id":8,"geometry":{"type":"Point","coordinates":[98.984008760300384,18.773381649573299]},"properties":{"OBJECTID":8,"idx":3761,"POINT_Y":18.773381650000001,"POINT_X":98.984008759999995,"name":null,"kom":0,"kalae":1,"text_lanna":0,"total_detect":1}},{"type":"Feature","id":9,"geometry":{"type":"Point","coordinates":[98.983300160453567,18.77369387977414]},"properties":{"OBJECTID":9,"idx":3758,"POINT_Y":18.77369388,"POINT_X":98.983300159999999,"name":null,"kom":0,"kalae":2,"text_lanna":0,"total_detect":2}},{"type":"Feature","id":10,"geometry":{"type":"Point","coordinates":[98.990128729683178,18.773758270382356]},"properties":{"OBJECTID":10,"idx":3823,"POINT_Y":18.773758269999998,"POINT_X":98.990128729999995,"name":"ถนน สุริยวงศ์ ซอย 6","kom":0,"kalae":0,"text_lanna":1,"total_detect":1}},{"type":"Feature","id":11,"geometry":{"type":"Point","coordinates":[98.990537519605411,18.773875690301061]},"properties":{"OBJECTID":11,"idx":3821,"POINT_Y":18.773875690000001,"POINT_X":98.990537520000004,"name":"ถนน สุริยวงศ์ ซอย 6","kom":0,"kalae":2,"text_lanna":0,"total_detect":2}},{"type":"Feature","id":12,"geometry":{"type":"Point","coordinates":[98.98606995019928,18.773888739827466]},"properties":{"OBJECTID":12,"idx":3742,"POINT_Y":18.77388874,"POINT_X":98.986069950000001,"name":null,"kom":0,"kalae":1,"text_lanna":0,"total_detect":1}},{"type":"Feature","id":13,"geometry":{"type":"Point","coordinates":[98.9854835495955,18.773898370280264]},"properties":{"OBJECTID":13,"idx":3745,"POINT_Y":18.773898370000001,"POINT_X":98.985483549999998,"name":null,"kom":0,"kalae":2,"text_lanna":0,"total_detect":2}},{"type":"Feature","id":14,"geometry":{"type":"Point","coordinates":[98.984617320136181,18.773939380080915]},"properties":{"OBJECTID":14,"idx":3736,"POINT_Y":18.773939380000002,"POINT_X":98.984617319999998,"name":null,"kom":0,"kalae":1,"text_lanna":0,"total_detect":1}},{"type":"Feature","id":15,"geometry":{"type":"Point","coordinates":[98.989762379734458,18.774057620441571]},"properties":{"OBJECTID":15,"idx":1824,"POINT_Y":18.774057620000001,"POINT_X":98.989762380000002,"name":"ถนนสุริยะวงษ์","kom":0,"kalae":1,"text_lanna":0,"total_detect":1}},{"type":"Feature","id":16,"geometry":{"type":"Point","coordinates":[98.990864709584685,18.774058889554315]},"properties":{"OBJECTID":16,"idx":3819,"POINT_Y":18.774058889999999,"POINT_X":98.990864709999997,"name":"ถนน สุริยวงศ์ ซอย 6","kom":0,"kalae":1,"text_lanna":0,"total_detect":1}},{"type":"Feature","id":17,"geometry":{"type":"Point","coordinates":[98.981954460382525,18.774109749578137]},"properties":{"OBJECTID":17,"idx":3751,"POINT_Y":18.774109750000001,"POINT_X":98.981954459999997,"name":null,"kom":0,"kalae":3,"text_lanna":0,"total_detect":3}},{"type":"Feature","id":18,"geometry":{"type":"Point","coordinates":[98.988529400401319,18.774210559666255]},"properties":{"OBJECTID":18,"idx":3781,"POINT_Y":18.77421056,"POINT_X":98.988529400000004,"name":null,"kom":0,"kalae":2,"text_lanna":0,"total_detect":2}},{"type":"Feature","id":19,"geometry":{"type":"Point","coordinates":[98.991191909758953,18.774242099981247]},"properties":{"OBJECTID":19,"idx":3817,"POINT_Y":18.774242099999999,"POINT_X":98.991191909999998,"name":"ถนน สุริยวงศ์ ซอย 6","kom":0,"kalae":0,"text_lanna":1,"total_detect":1}},{"type":"Feature","id":20,"geometry":{"type":"Point","coordinates":[98.981576949900358,18.774297230291541]},"properties":{"OBJECTID":20,"idx":3749,"POINT_Y":18.774297229999998,"POINT_X":98.981576950000004,"name":null,"kom":0,"kalae":2,"text_lanna":0,"total_detect":2}},{"type":"Feature","id":21,"geometry":{"type":"Point","coordinates":[98.981391039934621,18.774404010080747]},"properties":{"OBJECTID":21,"idx":3748,"POINT_Y":18.774404010000001,"POINT_X":98.981391040000005,"name":null,"kom":0,"kalae":1,"text_lanna":0,"total_detect":1}},{"type":"Feature","id":22,"geometry":{"type":"Point","coordinates":[98.987776580275977,18.774446900155787]},"properties":{"OBJECTID":22,"idx":3762,"POINT_Y":18.774446900000001,"POINT_X":98.987776580000002,"name":"ถนนนันทาราม ซอย5","kom":0,"kalae":1,"text_lanna":0,"total_detect":1}},{"type":"Feature","id":23,"geometry":{"type":"Point","coordinates":[98.981216770320472,18.774475560198553]},"properties":{"OBJECTID":23,"idx":3747,"POINT_Y":18.774475559999999,"POINT_X":98.981216770000003,"name":null,"kom":6,"kalae":0,"text_lanna":0,"total_detect":6}},{"type":"Feature","id":24,"geometry":{"type":"Point","coordinates":[98.979431810337772,18.774498990139165]},"properties":{"OBJECTID":24,"idx":1880,"POINT_Y":18.774498990000001,"POINT_X":98.979431809999994,"name":"ถนนหายยา","kom":4,"kalae":0,"text_lanna":1,"total_detect":5}},{"type":"Feature","id":25,"geometry":{"type":"Point","coordinates":[98.986725749738753,18.774564289603497]},"properties":{"OBJECTID":25,"idx":3772,"POINT_Y":18.774564290000001,"POINT_X":98.986725750000005,"name":null,"kom":2,"kalae":0,"text_lanna":0,"total_detect":2}},{"type":"Feature","id":26,"geometry":{"type":"Point","coordinates":[98.986525060021734,18.77459460012307]},"properties":{"OBJECTID":26,"idx":3771,"POINT_Y":18.7745946,"POINT_X":98.986525060000005,"name":null,"kom":0,"kalae":2,"text_lanna":0,"total_detect":2}},{"type":"Feature","id":27,"geometry":{"type":"Point","coordinates":[98.986909609544313,18.77460907002413]},"properties":{"OBJECTID":27,"idx":3773,"POINT_Y":18.77460907,"POINT_X":98.986909609999998,"name":null,"kom":0,"kalae":1,"text_lanna":0,"total_detect":1}},{"type":"Feature","id":28,"geometry":{"type":"Point","coordinates":[98.990735139701982,18.774617519692296]},"properties":{"OBJECTID":28,"idx":2522,"POINT_Y":18.77461752,"POINT_X":98.990735139999998,"name":"ถนน สุริยวงศ์ ซอย 5","kom":0,"kalae":3,"text_lanna":0,"total_detect":3}},{"type":"Feature","id":29,"geometry":{"type":"Point","coordinates":[98.992582739653116,18.774658680329235]},"properties":{"OBJECTID":29,"idx":3797,"POINT_Y":18.774658680000002,"POINT_X":98.992582740000003,"name":"ถนนสุริยะางษ์","kom":0,"kalae":1,"text_lanna":0,"total_detect":1}},{"type":"Feature","id":30,"geometry":{"type":"Point","coordinates":[98.987271759799711,18.774697269738439]},"properties":{"OBJECTID":30,"idx":3774,"POINT_Y":18.774697270000001,"POINT_X":98.987271759999999,"name":null,"kom":2,"kalae":0,"text_lanna":0,"total_detect":2}},{"type":"Feature","id":31,"geometry":{"type":"Point","coordinates":[98.992722759975393,18.774780690314767]},"properties":{"OBJECTID":31,"idx":3796,"POINT_Y":18.77478069,"POINT_X":98.992722760000007,"name":"ถนนสุริยะางษ์","kom":0,"kalae":1,"text_lanna":0,"total_detect":1}},{"type":"Feature","id":32,"geometry":{"type":"Point","coordinates":[98.984237420187853,18.774788129689011]},"properties":{"OBJECTID":32,"idx":3739,"POINT_Y":18.774788130000001,"POINT_X":98.984237419999999,"name":null,"kom":1,"kalae":0,"text_lanna":0,"total_detect":1}},{"type":"Feature","id":33,"geometry":{"type":"Point","coordinates":[98.989566329548623,18.774805750184608]},"properties":{"OBJECTID":33,"idx":1827,"POINT_Y":18.774805749999999,"POINT_X":98.989566330000002,"name":"ถนนสุริยะวงษ์","kom":8,"kalae":1,"text_lanna":0,"total_detect":9}},{"type":"Feature","id":34,"geometry":{"type":"Point","coordinates":[98.97889259010087,18.774879100420204]},"properties":{"OBJECTID":34,"idx":1878,"POINT_Y":18.7748791,"POINT_X":98.978892590000001,"name":"ถนนหายยา","kom":1,"kalae":0,"text_lanna":0,"total_detect":1}},{"type":"Feature","id":35,"geometry":{"type":"Point","coordinates":[98.992862779550734,18.774902690252141]},"properties":{"OBJECTID":35,"idx":3795,"POINT_Y":18.774902690000001,"POINT_X":98.992862779999996,"name":"ถนนสุริยะางษ์","kom":0,"kalae":1,"text_lanna":0,"total_detect":1}},{"type":"Feature","id":36,"geometry":{"type":"Point","coordinates":[98.992402080429954,18.775021380445153]},"properties":{"OBJECTID":36,"idx":3810,"POINT_Y":18.775021379999998,"POINT_X":98.992402080000005,"name":"ถนน สุริยวงศ์ ซอย 6","kom":2,"kalae":0,"text_lanna":0,"total_detect":2}},{"type":"Feature","id":37,"geometry":{"type":"Point","coordinates":[98.978358240176362,18.77518197990187]},"properties":{"OBJECTID":37,"idx":1875,"POINT_Y":18.775181979999999,"POINT_X":98.978358240000006,"name":"ถนนหายยา","kom":0,"kalae":2,"text_lanna":0,"total_detect":2}},{"type":"Feature","id":38,"geometry":{"type":"Point","coordinates":[98.989480139676729,18.775204660369138]},"properties":{"OBJECTID":38,"idx":1829,"POINT_Y":18.77520466,"POINT_X":98.989480139999998,"name":"ถนนสุริยะวงษ์","kom":2,"kalae":16,"text_lanna":0,"total_detect":18}},{"type":"Feature","id":39,"geometry":{"type":"Point","coordinates":[98.987867620188453,18.775219029619642]},"properties":{"OBJECTID":39,"idx":3581,"POINT_Y":18.775219029999999,"POINT_X":98.987867620000003,"name":null,"kom":0,"kalae":2,"text_lanna":0,"total_detect":2}},{"type":"Feature","id":40,"geometry":{"type":"Point","coordinates":[98.992051290404959,18.775274030406582]},"properties":{"OBJECTID":40,"idx":2528,"POINT_Y":18.775274029999999,"POINT_X":98.992051290000006,"name":"ถนน สุริยวงศ์ ซอย 5","kom":0,"kalae":2,"text_lanna":0,"total_detect":2}},{"type":"Feature","id":41,"geometry":{"type":"Point","coordinates":[98.983310130157548,18.77530181967985]},"properties":{"OBJECTID":41,"idx":1857,"POINT_Y":18.775301819999999,"POINT_X":98.983310130000007,"name":"ถนนนันทาราม","kom":0,"kalae":1,"text_lanna":0,"total_detect":1}},{"type":"Feature","id":42,"geometry":{"type":"Point","coordinates":[98.984316259863732,18.775355710366117]},"properties":{"OBJECTID":42,"idx":3554,"POINT_Y":18.775355709999999,"POINT_X":98.98431626,"name":"ถนนวัวลาย ซอย 5","kom":3,"kalae":0,"text_lanna":0,"total_detect":3}},{"type":"Feature","id":43,"geometry":{"type":"Point","coordinates":[98.99016294954798,18.775364970321988]},"properties":{"OBJECTID":43,"idx":4913,"POINT_Y":18.775364969999998,"POINT_X":98.990162949999998,"name":null,"kom":0,"kalae":1,"text_lanna":0,"total_detect":1}},{"type":"Feature","id":44,"geometry":{"type":"Point","coordinates":[98.981961929763415,18.77539361984136]},"properties":{"OBJECTID":44,"idx":1850,"POINT_Y":18.775393619999999,"POINT_X":98.981961929999997,"name":"ถนนนันทาราม","kom":2,"kalae":0,"text_lanna":0,"total_detect":2}},{"type":"Feature","id":45,"geometry":{"type":"Point","coordinates":[98.986396110192686,18.775437359976177]},"properties":{"OBJECTID":45,"idx":1869,"POINT_Y":18.775437360000002,"POINT_X":98.986396110000001,"name":"ถนนนันทาราม","kom":2,"kalae":0,"text_lanna":0,"total_detect":2}},{"type":"Feature","id":46,"geometry":{"type":"Point","coordinates":[98.982556160257303,18.775464290294256]},"properties":{"OBJECTID":46,"idx":1853,"POINT_Y":18.775464289999999,"POINT_X":98.982556160000001,"name":"ถนนนันทาราม","kom":0,"kalae":2,"text_lanna":0,"total_detect":2}},{"type":"Feature","id":47,"geometry":{"type":"Point","coordinates":[98.988427319796472,18.775473079922044]},"properties":{"OBJECTID":47,"idx":3578,"POINT_Y":18.775473080000001,"POINT_X":98.98842732,"name":null,"kom":2,"kalae":0,"text_lanna":0,"total_detect":2}},{"type":"Feature","id":48,"geometry":{"type":"Point","coordinates":[98.977220759992207,18.775537760070787]},"properties":{"OBJECTID":48,"idx":1872,"POINT_Y":18.775537759999999,"POINT_X":98.977220759999994,"name":"ถนนหายยา","kom":0,"kalae":0,"text_lanna":1,"total_detect":1}},{"type":"Feature","id":49,"geometry":{"type":"Point","coordinates":[98.985940440268962,18.775824109659446]},"properties":{"OBJECTID":49,"idx":3569,"POINT_Y":18.775824109999999,"POINT_X":98.985940439999993,"name":null,"kom":0,"kalae":2,"text_lanna":0,"total_detect":2}},{"type":"Feature","id":50,"geometry":{"type":"Point","coordinates":[98.984279300471954,18.775832869702231]},"properties":{"OBJECTID":50,"idx":3562,"POINT_Y":18.775832869999999,"POINT_X":98.984279299999997,"name":"ถนนนันทาราม 4","kom":4,"kalae":0,"text_lanna":0,"total_detect":4}},{"type":"Feature","id":51,"geometry":{"type":"Point","coordinates":[98.98932170999818,18.775863160277872]},"properties":{"OBJECTID":51,"idx":1832,"POINT_Y":18.77586316,"POINT_X":98.989321709999999,"name":"ถนนสุริยะวงษ์","kom":1,"kalae":0,"text_lanna":0,"total_detect":1}},{"type":"Feature","id":52,"geometry":{"type":"Point","coordinates":[98.983951229808966,18.775920870090879]},"properties":{"OBJECTID":52,"idx":3552,"POINT_Y":18.77592087,"POINT_X":98.983951230000002,"name":"ถนนวัวลาย ซอย 5ก","kom":0,"kalae":2,"text_lanna":0,"total_detect":2}},{"type":"Feature","id":53,"geometry":{"type":"Point","coordinates":[98.988674280103737,18.775983100330144]},"properties":{"OBJECTID":53,"idx":3573,"POINT_Y":18.775983100000001,"POINT_X":98.988674279999998,"name":"ถนนสุริยวงศ์ ซอย3","kom":1,"kalae":2,"text_lanna":0,"total_detect":3}},{"type":"Feature","id":54,"geometry":{"type":"Point","coordinates":[98.992863760224623,18.776243259954754]},"properties":{"OBJECTID":54,"idx":2533,"POINT_Y":18.776243260000001,"POINT_X":98.992863760000006,"name":"ถนน สุริยวงศ์ ซอย 5","kom":0,"kalae":2,"text_lanna":0,"total_detect":2}},{"type":"Feature","id":55,"geometry":{"type":"Point","coordinates":[98.985522059869325,18.776360379653084]},"properties":{"OBJECTID":55,"idx":3567,"POINT_Y":18.77636038,"POINT_X":98.985522059999994,"name":null,"kom":2,"kalae":0,"text_lanna":0,"total_detect":2}},{"type":"Feature","id":56,"geometry":{"type":"Point","coordinates":[98.992414820462642,18.776425760011954]},"properties":{"OBJECTID":56,"idx":6260,"POINT_Y":18.776425759999999,"POINT_X":98.992414819999993,"name":"ถนน ราชเชียงแสน 2ก","kom":1,"kalae":0,"text_lanna":0,"total_detect":1}},{"type":"Feature","id":57,"geometry":{"type":"Point","coordinates":[98.98341242038552,18.776445899896096]},"properties":{"OBJECTID":57,"idx":3560,"POINT_Y":18.776445899999999,"POINT_X":98.983412419999993,"name":"ถนนวัวลาย ซอย 5","kom":0,"kalae":0,"text_lanna":1,"total_detect":1}},{"type":"Feature","id":58,"geometry":{"type":"Point","coordinates":[98.994045480182166,18.77648639020433]},"properties":{"OBJECTID":58,"idx":3784,"POINT_Y":18.776486389999999,"POINT_X":98.994045479999997,"name":"ถนนสุริยะางษ์","kom":0,"kalae":2,"text_lanna":0,"total_detect":2}},{"type":"Feature","id":59,"geometry":{"type":"Point","coordinates":[98.979988119770496,18.776530470255153]},"properties":{"OBJECTID":59,"idx":3535,"POINT_Y":18.776530470000001,"POINT_X":98.979988120000002,"name":null,"kom":2,"kalae":0,"text_lanna":0,"total_detect":2}},{"type":"Feature","id":60,"geometry":{"type":"Point","coordinates":[98.989147479905881,18.776561610233689]},"properties":{"OBJECTID":60,"idx":1835,"POINT_Y":18.776561610000002,"POINT_X":98.98914748,"name":"ถนนสุริยะวงษ์","kom":0,"kalae":2,"text_lanna":0,"total_detect":2}},{"type":"Feature","id":61,"geometry":{"type":"Point","coordinates":[98.989961900289899,18.776654510262198]},"properties":{"OBJECTID":61,"idx":1813,"POINT_Y":18.77665451,"POINT_X":98.989961899999997,"name":"ถนน ราชเชียงแสน ซอย2","kom":0,"kalae":1,"text_lanna":1,"total_detect":2}},{"type":"Feature","id":62,"geometry":{"type":"Point","coordinates":[98.990150800420224,18.776671819762718]},"properties":{"OBJECTID":62,"idx":1814,"POINT_Y":18.776671820000001,"POINT_X":98.990150799999995,"name":"ถนน ราชเชียงแสน ซอย2","kom":0,"kalae":0,"text_lanna":2,"total_detect":2}},{"type":"Feature","id":63,"geometry":{"type":"Point","coordinates":[98.990339699640273,18.776689129976042]},"properties":{"OBJECTID":63,"idx":1815,"POINT_Y":18.776689130000001,"POINT_X":98.990339700000007,"name":"ถนน ราชเชียงแสน ซอย2","kom":10,"kalae":0,"text_lanna":0,"total_detect":10}},{"type":"Feature","id":64,"geometry":{"type":"Point","coordinates":[98.994007190198275,18.776692289577348]},"properties":{"OBJECTID":64,"idx":2516,"POINT_Y":18.77669229,"POINT_X":98.994007190000005,"name":"ถนนกำแพงดิน ซอย 3","kom":0,"kalae":1,"text_lanna":0,"total_detect":1}},{"type":"Feature","id":65,"geometry":{"type":"Point","coordinates":[98.97840321955178,18.77670939973483]},"properties":{"OBJECTID":65,"idx":2105,"POINT_Y":18.776709400000001,"POINT_X":98.978403220000004,"name":null,"kom":0,"kalae":0,"text_lanna":2,"total_detect":2}},{"type":"Feature","id":66,"geometry":{"type":"Point","coordinates":[98.990717500094135,18.776723749829912]},"properties":{"OBJECTID":66,"idx":1817,"POINT_Y":18.776723749999999,"POINT_X":98.990717500000002,"name":"ถนน ราชเชียงแสน ซอย2","kom":0,"kalae":2,"text_lanna":0,"total_detect":2}},{"type":"Feature","id":67,"geometry":{"type":"Point","coordinates":[98.99102849002513,18.776747769687546]},"properties":{"OBJECTID":67,"idx":1818,"POINT_Y":18.77674777,"POINT_X":98.991028490000005,"name":"ถนน ราชเชียงแสน ซอย2","kom":0,"kalae":1,"text_lanna":0,"total_detect":1}},{"type":"Feature","id":68,"geometry":{"type":"Point","coordinates":[98.978039639597526,18.776761130082594]},"properties":{"OBJECTID":68,"idx":2113,"POINT_Y":18.776761130000001,"POINT_X":98.978039640000006,"name":null,"kom":0,"kalae":2,"text_lanna":0,"total_detect":2}},{"type":"Feature","id":69,"geometry":{"type":"Point","coordinates":[98.97872021975104,18.776800919553203]},"properties":{"OBJECTID":69,"idx":2106,"POINT_Y":18.776800919999999,"POINT_X":98.97872022,"name":null,"kom":0,"kalae":1,"text_lanna":0,"total_detect":1}},{"type":"Feature","id":70,"geometry":{"type":"Point","coordinates":[98.978901839597171,18.776853330152854]},"properties":{"OBJECTID":70,"idx":2107,"POINT_Y":18.776853330000002,"POINT_X":98.978901840000006,"name":null,"kom":0,"kalae":3,"text_lanna":0,"total_detect":3}},{"type":"Feature","id":71,"geometry":{"type":"Point","coordinates":[98.983144249951636,18.776864770025359]},"properties":{"OBJECTID":71,"idx":3561,"POINT_Y":18.77686477,"POINT_X":98.983144249999995,"name":"ถนนวัวลาย ซอย 5","kom":2,"kalae":0,"text_lanna":0,"total_detect":2}},{"type":"Feature","id":72,"geometry":{"type":"Point","coordinates":[98.991390849834502,18.77695234971269]},"properties":{"OBJECTID":72,"idx":1803,"POINT_Y":18.776952349999998,"POINT_X":98.991390850000002,"name":"ถนน ราชเชียงแสน 2","kom":1,"kalae":0,"text_lanna":1,"total_detect":2}},{"type":"Feature","id":73,"geometry":{"type":"Point","coordinates":[98.985388779769266,18.776993520442456]},"properties":{"OBJECTID":73,"idx":3502,"POINT_Y":18.776993520000001,"POINT_X":98.985388779999994,"name":null,"kom":0,"kalae":1,"text_lanna":0,"total_detect":1}},{"type":"Feature","id":74,"geometry":{"type":"Point","coordinates":[98.98099847968669,18.777044560311722]},"properties":{"OBJECTID":74,"idx":556,"POINT_Y":18.77704456,"POINT_X":98.980998479999997,"name":"ถนนทิพย์เนตร","kom":0,"kalae":1,"text_lanna":0,"total_detect":1}},{"type":"Feature","id":75,"geometry":{"type":"Point","coordinates":[98.979473340078897,18.777081149833588]},"properties":{"OBJECTID":75,"idx":2116,"POINT_Y":18.777081150000001,"POINT_X":98.979473339999998,"name":null,"kom":6,"kalae":1,"text_lanna":0,"total_detect":7}},{"type":"Feature","id":76,"geometry":{"type":"Point","coordinates":[98.983759120080123,18.777172969937247]},"properties":{"OBJECTID":76,"idx":3507,"POINT_Y":18.777172969999999,"POINT_X":98.983759120000002,"name":"ถนนวัวลาย ซอย 4","kom":2,"kalae":0,"text_lanna":0,"total_detect":2}},{"type":"Feature","id":77,"geometry":{"type":"Point","coordinates":[98.996289450369659,18.777235199591832]},"properties":{"OBJECTID":77,"idx":3291,"POINT_Y":18.7772352,"POINT_X":98.996289450000006,"name":null,"kom":2,"kalae":0,"text_lanna":0,"total_detect":2}},{"type":"Feature","id":78,"geometry":{"type":"Point","coordinates":[98.983940680057628,18.777237010125152]},"properties":{"OBJECTID":78,"idx":3506,"POINT_Y":18.77723701,"POINT_X":98.983940680000003,"name":"ถนนวัวลาย ซอย 4","kom":5,"kalae":0,"text_lanna":0,"total_detect":5}},{"type":"Feature","id":79,"geometry":{"type":"Point","coordinates":[98.982245139584393,18.777308269706364]},"properties":{"OBJECTID":79,"idx":3483,"POINT_Y":18.777308269999999,"POINT_X":98.982245140000003,"name":"ถนนวัวลาย ซอย 6","kom":3,"kalae":0,"text_lanna":0,"total_detect":3}},{"type":"Feature","id":80,"geometry":{"type":"Point","coordinates":[98.994006810148477,18.777511870041256]},"properties":{"OBJECTID":80,"idx":6887,"POINT_Y":18.777511870000001,"POINT_X":98.994006810000002,"name":null,"kom":0,"kalae":1,"text_lanna":0,"total_detect":1}},{"type":"Feature","id":81,"geometry":{"type":"Point","coordinates":[98.986738409872558,18.777553259729107]},"properties":{"OBJECTID":81,"idx":3516,"POINT_Y":18.777553260000001,"POINT_X":98.986738410000001,"name":"ถนนนันทาราม ซอย 3","kom":4,"kalae":0,"text_lanna":1,"total_detect":5}},{"type":"Feature","id":82,"geometry":{"type":"Point","coordinates":[98.98104133990087,18.777553080397581]},"properties":{"OBJECTID":82,"idx":558,"POINT_Y":18.777553080000001,"POINT_X":98.981041340000004,"name":"ถนนทิพย์เนตร","kom":0,"kalae":1,"text_lanna":0,"total_detect":1}},{"type":"Feature","id":83,"geometry":{"type":"Point","coordinates":[98.988935109661369,18.777668100007563]},"properties":{"OBJECTID":83,"idx":1839,"POINT_Y":18.7776681,"POINT_X":98.98893511,"name":"ถนนสุริยะวงษ์","kom":0,"kalae":1,"text_lanna":0,"total_detect":1}},{"type":"Feature","id":84,"geometry":{"type":"Point","coordinates":[98.98046454961117,18.777720370387694]},"properties":{"OBJECTID":84,"idx":2095,"POINT_Y":18.777720370000001,"POINT_X":98.980464549999994,"name":"หมู่บ้านระมิงค์นิเวศน์","kom":0,"kalae":4,"text_lanna":0,"total_detect":4}},{"type":"Feature","id":85,"geometry":{"type":"Point","coordinates":[98.979924749552694,18.7777454801174]},"properties":{"OBJECTID":85,"idx":2093,"POINT_Y":18.77774548,"POINT_X":98.979924749999995,"name":"หมู่บ้านระมิงค์นิเวศน์","kom":0,"kalae":1,"text_lanna":0,"total_detect":1}},{"type":"Feature","id":86,"geometry":{"type":"Point","coordinates":[98.97973519998169,18.77775424992101]},"properties":{"OBJECTID":86,"idx":2092,"POINT_Y":18.777754250000001,"POINT_X":98.979735199999993,"name":"หมู่บ้านระมิงค์นิเวศน์","kom":0,"kalae":0,"text_lanna":2,"total_detect":2}},{"type":"Feature","id":87,"geometry":{"type":"Point","coordinates":[98.981859020065386,18.777777810352742]},"properties":{"OBJECTID":87,"idx":3485,"POINT_Y":18.77777781,"POINT_X":98.981859020000002,"name":"ถนนวัวลาย ซอย 6","kom":0,"kalae":2,"text_lanna":0,"total_detect":2}},{"type":"Feature","id":88,"geometry":{"type":"Point","coordinates":[98.983033759687558,18.777860529830505]},"properties":{"OBJECTID":88,"idx":3490,"POINT_Y":18.777860530000002,"POINT_X":98.983033759999998,"name":"ถนนวัวลาย ซอย 2ก","kom":1,"kalae":0,"text_lanna":0,"total_detect":1}},{"type":"Feature","id":89,"geometry":{"type":"Point","coordinates":[98.985096700435207,18.777861350143738]},"properties":{"OBJECTID":89,"idx":8815,"POINT_Y":18.777861349999998,"POINT_X":98.9850967,"name":"ถนนวัวลาย ซอย 3","kom":0,"kalae":1,"text_lanna":0,"total_detect":1}},{"type":"Feature","id":90,"geometry":{"type":"Point","coordinates":[98.988653610411518,18.777936560317897]},"properties":{"OBJECTID":90,"idx":3525,"POINT_Y":18.777936560000001,"POINT_X":98.98865361,"name":"ถนนนันทาราม1","kom":1,"kalae":1,"text_lanna":0,"total_detect":2}},{"type":"Feature","id":91,"geometry":{"type":"Point","coordinates":[98.982983729853615,18.777953440328702]},"properties":{"OBJECTID":91,"idx":3498,"POINT_Y":18.777953440000001,"POINT_X":98.982983730000001,"name":"ซอยสำราญ","kom":0,"kalae":2,"text_lanna":0,"total_detect":2}},{"type":"Feature","id":92,"geometry":{"type":"Point","coordinates":[98.988002230431164,18.778084659871698]},"properties":{"OBJECTID":92,"idx":3521,"POINT_Y":18.778084660000001,"POINT_X":98.988002230000006,"name":"ถนนนันทาราม","kom":0,"kalae":2,"text_lanna":0,"total_detect":2}},{"type":"Feature","id":93,"geometry":{"type":"Point","coordinates":[98.988188979830952,18.778116850311914]},"properties":{"OBJECTID":93,"idx":3520,"POINT_Y":18.77811685,"POINT_X":98.988188980000004,"name":"ถนนนันทาราม","kom":0,"kalae":3,"text_lanna":0,"total_detect":3}},{"type":"Feature","id":94,"geometry":{"type":"Point","coordinates":[98.978539539852903,18.778124149792845]},"properties":{"OBJECTID":94,"idx":7246,"POINT_Y":18.77812415,"POINT_X":98.97853954,"name":null,"kom":0,"kalae":0,"text_lanna":1,"total_detect":1}},{"type":"Feature","id":95,"geometry":{"type":"Point","coordinates":[98.988772430143641,18.778142900069096]},"properties":{"OBJECTID":95,"idx":1841,"POINT_Y":18.778142899999999,"POINT_X":98.988772429999997,"name":"ถนนสุริยะวงษ์","kom":0,"kalae":2,"text_lanna":0,"total_detect":2}},{"type":"Feature","id":96,"geometry":{"type":"Point","coordinates":[98.993668900346734,18.77821605964915]},"properties":{"OBJECTID":96,"idx":2380,"POINT_Y":18.778216059999998,"POINT_X":98.993668900000003,"name":"ถนนราชเชียงแสน 2ก","kom":0,"kalae":1,"text_lanna":0,"total_detect":1}},{"type":"Feature","id":97,"geometry":{"type":"Point","coordinates":[98.995254320182724,18.778251679817078]},"properties":{"OBJECTID":97,"idx":1785,"POINT_Y":18.77825168,"POINT_X":98.995254320000001,"name":"ถนน ระแกง 2 ก","kom":0,"kalae":0,"text_lanna":1,"total_detect":1}},{"type":"Feature","id":98,"geometry":{"type":"Point","coordinates":[98.981104120401895,18.77825356024621]},"properties":{"OBJECTID":98,"idx":561,"POINT_Y":18.77825356,"POINT_X":98.981104119999998,"name":"ถนนทิพย์เนตร","kom":1,"kalae":0,"text_lanna":0,"total_detect":1}},{"type":"Feature","id":99,"geometry":{"type":"Point","coordinates":[98.993282250464929,18.778304610350187]},"properties":{"OBJECTID":99,"idx":2378,"POINT_Y":18.778304609999999,"POINT_X":98.993282249999993,"name":"ถนนราชเชียงแสน 2ก","kom":1,"kalae":0,"text_lanna":0,"total_detect":1}},{"type":"Feature","id":100,"geometry":{"type":"Point","coordinates":[98.988673350051528,18.778442809604659]},"properties":{"OBJECTID":100,"idx":1842,"POINT_Y":18.778442810000001,"POINT_X":98.988673349999999,"name":"ถนนสุริยะวงษ์","kom":2,"kalae":0,"text_lanna":0,"total_detect":2}},{"type":"Feature","id":101,"geometry":{"type":"Point","coordinates":[98.992018009639949,18.778594010247698]},"properties":{"OBJECTID":101,"idx":2373,"POINT_Y":18.778594009999999,"POINT_X":98.992018009999995,"name":"ถนนราชเชียงแสน 2ก","kom":0,"kalae":1,"text_lanna":0,"total_detect":1}},{"type":"Feature","id":102,"geometry":{"type":"Point","coordinates":[98.994562590337381,18.778662560099047]},"properties":{"OBJECTID":102,"idx":1794,"POINT_Y":18.778662560000001,"POINT_X":98.994562590000001,"name":"ถนนระแกง","kom":0,"kalae":2,"text_lanna":0,"total_detect":2}},{"type":"Feature","id":103,"geometry":{"type":"Point","coordinates":[98.984755729853532,18.778755209900087]},"properties":{"OBJECTID":103,"idx":4814,"POINT_Y":18.77875521,"POINT_X":98.984755730000003,"name":"ถนนวัวลาย","kom":0,"kalae":0,"text_lanna":1,"total_detect":1}},{"type":"Feature","id":104,"geometry":{"type":"Point","coordinates":[98.991884559815389,18.778802529655799]},"properties":{"OBJECTID":104,"idx":1806,"POINT_Y":18.77880253,"POINT_X":98.991884560000003,"name":"ถนน ราชเชียงแสน 2","kom":0,"kalae":2,"text_lanna":0,"total_detect":2}},{"type":"Feature","id":105,"geometry":{"type":"Point","coordinates":[98.995596700466578,18.778816669978639]},"properties":{"OBJECTID":105,"idx":1788,"POINT_Y":18.778816670000001,"POINT_X":98.995596699999993,"name":"ถนน ระแกง 2 ก","kom":0,"kalae":1,"text_lanna":0,"total_detect":1}},{"type":"Feature","id":106,"geometry":{"type":"Point","coordinates":[98.99085883041937,18.778865630104125]},"properties":{"OBJECTID":106,"idx":3629,"POINT_Y":18.778865629999999,"POINT_X":98.990858829999993,"name":"ถนนราชเชียงแสน ซอย 1ค","kom":6,"kalae":0,"text_lanna":1,"total_detect":7}},{"type":"Feature","id":107,"geometry":{"type":"Point","coordinates":[98.997065120428132,18.778871800180156]},"properties":{"OBJECTID":107,"idx":1306,"POINT_Y":18.778871800000001,"POINT_X":98.997065120000002,"name":"ถนนกำแพงดิน","kom":0,"kalae":1,"text_lanna":0,"total_detect":1}},{"type":"Feature","id":108,"geometry":{"type":"Point","coordinates":[98.991372650207509,18.778937530244672]},"properties":{"OBJECTID":108,"idx":3630,"POINT_Y":18.77893753,"POINT_X":98.991372650000002,"name":"ถนนราชเชียงแสน ซอย 1ค","kom":0,"kalae":2,"text_lanna":0,"total_detect":2}},{"type":"Feature","id":109,"geometry":{"type":"Point","coordinates":[98.984499689893426,18.779014090337043]},"properties":{"OBJECTID":109,"idx":3474,"POINT_Y":18.77901409,"POINT_X":98.984499690000007,"name":"ถนนวัฒนธรรมวัดศรีสุพรรณ","kom":0,"kalae":1,"text_lanna":1,"total_detect":2}},{"type":"Feature","id":110,"geometry":{"type":"Point","coordinates":[98.994284879531207,18.779017659963891]},"properties":{"OBJECTID":110,"idx":1795,"POINT_Y":18.779017660000001,"POINT_X":98.994284879999995,"name":"ถนนระแกง","kom":0,"kalae":0,"text_lanna":1,"total_detect":1}},{"type":"Feature","id":111,"geometry":{"type":"Point","coordinates":[98.986054730427682,18.779026010030389]},"properties":{"OBJECTID":111,"idx":2176,"POINT_Y":18.779026009999999,"POINT_X":98.986054730000006,"name":"ถนนวัวลาย ซอย 1","kom":0,"kalae":1,"text_lanna":0,"total_detect":1}},{"type":"Feature","id":112,"geometry":{"type":"Point","coordinates":[98.98476140035423,18.779082029875195]},"properties":{"OBJECTID":112,"idx":3475,"POINT_Y":18.779082030000001,"POINT_X":98.984761399999996,"name":"ถนนวัฒนธรรมวัดศรีสุพรรณ","kom":0,"kalae":2,"text_lanna":0,"total_detect":2}},{"type":"Feature","id":113,"geometry":{"type":"Point","coordinates":[98.988430929932377,18.779189550378646]},"properties":{"OBJECTID":113,"idx":1845,"POINT_Y":18.779189550000002,"POINT_X":98.988430930000007,"name":"ถนนสุริยะวงษ์","kom":0,"kalae":2,"text_lanna":0,"total_detect":2}},{"type":"Feature","id":114,"geometry":{"type":"Point","coordinates":[98.997433310214632,18.779224710305499]},"properties":{"OBJECTID":114,"idx":1304,"POINT_Y":18.779224710000001,"POINT_X":98.997433310000005,"name":"ถนนกำแพงดิน","kom":0,"kalae":0,"text_lanna":1,"total_detect":1}},{"type":"Feature","id":115,"geometry":{"type":"Point","coordinates":[98.984903619553393,18.779252649858634]},"properties":{"OBJECTID":115,"idx":2159,"POINT_Y":18.77925265,"POINT_X":98.984903619999997,"name":"ถนนวัวลาย ซอย 2","kom":0,"kalae":2,"text_lanna":0,"total_detect":2}},{"type":"Feature","id":116,"geometry":{"type":"Point","coordinates":[98.996261079556248,18.779333120022965]},"properties":{"OBJECTID":116,"idx":3286,"POINT_Y":18.77933312,"POINT_X":98.996261079999996,"name":"ถนน ระแกง 2","kom":0,"kalae":1,"text_lanna":0,"total_detect":1}},{"type":"Feature","id":117,"geometry":{"type":"Point","coordinates":[98.993719290147723,18.779468990026128]},"properties":{"OBJECTID":117,"idx":6951,"POINT_Y":18.779468990000002,"POINT_X":98.993719290000001,"name":"ถนนระแกง ซอย 3ก","kom":0,"kalae":0,"text_lanna":1,"total_detect":1}},{"type":"Feature","id":118,"geometry":{"type":"Point","coordinates":[98.99114249962669,18.77954272980768]},"properties":{"OBJECTID":118,"idx":2550,"POINT_Y":18.779542729999999,"POINT_X":98.991142499999995,"name":"ถนนราชเชียงแสน ซอย 1ข","kom":0,"kalae":0,"text_lanna":1,"total_detect":1}},{"type":"Feature","id":119,"geometry":{"type":"Point","coordinates":[98.981217239953267,18.779555050063294]},"properties":{"OBJECTID":119,"idx":566,"POINT_Y":18.779555049999999,"POINT_X":98.981217240000007,"name":"ถนนทิพย์เนตร","kom":8,"kalae":0,"text_lanna":0,"total_detect":8}},{"type":"Feature","id":120,"geometry":{"type":"Point","coordinates":[98.995761300004148,18.779558650149333]},"properties":{"OBJECTID":120,"idx":3288,"POINT_Y":18.779558649999998,"POINT_X":98.995761299999998,"name":"ถนน ระแกง 2","kom":4,"kalae":0,"text_lanna":0,"total_detect":4}},{"type":"Feature","id":121,"geometry":{"type":"Point","coordinates":[98.995576119532075,18.779611929699424]},"properties":{"OBJECTID":121,"idx":1789,"POINT_Y":18.779611930000002,"POINT_X":98.995576119999996,"name":"ถนน ระแกง 2 ก","kom":0,"kalae":2,"text_lanna":0,"total_detect":2}},{"type":"Feature","id":122,"geometry":{"type":"Point","coordinates":[98.980042870082926,18.779632700353773]},"properties":{"OBJECTID":122,"idx":7338,"POINT_Y":18.779632700000001,"POINT_X":98.980042870000005,"name":null,"kom":0,"kalae":1,"text_lanna":0,"total_detect":1}},{"type":"Feature","id":123,"geometry":{"type":"Point","coordinates":[98.983536220047114,18.779855619868627]},"properties":{"OBJECTID":123,"idx":2163,"POINT_Y":18.779855619999999,"POINT_X":98.983536220000005,"name":"ถนนวัวลาย ซอย 2","kom":1,"kalae":0,"text_lanna":2,"total_detect":3}},{"type":"Feature","id":124,"geometry":{"type":"Point","coordinates":[98.97870815026684,18.779913359656728]},"properties":{"OBJECTID":124,"idx":7253,"POINT_Y":18.779913359999998,"POINT_X":98.978708150000003,"name":null,"kom":0,"kalae":0,"text_lanna":1,"total_detect":1}},{"type":"Feature","id":125,"geometry":{"type":"Point","coordinates":[98.982827520384618,18.779940720205484]},"properties":{"OBJECTID":125,"idx":2166,"POINT_Y":18.779940719999999,"POINT_X":98.982827520000001,"name":"ถนนวัวลาย ซอย 2","kom":0,"kalae":1,"text_lanna":0,"total_detect":1}},{"type":"Feature","id":126,"geometry":{"type":"Point","coordinates":[98.994178519941244,18.779965350083295]},"properties":{"OBJECTID":126,"idx":1783,"POINT_Y":18.779965350000001,"POINT_X":98.994178520000006,"name":"ถนน ระแกง 2","kom":0,"kalae":3,"text_lanna":0,"total_detect":3}},{"type":"Feature","id":127,"geometry":{"type":"Point","coordinates":[98.991629260061544,18.779970400353527]},"properties":{"OBJECTID":127,"idx":2561,"POINT_Y":18.7799704,"POINT_X":98.991629259999996,"name":"ถนน ราชเชียงแสน ซอย1ก","kom":2,"kalae":0,"text_lanna":0,"total_detect":2}},{"type":"Feature","id":128,"geometry":{"type":"Point","coordinates":[98.993734469719953,18.779971850239004]},"properties":{"OBJECTID":128,"idx":1800,"POINT_Y":18.779971849999999,"POINT_X":98.993734470000007,"name":"ถนนระแกง","kom":3,"kalae":0,"text_lanna":2,"total_detect":5}},{"type":"Feature","id":129,"geometry":{"type":"Point","coordinates":[98.986193820429918,18.780071830080928]},"properties":{"OBJECTID":129,"idx":4808,"POINT_Y":18.780071830000001,"POINT_X":98.986193819999997,"name":"ถนนวัวลาย","kom":4,"kalae":0,"text_lanna":0,"total_detect":4}},{"type":"Feature","id":130,"geometry":{"type":"Point","coordinates":[98.979900750062981,18.780088710400321]},"properties":{"OBJECTID":130,"idx":7341,"POINT_Y":18.780088710000001,"POINT_X":98.979900749999999,"name":null,"kom":0,"kalae":1,"text_lanna":0,"total_detect":1}},{"type":"Feature","id":131,"geometry":{"type":"Point","coordinates":[98.982189979619875,18.780149739668289]},"properties":{"OBJECTID":131,"idx":2168,"POINT_Y":18.780149739999999,"POINT_X":98.982189980000001,"name":"ถนนวัวลาย ซอย 2","kom":0,"kalae":2,"text_lanna":0,"total_detect":2}},{"type":"Feature","id":132,"geometry":{"type":"Point","coordinates":[98.990878350151092,18.780162050012208]},"properties":{"OBJECTID":132,"idx":2557,"POINT_Y":18.780162050000001,"POINT_X":98.990878350000003,"name":"ถนน ราชเชียงแสน ซอย1ก","kom":0,"kalae":1,"text_lanna":0,"total_detect":1}},{"type":"Feature","id":133,"geometry":{"type":"Point","coordinates":[98.981289800228907,18.780228879727346]},"properties":{"OBJECTID":133,"idx":569,"POINT_Y":18.780228879999999,"POINT_X":98.981289799999999,"name":"ถนนทิพย์เนตร","kom":0,"kalae":0,"text_lanna":1,"total_detect":1}},{"type":"Feature","id":134,"geometry":{"type":"Point","coordinates":[98.983220349643773,18.780354310272457]},"properties":{"OBJECTID":134,"idx":3512,"POINT_Y":18.78035431,"POINT_X":98.983220349999996,"name":"ถนนวัวลาย ซอย 2ข","kom":2,"kalae":0,"text_lanna":0,"total_detect":2}},{"type":"Feature","id":135,"geometry":{"type":"Point","coordinates":[98.981309489612073,18.780408659965964]},"properties":{"OBJECTID":135,"idx":570,"POINT_Y":18.780408659999999,"POINT_X":98.981309490000001,"name":"ถนนทิพย์เนตร","kom":8,"kalae":0,"text_lanna":0,"total_detect":8}},{"type":"Feature","id":136,"geometry":{"type":"Point","coordinates":[98.991887160430636,18.780413650191669]},"properties":{"OBJECTID":136,"idx":1811,"POINT_Y":18.78041365,"POINT_X":98.991887160000005,"name":"ถนน ราชเชียงแสน 2","kom":0,"kalae":0,"text_lanna":1,"total_detect":1}},{"type":"Feature","id":137,"geometry":{"type":"Point","coordinates":[98.987252619816161,18.780663529796133]},"properties":{"OBJECTID":137,"idx":4805,"POINT_Y":18.780663530000002,"POINT_X":98.987252620000007,"name":"ถนนวัวลาย","kom":0,"kalae":1,"text_lanna":0,"total_detect":1}},{"type":"Feature","id":138,"geometry":{"type":"Point","coordinates":[98.988884639599448,18.780675849635248]},"properties":{"OBJECTID":138,"idx":3585,"POINT_Y":18.780675850000002,"POINT_X":98.988884639999995,"name":null,"kom":1,"kalae":0,"text_lanna":0,"total_detect":1}},{"type":"Feature","id":139,"geometry":{"type":"Point","coordinates":[98.998259339672074,18.780678170429358]},"properties":{"OBJECTID":139,"idx":1298,"POINT_Y":18.780678170000002,"POINT_X":98.998259340000004,"name":"ถนนกำแพงดิน","kom":0,"kalae":2,"text_lanna":0,"total_detect":2}},{"type":"Feature","id":140,"geometry":{"type":"Point","coordinates":[98.981338390116548,18.780680769579096]},"properties":{"OBJECTID":140,"idx":571,"POINT_Y":18.78068077,"POINT_X":98.981338390000005,"name":"ถนนทิพย์เนตร","kom":0,"kalae":2,"text_lanna":0,"total_detect":2}},{"type":"Feature","id":141,"geometry":{"type":"Point","coordinates":[98.988131110236708,18.780772649795626]},"properties":{"OBJECTID":141,"idx":3587,"POINT_Y":18.780772649999999,"POINT_X":98.988131109999998,"name":"ถนนนันทาราม","kom":0,"kalae":2,"text_lanna":0,"total_detect":2}},{"type":"Feature","id":142,"geometry":{"type":"Point","coordinates":[98.983226019684935,18.78095363010366]},"properties":{"OBJECTID":142,"idx":3514,"POINT_Y":18.780953629999999,"POINT_X":98.983226020000004,"name":"ถนนวัวลาย ซอย 2ข","kom":0,"kalae":8,"text_lanna":2,"total_detect":10}},{"type":"Feature","id":143,"geometry":{"type":"Point","coordinates":[98.999077500012291,18.781414129623112]},"properties":{"OBJECTID":143,"idx":1254,"POINT_Y":18.781414130000002,"POINT_X":98.999077499999999,"name":"ถนนลอยเคราะห์ 4","kom":0,"kalae":2,"text_lanna":0,"total_detect":2}},{"type":"Feature","id":144,"geometry":{"type":"Point","coordinates":[98.996562109713224,18.781568519990138]},"properties":{"OBJECTID":144,"idx":2438,"POINT_Y":18.78156852,"POINT_X":98.996562109999999,"name":"ถนนลอยเคราะห์ 3","kom":7,"kalae":0,"text_lanna":0,"total_detect":7}},{"type":"Feature","id":145,"geometry":{"type":"Point","coordinates":[98.98070179955009,18.781654479673836]},"properties":{"OBJECTID":145,"idx":4606,"POINT_Y":18.78165448,"POINT_X":98.980701800000006,"name":"ถนนบำรุงบุรี","kom":0,"kalae":1,"text_lanna":0,"total_detect":1}},{"type":"Feature","id":146,"geometry":{"type":"Point","coordinates":[98.994824050418032,18.781668949717339]},"properties":{"OBJECTID":146,"idx":1760,"POINT_Y":18.78166895,"POINT_X":98.994824050000005,"name":"ถนนลอยเคราะห์2","kom":0,"kalae":2,"text_lanna":0,"total_detect":2}},{"type":"Feature","id":147,"geometry":{"type":"Point","coordinates":[98.998440230010075,18.781716389754084]},"properties":{"OBJECTID":147,"idx":1293,"POINT_Y":18.78171639,"POINT_X":98.99844023,"name":"ถนนกำแพงดิน","kom":0,"kalae":2,"text_lanna":0,"total_detect":2}},{"type":"Feature","id":148,"geometry":{"type":"Point","coordinates":[98.982533969639761,18.781761609892783]},"properties":{"OBJECTID":148,"idx":4654,"POINT_Y":18.78176161,"POINT_X":98.982533970000006,"name":"ถนนบำรุงบุรี ซอย1","kom":2,"kalae":1,"text_lanna":0,"total_detect":3}},{"type":"Feature","id":149,"geometry":{"type":"Point","coordinates":[98.98984937032543,18.781928190278723]},"properties":{"OBJECTID":149,"idx":2234,"POINT_Y":18.781928189999999,"POINT_X":98.989849370000002,"name":"ถนนราชภาคินัย","kom":2,"kalae":0,"text_lanna":0,"total_detect":2}},{"type":"Feature","id":150,"geometry":{"type":"Point","coordinates":[98.996060990356924,18.781975579724595]},"properties":{"OBJECTID":150,"idx":2460,"POINT_Y":18.781975580000001,"POINT_X":98.996060990000004,"name":null,"kom":2,"kalae":0,"text_lanna":0,"total_detect":2}},{"type":"Feature","id":151,"geometry":{"type":"Point","coordinates":[98.982625479550094,18.782011989872565]},"properties":{"OBJECTID":151,"idx":4655,"POINT_Y":18.782011990000001,"POINT_X":98.982625479999996,"name":"ถนนบำรุงบุรี ซอย1","kom":0,"kalae":5,"text_lanna":0,"total_detect":5}},{"type":"Feature","id":152,"geometry":{"type":"Point","coordinates":[98.996661880040591,18.782030099890729]},"properties":{"OBJECTID":152,"idx":2440,"POINT_Y":18.7820301,"POINT_X":98.996661880000005,"name":"ถนนลอยเคราะห์ 3","kom":0,"kalae":2,"text_lanna":0,"total_detect":2}},{"type":"Feature","id":153,"geometry":{"type":"Point","coordinates":[98.989847979812055,18.782108949959603]},"properties":{"OBJECTID":153,"idx":2233,"POINT_Y":18.782108950000001,"POINT_X":98.989847979999993,"name":"ถนนราชภาคินัย","kom":2,"kalae":0,"text_lanna":0,"total_detect":2}},{"type":"Feature","id":154,"geometry":{"type":"Point","coordinates":[98.988775210159005,18.782114849985696]},"properties":{"OBJECTID":154,"idx":592,"POINT_Y":18.782114849999999,"POINT_X":98.98877521,"name":"ถนนพระปกเกล้า ซอย 2","kom":0,"kalae":1,"text_lanna":0,"total_detect":1}},{"type":"Feature","id":155,"geometry":{"type":"Point","coordinates":[98.989499389628364,18.782134999604118]},"properties":{"OBJECTID":155,"idx":584,"POINT_Y":18.782135,"POINT_X":98.989499390000006,"name":"ถนนพระปกเกล้า ซอย 1","kom":0,"kalae":1,"text_lanna":0,"total_detect":1}},{"type":"Feature","id":156,"geometry":{"type":"Point","coordinates":[98.995777209883443,18.782184600211469]},"properties":{"OBJECTID":156,"idx":2462,"POINT_Y":18.782184600000001,"POINT_X":98.99577721,"name":null,"kom":0,"kalae":0,"text_lanna":2,"total_detect":2}},{"type":"Feature","id":157,"geometry":{"type":"Point","coordinates":[98.995160089959484,18.782566819607119]},"properties":{"OBJECTID":157,"idx":1763,"POINT_Y":18.78256682,"POINT_X":98.995160089999999,"name":"ถนนลอยเคราะห์2","kom":0,"kalae":0,"text_lanna":1,"total_detect":1}},{"type":"Feature","id":158,"geometry":{"type":"Point","coordinates":[98.990665159922784,18.782651929783949]},"properties":{"OBJECTID":158,"idx":4665,"POINT_Y":18.78265193,"POINT_X":98.990665160000006,"name":"ถนนมิตรปราณี","kom":0,"kalae":1,"text_lanna":0,"total_detect":1}},{"type":"Feature","id":159,"geometry":{"type":"Point","coordinates":[98.995266790322162,18.782700119571306]},"properties":{"OBJECTID":159,"idx":1757,"POINT_Y":18.782700120000001,"POINT_X":98.995266790000002,"name":"ถนนลอยเคาะห์ ซอย 1","kom":0,"kalae":0,"text_lanna":1,"total_detect":1}},{"type":"Feature","id":160,"geometry":{"type":"Point","coordinates":[98.990272969717168,18.782780089747796]},"properties":{"OBJECTID":160,"idx":4663,"POINT_Y":18.782780089999999,"POINT_X":98.990272970000007,"name":"ถนนมิตรปราณี","kom":0,"kalae":0,"text_lanna":1,"total_detect":1}},{"type":"Feature","id":161,"geometry":{"type":"Point","coordinates":[98.995384259624444,18.782842369968211]},"properties":{"OBJECTID":161,"idx":1764,"POINT_Y":18.782842370000001,"POINT_X":98.995384259999994,"name":"ถนนลอยเคราะห์2","kom":0,"kalae":0,"text_lanna":1,"total_detect":1}},{"type":"Feature","id":162,"geometry":{"type":"Point","coordinates":[98.992412579861863,18.782857020052678]},"properties":{"OBJECTID":162,"idx":2399,"POINT_Y":18.782857020000002,"POINT_X":98.992412580000007,"name":"ถนนมูลเมือง ซอย 1","kom":6,"kalae":0,"text_lanna":0,"total_detect":6}},{"type":"Feature","id":163,"geometry":{"type":"Point","coordinates":[98.978640229741799,18.78290081993368]},"properties":{"OBJECTID":163,"idx":2002,"POINT_Y":18.782900819999998,"POINT_X":98.978640229999996,"name":null,"kom":0,"kalae":0,"text_lanna":1,"total_detect":1}},{"type":"Feature","id":164,"geometry":{"type":"Point","coordinates":[98.999313819751251,18.78299794985212]},"properties":{"OBJECTID":164,"idx":1260,"POINT_Y":18.782997949999999,"POINT_X":98.999313819999998,"name":"ถนนลอยเคราะห์ 4","kom":0,"kalae":0,"text_lanna":1,"total_detect":1}},{"type":"Feature","id":165,"geometry":{"type":"Point","coordinates":[98.991648919541987,18.783059110093433]},"properties":{"OBJECTID":165,"idx":2402,"POINT_Y":18.78305911,"POINT_X":98.991648920000003,"name":"ถนนมูลเมือง ซอย 1","kom":2,"kalae":0,"text_lanna":0,"total_detect":2}},{"type":"Feature","id":166,"geometry":{"type":"Point","coordinates":[98.978149219684923,18.783122339827088]},"properties":{"OBJECTID":166,"idx":2000,"POINT_Y":18.783122339999998,"POINT_X":98.978149220000006,"name":"ถนนอารักษ์ ซอย 8","kom":0,"kalae":0,"text_lanna":1,"total_detect":1}},{"type":"Feature","id":167,"geometry":{"type":"Point","coordinates":[98.996830459545691,18.783172030264826]},"properties":{"OBJECTID":167,"idx":2445,"POINT_Y":18.783172029999999,"POINT_X":98.996830459999998,"name":"ถนนลอยเคราะห์ 3","kom":0,"kalae":1,"text_lanna":0,"total_detect":1}},{"type":"Feature","id":168,"geometry":{"type":"Point","coordinates":[98.987014530279069,18.783295340088504]},"properties":{"OBJECTID":168,"idx":2009,"POINT_Y":18.783295339999999,"POINT_X":98.987014529999996,"name":"ถนนพระปกเกล้า ซอย 4","kom":0,"kalae":1,"text_lanna":0,"total_detect":1}},{"type":"Feature","id":169,"geometry":{"type":"Point","coordinates":[98.987319109617886,18.783319050239985]},"properties":{"OBJECTID":169,"idx":2008,"POINT_Y":18.783319049999999,"POINT_X":98.987319110000001,"name":"ถนนพระปกเกล้า ซอย 4","kom":8,"kalae":2,"text_lanna":0,"total_detect":10}},{"type":"Feature","id":170,"geometry":{"type":"Point","coordinates":[98.990189790358301,18.783372870179861]},"properties":{"OBJECTID":170,"idx":2403,"POINT_Y":18.783372870000001,"POINT_X":98.990189790000002,"name":"ถนนพระปกเกล้า ซอย 3","kom":4,"kalae":0,"text_lanna":0,"total_detect":4}},{"type":"Feature","id":171,"geometry":{"type":"Point","coordinates":[98.980257549671208,18.783414269896721]},"properties":{"OBJECTID":171,"idx":1988,"POINT_Y":18.783414270000002,"POINT_X":98.980257550000005,"name":null,"kom":0,"kalae":1,"text_lanna":0,"total_detect":1}},{"type":"Feature","id":172,"geometry":{"type":"Point","coordinates":[98.980071070040594,18.783447819553707]},"properties":{"OBJECTID":172,"idx":1987,"POINT_Y":18.783447819999999,"POINT_X":98.980071069999994,"name":null,"kom":2,"kalae":0,"text_lanna":0,"total_detect":2}},{"type":"Feature","id":173,"geometry":{"type":"Point","coordinates":[98.986739589810242,18.783466240043364]},"properties":{"OBJECTID":173,"idx":4631,"POINT_Y":18.783466239999999,"POINT_X":98.986739589999999,"name":"ถนนพระปกเกล้า ซอย 4ข","kom":2,"kalae":0,"text_lanna":0,"total_detect":2}},{"type":"Feature","id":174,"geometry":{"type":"Point","coordinates":[98.998359220045785,18.783526039940323]},"properties":{"OBJECTID":174,"idx":1287,"POINT_Y":18.783526040000002,"POINT_X":98.998359219999998,"name":"ถนนกำแพงดิน","kom":10,"kalae":0,"text_lanna":0,"total_detect":10}},{"type":"Feature","id":175,"geometry":{"type":"Point","coordinates":[98.997510019532328,18.783529599617314]},"properties":{"OBJECTID":175,"idx":2454,"POINT_Y":18.783529600000001,"POINT_X":98.997510020000007,"name":"ถนนลอยเคราะห์ ซอย 3ก","kom":0,"kalae":2,"text_lanna":0,"total_detect":2}},{"type":"Feature","id":176,"geometry":{"type":"Point","coordinates":[98.994954120416963,18.783578430433089]},"properties":{"OBJECTID":176,"idx":1754,"POINT_Y":18.783578429999999,"POINT_X":98.994954120000003,"name":"ถนนลอยเคาะห์ ซอย 1","kom":32,"kalae":0,"text_lanna":0,"total_detect":32}},{"type":"Feature","id":177,"geometry":{"type":"Point","coordinates":[98.980342850156489,18.783641789839113]},"properties":{"OBJECTID":177,"idx":1990,"POINT_Y":18.783641790000001,"POINT_X":98.98034285,"name":null,"kom":3,"kalae":0,"text_lanna":0,"total_detect":3}},{"type":"Feature","id":178,"geometry":{"type":"Point","coordinates":[98.991727329539586,18.783762890034982]},"properties":{"OBJECTID":178,"idx":4732,"POINT_Y":18.783762889999998,"POINT_X":98.991727330000003,"name":null,"kom":0,"kalae":12,"text_lanna":0,"total_detect":12}},{"type":"Feature","id":179,"geometry":{"type":"Point","coordinates":[98.995971410123559,18.78390031991766]},"properties":{"OBJECTID":179,"idx":1769,"POINT_Y":18.783900320000001,"POINT_X":98.995971409999996,"name":"ถนนลอยเคราะห์2","kom":0,"kalae":1,"text_lanna":0,"total_detect":1}},{"type":"Feature","id":180,"geometry":{"type":"Point","coordinates":[98.979877420232995,18.783946770160615]},"properties":{"OBJECTID":180,"idx":1998,"POINT_Y":18.78394677,"POINT_X":98.979877419999994,"name":"ถนนสามล้าน ซอย 6","kom":0,"kalae":1,"text_lanna":0,"total_detect":1}},{"type":"Feature","id":181,"geometry":{"type":"Point","coordinates":[98.979694560124443,18.78399514016969]},"properties":{"OBJECTID":181,"idx":1997,"POINT_Y":18.783995139999998,"POINT_X":98.979694559999999,"name":"ถนนสามล้าน ซอย 6","kom":1,"kalae":0,"text_lanna":0,"total_detect":1}},{"type":"Feature","id":182,"geometry":{"type":"Point","coordinates":[98.978285770273615,18.784147910149837]},"properties":{"OBJECTID":182,"idx":1992,"POINT_Y":18.784147910000002,"POINT_X":98.978285769999999,"name":"ถนนสามล้าน ซอย 6","kom":0,"kalae":1,"text_lanna":0,"total_detect":1}},{"type":"Feature","id":183,"geometry":{"type":"Point","coordinates":[98.982474610279638,18.784153630006919]},"properties":{"OBJECTID":183,"idx":310,"POINT_Y":18.784153629999999,"POINT_X":98.982474609999997,"name":"ถนนสามล้าน ซอย 5","kom":1,"kalae":0,"text_lanna":0,"total_detect":1}},{"type":"Feature","id":184,"geometry":{"type":"Point","coordinates":[98.996061710205268,18.784155380294735]},"properties":{"OBJECTID":184,"idx":1770,"POINT_Y":18.784155380000001,"POINT_X":98.996061710000006,"name":"ถนนลอยเคราะห์2","kom":1,"kalae":0,"text_lanna":0,"total_detect":1}},{"type":"Feature","id":185,"geometry":{"type":"Point","coordinates":[98.984862230250286,18.784175339886065]},"properties":{"OBJECTID":185,"idx":4647,"POINT_Y":18.784175340000001,"POINT_X":98.984862230000005,"name":"ถนนสามล้าน ซอย 7 ก","kom":2,"kalae":0,"text_lanna":0,"total_detect":2}},{"type":"Feature","id":186,"geometry":{"type":"Point","coordinates":[98.998410420415397,18.784271080221799]},"properties":{"OBJECTID":186,"idx":1284,"POINT_Y":18.78427108,"POINT_X":98.998410419999999,"name":"ถนนกำแพงดิน","kom":0,"kalae":2,"text_lanna":0,"total_detect":2}},{"type":"Feature","id":187,"geometry":{"type":"Point","coordinates":[98.988897830382157,18.784378939794003]},"properties":{"OBJECTID":187,"idx":4668,"POINT_Y":18.78437894,"POINT_X":98.988897829999999,"name":"ถนนพระปกเกล้า ซอย 6","kom":0,"kalae":1,"text_lanna":0,"total_detect":1}},{"type":"Feature","id":188,"geometry":{"type":"Point","coordinates":[98.989167420405479,18.784398460302359]},"properties":{"OBJECTID":188,"idx":4669,"POINT_Y":18.784398459999998,"POINT_X":98.989167420000001,"name":"ถนนพระปกเกล้า ซอย 6","kom":16,"kalae":0,"text_lanna":0,"total_detect":16}},{"type":"Feature","id":189,"geometry":{"type":"Point","coordinates":[98.993916650438152,18.784423339737881]},"properties":{"OBJECTID":189,"idx":2407,"POINT_Y":18.78442334,"POINT_X":98.993916650000003,"name":null,"kom":0,"kalae":2,"text_lanna":0,"total_detect":2}},{"type":"Feature","id":190,"geometry":{"type":"Point","coordinates":[98.990319000360643,18.784479139744999]},"properties":{"OBJECTID":190,"idx":4674,"POINT_Y":18.784479139999998,"POINT_X":98.990319,"name":"ถนนพระปกเกล้า ซอย 6","kom":0,"kalae":0,"text_lanna":1,"total_detect":1}},{"type":"Feature","id":191,"geometry":{"type":"Point","coordinates":[98.994992139852542,18.784481969761035]},"properties":{"OBJECTID":191,"idx":1752,"POINT_Y":18.784481970000002,"POINT_X":98.994992139999994,"name":"ถนนลอยเคาะห์ ซอย 1","kom":0,"kalae":1,"text_lanna":0,"total_detect":1}},{"type":"Feature","id":192,"geometry":{"type":"Point","coordinates":[98.980288420463452,18.784594940404748]},"properties":{"OBJECTID":192,"idx":2253,"POINT_Y":18.784594940000002,"POINT_X":98.980288419999994,"name":"ถนนสามล้าน ซอย 3","kom":0,"kalae":1,"text_lanna":0,"total_detect":1}},{"type":"Feature","id":193,"geometry":{"type":"Point","coordinates":[98.998021299853463,18.785235030359114]},"properties":{"OBJECTID":193,"idx":3267,"POINT_Y":18.785235029999999,"POINT_X":98.998021300000005,"name":"ถนนกำแพงดิน ซอย2","kom":8,"kalae":0,"text_lanna":0,"total_detect":8}},{"type":"Feature","id":194,"geometry":{"type":"Point","coordinates":[98.991860179594696,18.785340160390845]},"properties":{"OBJECTID":194,"idx":4658,"POINT_Y":18.785340160000001,"POINT_X":98.991860180000003,"name":"ถนนราชมรรคา ซอย 2","kom":0,"kalae":1,"text_lanna":0,"total_detect":1}},{"type":"Feature","id":195,"geometry":{"type":"Point","coordinates":[98.995088339870875,18.785396900087164]},"properties":{"OBJECTID":195,"idx":3258,"POINT_Y":18.785396899999999,"POINT_X":98.995088339999995,"name":"ถนนคชสาร ซอย 3","kom":4,"kalae":2,"text_lanna":0,"total_detect":6}},{"type":"Feature","id":196,"geometry":{"type":"Point","coordinates":[98.994167460448736,18.785681960417929]},"properties":{"OBJECTID":196,"idx":6920,"POINT_Y":18.785681960000002,"POINT_X":98.99416746,"name":"ถนนคชสาร ซอย 2","kom":0,"kalae":0,"text_lanna":1,"total_detect":1}},{"type":"Feature","id":197,"geometry":{"type":"Point","coordinates":[98.982627150052551,18.78574732961264]},"properties":{"OBJECTID":197,"idx":3365,"POINT_Y":18.78574733,"POINT_X":98.982627149999999,"name":"ถนนราชมรรคา","kom":0,"kalae":2,"text_lanna":0,"total_detect":2}},{"type":"Feature","id":198,"geometry":{"type":"Point","coordinates":[98.985800270308076,18.785748740154965]},"properties":{"OBJECTID":198,"idx":3378,"POINT_Y":18.785748739999999,"POINT_X":98.985800269999999,"name":"ถนนราชมรรคา","kom":0,"kalae":1,"text_lanna":0,"total_detect":1}},{"type":"Feature","id":199,"geometry":{"type":"Point","coordinates":[98.983534679695751,18.785748800029552]},"properties":{"OBJECTID":199,"idx":3369,"POINT_Y":18.7857488,"POINT_X":98.983534680000005,"name":"ถนนราชมรรคา","kom":0,"kalae":2,"text_lanna":0,"total_detect":2}},{"type":"Feature","id":200,"geometry":{"type":"Point","coordinates":[98.983981060091111,18.785749550123558]},"properties":{"OBJECTID":200,"idx":3371,"POINT_Y":18.785749549999998,"POINT_X":98.983981060000005,"name":"ถนนราชมรรคา","kom":0,"kalae":0,"text_lanna":2,"total_detect":2}},{"type":"Feature","id":201,"geometry":{"type":"Point","coordinates":[98.984568579723302,18.785750509697099]},"properties":{"OBJECTID":201,"idx":3373,"POINT_Y":18.78575051,"POINT_X":98.984568580000001,"name":"ถนนราชมรรคา","kom":0,"kalae":1,"text_lanna":0,"total_detect":1}},{"type":"Feature","id":202,"geometry":{"type":"Point","coordinates":[98.980912809600028,18.785766750137924]},"properties":{"OBJECTID":202,"idx":3357,"POINT_Y":18.785766750000001,"POINT_X":98.980912810000007,"name":"ถนนราชมรรคา","kom":11,"kalae":0,"text_lanna":0,"total_detect":11}},{"type":"Feature","id":203,"geometry":{"type":"Point","coordinates":[98.980723060081203,18.785769780038578]},"properties":{"OBJECTID":203,"idx":3356,"POINT_Y":18.785769779999999,"POINT_X":98.980723060000003,"name":"ถนนราชมรรคา","kom":0,"kalae":2,"text_lanna":0,"total_detect":2}},{"type":"Feature","id":204,"geometry":{"type":"Point","coordinates":[98.980498259582362,18.785773360113431]},"properties":{"OBJECTID":204,"idx":3355,"POINT_Y":18.78577336,"POINT_X":98.980498260000005,"name":"ถนนราชมรรคา","kom":1,"kalae":0,"text_lanna":0,"total_detect":1}},{"type":"Feature","id":205,"geometry":{"type":"Point","coordinates":[98.996851790372489,18.786053410076658]},"properties":{"OBJECTID":205,"idx":1605,"POINT_Y":18.786053410000001,"POINT_X":98.996851789999994,"name":"ถนน ท่าแพ ซอย 3","kom":1,"kalae":0,"text_lanna":0,"total_detect":1}},{"type":"Feature","id":206,"geometry":{"type":"Point","coordinates":[98.984025679925253,18.786110860005198]},"properties":{"OBJECTID":206,"idx":618,"POINT_Y":18.786110860000001,"POINT_X":98.984025680000002,"name":null,"kom":0,"kalae":2,"text_lanna":0,"total_detect":2}},{"type":"Feature","id":207,"geometry":{"type":"Point","coordinates":[98.984947980422831,18.786112389892569]},"properties":{"OBJECTID":207,"idx":271,"POINT_Y":18.78611239,"POINT_X":98.984947980000001,"name":"ถนนจ่าบ้าน","kom":0,"kalae":1,"text_lanna":0,"total_detect":1}},{"type":"Feature","id":208,"geometry":{"type":"Point","coordinates":[98.995119759620025,18.786141080191008]},"properties":{"OBJECTID":208,"idx":3251,"POINT_Y":18.78614108,"POINT_X":98.995119759999994,"name":"ถนน ท่าแพ ซอย 5","kom":0,"kalae":2,"text_lanna":0,"total_detect":2}},{"type":"Feature","id":209,"geometry":{"type":"Point","coordinates":[98.996898149892502,18.786241800320635]},"properties":{"OBJECTID":209,"idx":1604,"POINT_Y":18.786241799999999,"POINT_X":98.996898150000007,"name":"ถนน ท่าแพ ซอย 3","kom":0,"kalae":0,"text_lanna":1,"total_detect":1}},{"type":"Feature","id":210,"geometry":{"type":"Point","coordinates":[98.984954629554679,18.786293039838796]},"properties":{"OBJECTID":210,"idx":272,"POINT_Y":18.78629304,"POINT_X":98.984954630000004,"name":"ถนนจ่าบ้าน","kom":0,"kalae":0,"text_lanna":1,"total_detect":1}},{"type":"Feature","id":211,"geometry":{"type":"Point","coordinates":[98.979585019611221,18.786383630330342]},"properties":{"OBJECTID":211,"idx":639,"POINT_Y":18.78638363,"POINT_X":98.979585020000002,"name":"ถนนอารักษ์ ซอย 7","kom":0,"kalae":2,"text_lanna":0,"total_detect":2}},{"type":"Feature","id":212,"geometry":{"type":"Point","coordinates":[98.980154519796088,18.786399160056071]},"properties":{"OBJECTID":212,"idx":642,"POINT_Y":18.786399159999998,"POINT_X":98.980154519999999,"name":"ถนนอารักษ์ ซอย 7","kom":7,"kalae":0,"text_lanna":0,"total_detect":7}},{"type":"Feature","id":213,"geometry":{"type":"Point","coordinates":[98.979268900082019,18.786404920422633]},"properties":{"OBJECTID":213,"idx":638,"POINT_Y":18.786404919999999,"POINT_X":98.979268899999994,"name":"ถนนอารักษ์ ซอย 7","kom":0,"kalae":1,"text_lanna":0,"total_detect":1}},{"type":"Feature","id":214,"geometry":{"type":"Point","coordinates":[98.980513900156353,18.786411739775069]},"properties":{"OBJECTID":214,"idx":643,"POINT_Y":18.786411739999998,"POINT_X":98.980513900000005,"name":"ถนนอารักษ์ ซอย 7","kom":1,"kalae":0,"text_lanna":0,"total_detect":1}},{"type":"Feature","id":215,"geometry":{"type":"Point","coordinates":[98.980703500168588,18.786419680266597]},"properties":{"OBJECTID":215,"idx":644,"POINT_Y":18.786419680000002,"POINT_X":98.980703500000004,"name":"ถนนอารักษ์ ซอย 7","kom":1,"kalae":0,"text_lanna":0,"total_detect":1}},{"type":"Feature","id":216,"geometry":{"type":"Point","coordinates":[98.978932299809401,18.786427970060167]},"properties":{"OBJECTID":216,"idx":637,"POINT_Y":18.786427969999998,"POINT_X":98.978932299999997,"name":"ถนนอารักษ์ ซอย 7","kom":0,"kalae":0,"text_lanna":1,"total_detect":1}},{"type":"Feature","id":217,"geometry":{"type":"Point","coordinates":[98.978743030272383,18.78644131023848]},"properties":{"OBJECTID":217,"idx":636,"POINT_Y":18.786441310000001,"POINT_X":98.978743030000004,"name":"ถนนอารักษ์ ซอย 7","kom":6,"kalae":1,"text_lanna":0,"total_detect":7}},{"type":"Feature","id":218,"geometry":{"type":"Point","coordinates":[98.992160430200116,18.786499960040064]},"properties":{"OBJECTID":218,"idx":8926,"POINT_Y":18.78649996,"POINT_X":98.992160429999998,"name":"ถนนมูลเมือง ซอย 3","kom":6,"kalae":0,"text_lanna":0,"total_detect":6}},{"type":"Feature","id":219,"geometry":{"type":"Point","coordinates":[98.994014500218313,18.786527289648223]},"properties":{"OBJECTID":219,"idx":6921,"POINT_Y":18.786527289999999,"POINT_X":98.994014500000006,"name":"ถนน ท่าแพ ซอย 6","kom":1,"kalae":0,"text_lanna":1,"total_detect":2}},{"type":"Feature","id":220,"geometry":{"type":"Point","coordinates":[98.981308070301665,18.786592810158808]},"properties":{"OBJECTID":220,"idx":2418,"POINT_Y":18.786592809999998,"POINT_X":98.981308069999997,"name":"ถนนสามล้าน ซอย 2","kom":4,"kalae":0,"text_lanna":0,"total_detect":4}},{"type":"Feature","id":221,"geometry":{"type":"Point","coordinates":[98.992648200196868,18.786596269587431]},"properties":{"OBJECTID":221,"idx":8924,"POINT_Y":18.78659627,"POINT_X":98.992648200000005,"name":"ถนนมูลเมือง ซอย 3","kom":3,"kalae":0,"text_lanna":0,"total_detect":3}},{"type":"Feature","id":222,"geometry":{"type":"Point","coordinates":[98.981122569923301,18.78661412002749]},"properties":{"OBJECTID":222,"idx":630,"POINT_Y":18.786614119999999,"POINT_X":98.981122569999997,"name":"ถนน ราชมรรคา 8","kom":0,"kalae":1,"text_lanna":0,"total_detect":1}},{"type":"Feature","id":223,"geometry":{"type":"Point","coordinates":[98.998300600094538,18.786627909914849]},"properties":{"OBJECTID":223,"idx":3260,"POINT_Y":18.78662791,"POINT_X":98.998300599999993,"name":"ถนน ท่าแพ ซอย 1ก","kom":2,"kalae":0,"text_lanna":0,"total_detect":2}},{"type":"Feature","id":224,"geometry":{"type":"Point","coordinates":[98.989204499727094,18.786752929634879]},"properties":{"OBJECTID":224,"idx":1979,"POINT_Y":18.786752929999999,"POINT_X":98.9892045,"name":"ถนนพระปกเกล้า ซอย 8","kom":0,"kalae":0,"text_lanna":1,"total_detect":1}},{"type":"Feature","id":225,"geometry":{"type":"Point","coordinates":[98.99515981012506,18.786882830164856]},"properties":{"OBJECTID":225,"idx":3248,"POINT_Y":18.78688283,"POINT_X":98.995159810000004,"name":"ถนน ท่าแพ ซอย 5","kom":1,"kalae":0,"text_lanna":0,"total_detect":1}},{"type":"Feature","id":226,"geometry":{"type":"Point","coordinates":[98.983552770342925,18.787082089675771]},"properties":{"OBJECTID":226,"idx":4725,"POINT_Y":18.787082089999998,"POINT_X":98.983552770000003,"name":null,"kom":2,"kalae":0,"text_lanna":0,"total_detect":2}},{"type":"Feature","id":227,"geometry":{"type":"Point","coordinates":[98.989945079799853,18.787116180376252]},"properties":{"OBJECTID":227,"idx":4708,"POINT_Y":18.787116180000002,"POINT_X":98.989945079999998,"name":"ถนนพระปกเกล้า ซอย 9","kom":0,"kalae":1,"text_lanna":0,"total_detect":1}},{"type":"Feature","id":228,"geometry":{"type":"Point","coordinates":[98.984325469657819,18.787215279749581]},"properties":{"OBJECTID":228,"idx":615,"POINT_Y":18.787215280000002,"POINT_X":98.984325470000002,"name":null,"kom":12,"kalae":0,"text_lanna":0,"total_detect":12}},{"type":"Feature","id":229,"geometry":{"type":"Point","coordinates":[98.992033149735008,18.787316940393758]},"properties":{"OBJECTID":229,"idx":8921,"POINT_Y":18.78731694,"POINT_X":98.992033149999997,"name":"ถนนราชดำเนิน ซอย 2","kom":1,"kalae":0,"text_lanna":0,"total_detect":1}},{"type":"Feature","id":230,"geometry":{"type":"Point","coordinates":[98.977128219997837,18.787380649972349]},"properties":{"OBJECTID":230,"idx":7286,"POINT_Y":18.787380649999999,"POINT_X":98.977128219999997,"name":null,"kom":0,"kalae":2,"text_lanna":0,"total_detect":2}},{"type":"Feature","id":231,"geometry":{"type":"Point","coordinates":[98.995125720087358,18.78741586972162]},"properties":{"OBJECTID":231,"idx":3246,"POINT_Y":18.78741587,"POINT_X":98.995125720000004,"name":"ถนน ท่าแพ ซอย 5","kom":0,"kalae":2,"text_lanna":0,"total_detect":2}},{"type":"Feature","id":232,"geometry":{"type":"Point","coordinates":[98.981248950317919,18.787524199705469]},"properties":{"OBJECTID":232,"idx":634,"POINT_Y":18.7875242,"POINT_X":98.981248949999994,"name":"ถนน ราชมรรคา 8","kom":0,"kalae":2,"text_lanna":0,"total_detect":2}},{"type":"Feature","id":233,"geometry":{"type":"Point","coordinates":[98.988508989820602,18.787576880028006]},"properties":{"OBJECTID":233,"idx":4712,"POINT_Y":18.78757688,"POINT_X":98.98850899,"name":"ถนนพระปกเกล้า ซอย 9","kom":2,"kalae":0,"text_lanna":0,"total_detect":2}},{"type":"Feature","id":234,"geometry":{"type":"Point","coordinates":[98.981285820292555,18.787682299628724]},"properties":{"OBJECTID":234,"idx":8935,"POINT_Y":18.7876823,"POINT_X":98.981285819999997,"name":"ถนนสามล้าน ซอย1","kom":0,"kalae":1,"text_lanna":0,"total_detect":1}},{"type":"Feature","id":235,"geometry":{"type":"Point","coordinates":[98.980360120348962,18.787741939629978]},"properties":{"OBJECTID":235,"idx":8939,"POINT_Y":18.78774194,"POINT_X":98.98036012,"name":"ถนนสามล้าน ซอย1","kom":0,"kalae":0,"text_lanna":1,"total_detect":1}},{"type":"Feature","id":236,"geometry":{"type":"Point","coordinates":[98.980097680031875,18.787754120234972]},"properties":{"OBJECTID":236,"idx":8940,"POINT_Y":18.787754119999999,"POINT_X":98.98009768,"name":"ถนนสามล้าน ซอย1","kom":0,"kalae":1,"text_lanna":0,"total_detect":1}},{"type":"Feature","id":237,"geometry":{"type":"Point","coordinates":[98.982541479607136,18.787799610131465]},"properties":{"OBJECTID":237,"idx":623,"POINT_Y":18.78779961,"POINT_X":98.982541479999995,"name":null,"kom":0,"kalae":0,"text_lanna":1,"total_detect":1}},{"type":"Feature","id":238,"geometry":{"type":"Point","coordinates":[98.980300769786936,18.787931159714535]},"properties":{"OBJECTID":238,"idx":2416,"POINT_Y":18.787931159999999,"POINT_X":98.980300769999999,"name":"ถนนราชมรรคา ซอย 9","kom":6,"kalae":0,"text_lanna":0,"total_detect":6}},{"type":"Feature","id":239,"geometry":{"type":"Point","coordinates":[98.98330894007357,18.788014069921086]},"properties":{"OBJECTID":239,"idx":625,"POINT_Y":18.788014069999999,"POINT_X":98.983308940000001,"name":null,"kom":0,"kalae":1,"text_lanna":0,"total_detect":1}},{"type":"Feature","id":240,"geometry":{"type":"Point","coordinates":[98.986483120124433,18.788252289758343]},"properties":{"OBJECTID":240,"idx":286,"POINT_Y":18.788252289999999,"POINT_X":98.986483120000003,"name":"ถนนราชดำเนิน","kom":0,"kalae":0,"text_lanna":1,"total_detect":1}},{"type":"Feature","id":241,"geometry":{"type":"Point","coordinates":[98.986080650152815,18.788277149648014]},"properties":{"OBJECTID":241,"idx":284,"POINT_Y":18.788277149999999,"POINT_X":98.986080650000005,"name":"ถนนราชดำเนิน","kom":0,"kalae":0,"text_lanna":1,"total_detect":1}},{"type":"Feature","id":242,"geometry":{"type":"Point","coordinates":[98.985697400344932,18.788304589557246]},"properties":{"OBJECTID":242,"idx":282,"POINT_Y":18.788304589999999,"POINT_X":98.985697400000006,"name":"ถนนราชดำเนิน","kom":0,"kalae":1,"text_lanna":0,"total_detect":1}},{"type":"Feature","id":243,"geometry":{"type":"Point","coordinates":[98.985315310227634,18.788318470126722]},"properties":{"OBJECTID":243,"idx":280,"POINT_Y":18.78831847,"POINT_X":98.985315310000004,"name":"ถนนจ่าบ้าน","kom":0,"kalae":1,"text_lanna":0,"total_detect":1}},{"type":"Feature","id":244,"geometry":{"type":"Point","coordinates":[98.980337819928323,18.788565959783838]},"properties":{"OBJECTID":244,"idx":2413,"POINT_Y":18.78856596,"POINT_X":98.980337820000003,"name":"ถนนราชมรรคา ซอย 9","kom":0,"kalae":1,"text_lanna":0,"total_detect":1}},{"type":"Feature","id":245,"geometry":{"type":"Point","coordinates":[98.991067729983314,18.788995189798882]},"properties":{"OBJECTID":245,"idx":2019,"POINT_Y":18.788995190000001,"POINT_X":98.991067729999997,"name":"ถนนราชดำเนิน ซอย 5","kom":4,"kalae":0,"text_lanna":0,"total_detect":4}},{"type":"Feature","id":246,"geometry":{"type":"Point","coordinates":[98.991110080026246,18.789171390016406]},"properties":{"OBJECTID":246,"idx":2020,"POINT_Y":18.78917139,"POINT_X":98.991110079999999,"name":"ถนนราชดำเนิน ซอย 5","kom":4,"kalae":0,"text_lanna":0,"total_detect":4}},{"type":"Feature","id":247,"geometry":{"type":"Point","coordinates":[98.996020340285327,18.789190969863377]},"properties":{"OBJECTID":247,"idx":1613,"POINT_Y":18.78919097,"POINT_X":98.996020340000001,"name":"ถนนช้างม่อย ซอย 2","kom":2,"kalae":2,"text_lanna":0,"total_detect":4}},{"type":"Feature","id":248,"geometry":{"type":"Point","coordinates":[98.990030350420952,18.789232850097608]},"properties":{"OBJECTID":248,"idx":4706,"POINT_Y":18.789232850000001,"POINT_X":98.990030349999998,"name":"ถนนพระปกเกล้า ซอย 12","kom":0,"kalae":2,"text_lanna":0,"total_detect":2}},{"type":"Feature","id":249,"geometry":{"type":"Point","coordinates":[98.980379250184328,18.789253610229622]},"properties":{"OBJECTID":249,"idx":8841,"POINT_Y":18.789253609999999,"POINT_X":98.980379249999999,"name":"ถนนอินทวโรรส","kom":0,"kalae":1,"text_lanna":1,"total_detect":2}},{"type":"Feature","id":250,"geometry":{"type":"Point","coordinates":[98.99425190046145,18.789313229967931]},"properties":{"OBJECTID":250,"idx":986,"POINT_Y":18.789313230000001,"POINT_X":98.994251899999995,"name":"ถนนช้างม่อยเก่า","kom":0,"kalae":0,"text_lanna":1,"total_detect":1}},{"type":"Feature","id":251,"geometry":{"type":"Point","coordinates":[98.998099169618797,18.789344660284932]},"properties":{"OBJECTID":251,"idx":3281,"POINT_Y":18.789344660000001,"POINT_X":98.998099170000003,"name":null,"kom":1,"kalae":0,"text_lanna":0,"total_detect":1}},{"type":"Feature","id":252,"geometry":{"type":"Point","coordinates":[98.982667399905097,18.789496439766516]},"properties":{"OBJECTID":252,"idx":8849,"POINT_Y":18.789496440000001,"POINT_X":98.982667399999997,"name":"ถนนอินทวโรรส","kom":1,"kalae":0,"text_lanna":0,"total_detect":1}},{"type":"Feature","id":253,"geometry":{"type":"Point","coordinates":[98.984391859814792,18.789575160022764]},"properties":{"OBJECTID":253,"idx":614,"POINT_Y":18.789575159999998,"POINT_X":98.984391860000002,"name":"ถนนราชดำเนิน ซอย7","kom":0,"kalae":1,"text_lanna":0,"total_detect":1}},{"type":"Feature","id":254,"geometry":{"type":"Point","coordinates":[98.985360059834107,18.789722509936997]},"properties":{"OBJECTID":254,"idx":8859,"POINT_Y":18.789722510000001,"POINT_X":98.985360060000005,"name":"ถนนอินทวโรรส","kom":0,"kalae":1,"text_lanna":0,"total_detect":1}},{"type":"Feature","id":255,"geometry":{"type":"Point","coordinates":[98.988224259745692,18.789724879771345]},"properties":{"OBJECTID":255,"idx":4699,"POINT_Y":18.789724880000001,"POINT_X":98.988224259999996,"name":"ถนนพระปกเกล้า ซอย 12","kom":0,"kalae":1,"text_lanna":0,"total_detect":1}},{"type":"Feature","id":256,"geometry":{"type":"Point","coordinates":[98.988034880125099,18.789736739907269]},"properties":{"OBJECTID":256,"idx":4698,"POINT_Y":18.789736739999999,"POINT_X":98.988034880000001,"name":"ถนนพระปกเกล้า ซอย 12","kom":8,"kalae":0,"text_lanna":0,"total_detect":8}},{"type":"Feature","id":257,"geometry":{"type":"Point","coordinates":[98.990123130057214,18.789773969782324]},"properties":{"OBJECTID":257,"idx":2032,"POINT_Y":18.789773969999999,"POINT_X":98.990123130000001,"name":"ถนนราชภาคินัย","kom":0,"kalae":1,"text_lanna":0,"total_detect":1}},{"type":"Feature","id":258,"geometry":{"type":"Point","coordinates":[98.9944793995613,18.789828680363325]},"properties":{"OBJECTID":258,"idx":988,"POINT_Y":18.789828679999999,"POINT_X":98.994479400000003,"name":"ถนนช้างม่อยเก่า","kom":0,"kalae":0,"text_lanna":2,"total_detect":2}},{"type":"Feature","id":259,"geometry":{"type":"Point","coordinates":[98.99807433020186,18.789860779597067]},"properties":{"OBJECTID":259,"idx":1568,"POINT_Y":18.789860780000001,"POINT_X":98.998074329999994,"name":"Sittiwong","kom":0,"kalae":1,"text_lanna":0,"total_detect":1}},{"type":"Feature","id":260,"geometry":{"type":"Point","coordinates":[98.99455279999556,18.78999538007108]},"properties":{"OBJECTID":260,"idx":989,"POINT_Y":18.789995380000001,"POINT_X":98.994552799999994,"name":"ถนนช้างม่อยเก่า","kom":0,"kalae":1,"text_lanna":0,"total_detect":1}},{"type":"Feature","id":261,"geometry":{"type":"Point","coordinates":[98.997767029767601,18.790092169654745]},"properties":{"OBJECTID":261,"idx":1570,"POINT_Y":18.790092170000001,"POINT_X":98.997767030000006,"name":"Sittiwong","kom":2,"kalae":1,"text_lanna":0,"total_detect":3}},{"type":"Feature","id":262,"geometry":{"type":"Point","coordinates":[98.998749579766411,18.790141560039423]},"properties":{"OBJECTID":262,"idx":3172,"POINT_Y":18.790141559999999,"POINT_X":98.998749579999995,"name":null,"kom":0,"kalae":0,"text_lanna":4,"total_detect":4}},{"type":"Feature","id":263,"geometry":{"type":"Point","coordinates":[98.981348589527926,18.79023474987719]},"properties":{"OBJECTID":263,"idx":2994,"POINT_Y":18.79023475,"POINT_X":98.981348589999996,"name":"ถนนอินทวโรรส ซอย 3","kom":4,"kalae":0,"text_lanna":1,"total_detect":5}},{"type":"Feature","id":264,"geometry":{"type":"Point","coordinates":[98.99012873965745,18.790450289820264]},"properties":{"OBJECTID":264,"idx":2035,"POINT_Y":18.790450289999999,"POINT_X":98.990128740000003,"name":"ถนนราชภาคินัย","kom":0,"kalae":1,"text_lanna":0,"total_detect":1}},{"type":"Feature","id":265,"geometry":{"type":"Point","coordinates":[98.990827060314373,18.7906100899996]},"properties":{"OBJECTID":265,"idx":302,"POINT_Y":18.790610090000001,"POINT_X":98.990827060000001,"name":"ถนนราชวิถี","kom":1,"kalae":0,"text_lanna":1,"total_detect":2}},{"type":"Feature","id":266,"geometry":{"type":"Point","coordinates":[98.990140880313064,18.790630680403702]},"properties":{"OBJECTID":266,"idx":2036,"POINT_Y":18.79063068,"POINT_X":98.990140879999998,"name":"ถนนราชภาคินัย","kom":0,"kalae":1,"text_lanna":0,"total_detect":1}},{"type":"Feature","id":267,"geometry":{"type":"Point","coordinates":[98.989223540221658,18.790758919848255]},"properties":{"OBJECTID":267,"idx":297,"POINT_Y":18.790758919999998,"POINT_X":98.989223539999998,"name":"ถนนราชวิถี","kom":0,"kalae":2,"text_lanna":0,"total_detect":2}},{"type":"Feature","id":268,"geometry":{"type":"Point","coordinates":[98.993190479919818,18.79076422025544]},"properties":{"OBJECTID":268,"idx":1968,"POINT_Y":18.79076422,"POINT_X":98.993190479999996,"name":null,"kom":1,"kalae":0,"text_lanna":1,"total_detect":2}},{"type":"Feature","id":269,"geometry":{"type":"Point","coordinates":[98.994756479925357,18.790810860202388]},"properties":{"OBJECTID":269,"idx":1011,"POINT_Y":18.790810860000001,"POINT_X":98.994756480000007,"name":"ถนนช้างม่อยเก่า ซอย 1","kom":0,"kalae":2,"text_lanna":0,"total_detect":2}},{"type":"Feature","id":270,"geometry":{"type":"Point","coordinates":[98.991374890033143,18.790860420440339]},"properties":{"OBJECTID":270,"idx":221,"POINT_Y":18.790860420000001,"POINT_X":98.991374890000003,"name":"ถนนราชวิถี ซอย 2","kom":0,"kalae":1,"text_lanna":1,"total_detect":2}},{"type":"Feature","id":271,"geometry":{"type":"Point","coordinates":[98.98115351013216,18.791119930043635]},"properties":{"OBJECTID":271,"idx":2993,"POINT_Y":18.791119930000001,"POINT_X":98.981153509999999,"name":"ถนนอินทวโรรส ซอย 3","kom":0,"kalae":4,"text_lanna":0,"total_detect":4}},{"type":"Feature","id":272,"geometry":{"type":"Point","coordinates":[98.981142199536421,18.791300360399752]},"properties":{"OBJECTID":272,"idx":2992,"POINT_Y":18.791300360000001,"POINT_X":98.981142199999994,"name":"ถนนอินทวโรรส ซอย 3","kom":0,"kalae":2,"text_lanna":0,"total_detect":2}},{"type":"Feature","id":273,"geometry":{"type":"Point","coordinates":[98.990127219797117,18.791323770067287]},"properties":{"OBJECTID":273,"idx":2038,"POINT_Y":18.791323770000002,"POINT_X":98.990127220000005,"name":"ถนนราชภาคินัย","kom":0,"kalae":1,"text_lanna":0,"total_detect":1}},{"type":"Feature","id":274,"geometry":{"type":"Point","coordinates":[98.979382639813636,18.791466929799299]},"properties":{"OBJECTID":274,"idx":655,"POINT_Y":18.791466929999999,"POINT_X":98.979382639999997,"name":"ถนนสิงหราช ซอย 2","kom":0,"kalae":0,"text_lanna":2,"total_detect":2}},{"type":"Feature","id":275,"geometry":{"type":"Point","coordinates":[98.979192919755619,18.791471500005297]},"properties":{"OBJECTID":275,"idx":656,"POINT_Y":18.7914715,"POINT_X":98.979192920000003,"name":"ถนนสิงหราช ซอย 2","kom":0,"kalae":1,"text_lanna":0,"total_detect":1}},{"type":"Feature","id":276,"geometry":{"type":"Point","coordinates":[98.980941160382898,18.791485050021919]},"properties":{"OBJECTID":276,"idx":647,"POINT_Y":18.791485049999999,"POINT_X":98.98094116,"name":"ถนนสิงหราช ซอย 2","kom":0,"kalae":2,"text_lanna":0,"total_detect":2}},{"type":"Feature","id":277,"geometry":{"type":"Point","coordinates":[98.992261940272229,18.791512200428837]},"properties":{"OBJECTID":277,"idx":1971,"POINT_Y":18.7915122,"POINT_X":98.992261940000006,"name":"ถนนราชวิถี ซอย 1","kom":10,"kalae":0,"text_lanna":0,"total_detect":10}},{"type":"Feature","id":278,"geometry":{"type":"Point","coordinates":[98.996196539888828,18.791592659798209]},"properties":{"OBJECTID":278,"idx":996,"POINT_Y":18.791592659999999,"POINT_X":98.99619654,"name":"ถนนสิทธิวงศ์","kom":1,"kalae":0,"text_lanna":0,"total_detect":1}},{"type":"Feature","id":279,"geometry":{"type":"Point","coordinates":[98.991617289798455,18.791674769637421]},"properties":{"OBJECTID":279,"idx":1969,"POINT_Y":18.79167477,"POINT_X":98.991617289999994,"name":"ถนนราชวิถี ซอย 1","kom":0,"kalae":1,"text_lanna":0,"total_detect":1}},{"type":"Feature","id":280,"geometry":{"type":"Point","coordinates":[98.995077410300098,18.791766810026267]},"properties":{"OBJECTID":280,"idx":205,"POINT_Y":18.791766809999999,"POINT_X":98.995077409999993,"name":"ถนนช้างม่อยเก่า ซอย3","kom":0,"kalae":3,"text_lanna":0,"total_detect":3}},{"type":"Feature","id":281,"geometry":{"type":"Point","coordinates":[98.991469779634031,18.79190987999986]},"properties":{"OBJECTID":281,"idx":225,"POINT_Y":18.791909879999999,"POINT_X":98.991469780000003,"name":"ถนนราชวิถี ซอย 2","kom":0,"kalae":2,"text_lanna":0,"total_detect":2}},{"type":"Feature","id":282,"geometry":{"type":"Point","coordinates":[98.978918089991723,18.792008759856049]},"properties":{"OBJECTID":282,"idx":2194,"POINT_Y":18.792008760000002,"POINT_X":98.978918089999993,"name":"ถนนอารักษ์ 3","kom":0,"kalae":1,"text_lanna":0,"total_detect":1}},{"type":"Feature","id":283,"geometry":{"type":"Point","coordinates":[98.993783270254184,18.792086279748283]},"properties":{"OBJECTID":283,"idx":4474,"POINT_Y":18.792086279999999,"POINT_X":98.993783269999994,"name":"ถนนชัยภูมิ","kom":0,"kalae":0,"text_lanna":1,"total_detect":1}},{"type":"Feature","id":284,"geometry":{"type":"Point","coordinates":[98.995733199955382,18.792221329793684]},"properties":{"OBJECTID":284,"idx":1000,"POINT_Y":18.79222133,"POINT_X":98.995733200000004,"name":"ถนนสิทธิวงศ์","kom":3,"kalae":9,"text_lanna":0,"total_detect":12}},{"type":"Feature","id":285,"geometry":{"type":"Point","coordinates":[98.993792080307145,18.792266839865515]},"properties":{"OBJECTID":285,"idx":4473,"POINT_Y":18.79226684,"POINT_X":98.993792080000006,"name":"ถนนชัยภูมิ","kom":0,"kalae":0,"text_lanna":1,"total_detect":1}},{"type":"Feature","id":286,"geometry":{"type":"Point","coordinates":[98.99557092958571,18.792375720249503]},"properties":{"OBJECTID":286,"idx":1001,"POINT_Y":18.792375719999999,"POINT_X":98.99557093,"name":"ถนนสิทธิวงศ์","kom":0,"kalae":1,"text_lanna":0,"total_detect":1}},{"type":"Feature","id":287,"geometry":{"type":"Point","coordinates":[98.990442729816436,18.792791890121048]},"properties":{"OBJECTID":287,"idx":4613,"POINT_Y":18.79279189,"POINT_X":98.990442729999998,"name":"ถนนมูลเมือง ซอย 7","kom":0,"kalae":2,"text_lanna":0,"total_detect":2}},{"type":"Feature","id":288,"geometry":{"type":"Point","coordinates":[98.994944320091093,18.793058469716957]},"properties":{"OBJECTID":288,"idx":1003,"POINT_Y":18.793058469999998,"POINT_X":98.994944320000002,"name":"ถนนสิทธิวงศ์","kom":4,"kalae":0,"text_lanna":0,"total_detect":4}},{"type":"Feature","id":289,"geometry":{"type":"Point","coordinates":[98.986837269979532,18.793085179782985]},"properties":{"OBJECTID":289,"idx":265,"POINT_Y":18.793085179999999,"POINT_X":98.986837269999995,"name":"ถนนเวียงแก้ว","kom":0,"kalae":0,"text_lanna":2,"total_detect":2}},{"type":"Feature","id":290,"geometry":{"type":"Point","coordinates":[98.985480449527444,18.793095620103522]},"properties":{"OBJECTID":290,"idx":258,"POINT_Y":18.793095619999999,"POINT_X":98.985480449999997,"name":"ถนนเวียงแก้ว","kom":0,"kalae":2,"text_lanna":0,"total_detect":2}},{"type":"Feature","id":291,"geometry":{"type":"Point","coordinates":[98.98529067018876,18.793097080234396]},"properties":{"OBJECTID":291,"idx":257,"POINT_Y":18.793097079999999,"POINT_X":98.985290669999998,"name":"ถนนเวียงแก้ว","kom":0,"kalae":1,"text_lanna":2,"total_detect":3}},{"type":"Feature","id":292,"geometry":{"type":"Point","coordinates":[98.98442826962436,18.793103779690053]},"properties":{"OBJECTID":292,"idx":253,"POINT_Y":18.793103779999999,"POINT_X":98.984428269999995,"name":"ถนนเวียงแก้ว","kom":0,"kalae":20,"text_lanna":0,"total_detect":20}},{"type":"Feature","id":293,"geometry":{"type":"Point","coordinates":[98.98368804964683,18.793109470017043]},"properties":{"OBJECTID":293,"idx":250,"POINT_Y":18.793109470000001,"POINT_X":98.983688049999998,"name":"ถนนเวียงแก้ว","kom":0,"kalae":0,"text_lanna":1,"total_detect":1}},{"type":"Feature","id":294,"geometry":{"type":"Point","coordinates":[98.982321570368939,18.793119989573526]},"properties":{"OBJECTID":294,"idx":244,"POINT_Y":18.793119990000001,"POINT_X":98.982321569999996,"name":"ถนนเวียงแก้ว","kom":2,"kalae":0,"text_lanna":0,"total_detect":2}},{"type":"Feature","id":295,"geometry":{"type":"Point","coordinates":[98.988286650143692,18.793253749757042]},"properties":{"OBJECTID":295,"idx":233,"POINT_Y":18.793253750000002,"POINT_X":98.988286650000006,"name":"ถนนพระปกเกล้า ซอย 13","kom":0,"kalae":1,"text_lanna":0,"total_detect":1}},{"type":"Feature","id":296,"geometry":{"type":"Point","coordinates":[98.988476390358002,18.793257710214839]},"properties":{"OBJECTID":296,"idx":234,"POINT_Y":18.793257709999999,"POINT_X":98.988476390000002,"name":"ถนนพระปกเกล้า ซอย 13","kom":0,"kalae":1,"text_lanna":1,"total_detect":2}},{"type":"Feature","id":297,"geometry":{"type":"Point","coordinates":[98.979578889637608,18.793500330422884]},"properties":{"OBJECTID":297,"idx":1674,"POINT_Y":18.793500330000001,"POINT_X":98.979578889999999,"name":"ถนนอารักษ์ ซอย 2","kom":0,"kalae":1,"text_lanna":0,"total_detect":1}},{"type":"Feature","id":298,"geometry":{"type":"Point","coordinates":[98.978567839860261,18.793505090348415]},"properties":{"OBJECTID":298,"idx":1678,"POINT_Y":18.79350509,"POINT_X":98.978567839999997,"name":"ถนนอารักษ์ ซอย 2","kom":0,"kalae":1,"text_lanna":0,"total_detect":1}},{"type":"Feature","id":299,"geometry":{"type":"Point","coordinates":[98.979458160159339,18.793567429811009]},"properties":{"OBJECTID":299,"idx":1666,"POINT_Y":18.79356743,"POINT_X":98.979458159999993,"name":"ถนนอารักษ์ ซอย 1","kom":0,"kalae":2,"text_lanna":0,"total_detect":2}},{"type":"Feature","id":300,"geometry":{"type":"Point","coordinates":[98.992259039526857,18.793584899676418]},"properties":{"OBJECTID":300,"idx":2229,"POINT_Y":18.793584899999999,"POINT_X":98.992259039999993,"name":"ถนนศรีภูมิ ซอย 1","kom":4,"kalae":0,"text_lanna":0,"total_detect":4}},{"type":"Feature","id":301,"geometry":{"type":"Point","coordinates":[98.994148610178073,18.793681510243708]},"properties":{"OBJECTID":301,"idx":1006,"POINT_Y":18.793681509999999,"POINT_X":98.994148609999996,"name":"ถนนสิทธิวงศ์","kom":2,"kalae":0,"text_lanna":0,"total_detect":2}},{"type":"Feature","id":302,"geometry":{"type":"Point","coordinates":[98.9848494602915,18.793743049572754]},"properties":{"OBJECTID":302,"idx":4685,"POINT_Y":18.79374305,"POINT_X":98.984849460000007,"name":"ถนนสิงหราช ซอย 4","kom":8,"kalae":0,"text_lanna":0,"total_detect":8}},{"type":"Feature","id":303,"geometry":{"type":"Point","coordinates":[98.982253070042248,18.793818789721282]},"properties":{"OBJECTID":303,"idx":4696,"POINT_Y":18.79381879,"POINT_X":98.982253069999999,"name":"ถนนสิงหราช ซอย 4","kom":0,"kalae":0,"text_lanna":1,"total_detect":1}},{"type":"Feature","id":304,"geometry":{"type":"Point","coordinates":[98.983697880469265,18.793951010144667]},"properties":{"OBJECTID":304,"idx":4690,"POINT_Y":18.793951010000001,"POINT_X":98.983697879999994,"name":"ถนนสิงหราช ซอย 4","kom":0,"kalae":0,"text_lanna":2,"total_detect":2}},{"type":"Feature","id":305,"geometry":{"type":"Point","coordinates":[98.993301499641944,18.793970039790086]},"properties":{"OBJECTID":305,"idx":3157,"POINT_Y":18.793970040000001,"POINT_X":98.993301500000001,"name":"ถนนมูลเมือง ซอย 9","kom":3,"kalae":0,"text_lanna":0,"total_detect":3}},{"type":"Feature","id":306,"geometry":{"type":"Point","coordinates":[98.983502770264437,18.793977569816064]},"properties":{"OBJECTID":306,"idx":4691,"POINT_Y":18.793977569999999,"POINT_X":98.983502770000001,"name":"ถนนสิงหราช ซอย 4","kom":0,"kalae":0,"text_lanna":2,"total_detect":2}},{"type":"Feature","id":307,"geometry":{"type":"Point","coordinates":[98.993115010018556,18.794003569890563]},"properties":{"OBJECTID":307,"idx":3158,"POINT_Y":18.794003570000001,"POINT_X":98.993115009999997,"name":"ถนนมูลเมือง ซอย 9","kom":2,"kalae":0,"text_lanna":0,"total_detect":2}},{"type":"Feature","id":308,"geometry":{"type":"Point","coordinates":[98.992605429878608,18.794070560003973]},"properties":{"OBJECTID":308,"idx":3160,"POINT_Y":18.794070560000002,"POINT_X":98.992605429999998,"name":"ถนนมูลเมือง ซอย 9","kom":0,"kalae":2,"text_lanna":0,"total_detect":2}},{"type":"Feature","id":309,"geometry":{"type":"Point","coordinates":[98.991173739717681,18.794185670310718]},"properties":{"OBJECTID":309,"idx":3164,"POINT_Y":18.794185670000001,"POINT_X":98.991173739999994,"name":"ถนนมูลเมือง ซอย 9","kom":1,"kalae":0,"text_lanna":0,"total_detect":1}},{"type":"Feature","id":310,"geometry":{"type":"Point","coordinates":[98.992329130222245,18.7941953403699]},"properties":{"OBJECTID":310,"idx":2227,"POINT_Y":18.794195340000002,"POINT_X":98.992329130000002,"name":"ถนนศรีภูมิ ซอย 1","kom":1,"kalae":0,"text_lanna":0,"total_detect":1}},{"type":"Feature","id":311,"geometry":{"type":"Point","coordinates":[98.985013719800861,18.794216519702672]},"properties":{"OBJECTID":311,"idx":1646,"POINT_Y":18.794216519999999,"POINT_X":98.985013719999998,"name":"ถนนศรีภูมิ ซอย 6","kom":0,"kalae":1,"text_lanna":0,"total_detect":1}},{"type":"Feature","id":312,"geometry":{"type":"Point","coordinates":[98.985911890225211,18.794268789741274]},"properties":{"OBJECTID":312,"idx":1653,"POINT_Y":18.79426879,"POINT_X":98.985911889999997,"name":"ถนนศรีภูมิ ซอย 4","kom":1,"kalae":0,"text_lanna":0,"total_detect":1}},{"type":"Feature","id":313,"geometry":{"type":"Point","coordinates":[98.991011809735639,18.794285390232069]},"properties":{"OBJECTID":313,"idx":3170,"POINT_Y":18.794285389999999,"POINT_X":98.991011810000003,"name":"ถนนศรีภูมิ ซอย 2","kom":0,"kalae":1,"text_lanna":0,"total_detect":1}},{"type":"Feature","id":314,"geometry":{"type":"Point","coordinates":[98.984992439606302,18.794396139640021]},"properties":{"OBJECTID":314,"idx":1647,"POINT_Y":18.79439614,"POINT_X":98.984992439999999,"name":"ถนนศรีภูมิ ซอย 6","kom":0,"kalae":0,"text_lanna":1,"total_detect":1}},{"type":"Feature","id":315,"geometry":{"type":"Point","coordinates":[98.99040592992128,18.794426060079822]},"properties":{"OBJECTID":315,"idx":3162,"POINT_Y":18.794426059999999,"POINT_X":98.990405929999994,"name":"ถนนมูลเมือง ซอย 9","kom":3,"kalae":0,"text_lanna":0,"total_detect":3}},{"type":"Feature","id":316,"geometry":{"type":"Point","coordinates":[98.990218770411971,18.794456029939685]},"properties":{"OBJECTID":316,"idx":3161,"POINT_Y":18.794456029999999,"POINT_X":98.990218769999998,"name":"ถนนมูลเมือง ซอย 9","kom":0,"kalae":1,"text_lanna":0,"total_detect":1}},{"type":"Feature","id":317,"geometry":{"type":"Point","coordinates":[98.984335800235215,18.794495100263298]},"properties":{"OBJECTID":317,"idx":1655,"POINT_Y":18.794495099999999,"POINT_X":98.984335799999997,"name":"ถนนศรีภูมิ ซอย7","kom":0,"kalae":1,"text_lanna":0,"total_detect":1}},{"type":"Feature","id":318,"geometry":{"type":"Point","coordinates":[98.978952489925931,18.79450880031969]},"properties":{"OBJECTID":318,"idx":1660,"POINT_Y":18.794508799999999,"POINT_X":98.978952489999998,"name":"ถนนอารักษ์ ซอย 1","kom":0,"kalae":1,"text_lanna":0,"total_detect":1}},{"type":"Feature","id":319,"geometry":{"type":"Point","coordinates":[98.992366899909371,18.794591809553562]},"properties":{"OBJECTID":319,"idx":2226,"POINT_Y":18.79459181,"POINT_X":98.992366899999993,"name":"ถนนศรีภูมิ ซอย 1","kom":0,"kalae":2,"text_lanna":0,"total_detect":2}},{"type":"Feature","id":320,"geometry":{"type":"Point","coordinates":[98.984615379706369,18.794730699598002]},"properties":{"OBJECTID":320,"idx":3185,"POINT_Y":18.794730699999999,"POINT_X":98.984615379999994,"name":null,"kom":0,"kalae":1,"text_lanna":0,"total_detect":1}},{"type":"Feature","id":321,"geometry":{"type":"Point","coordinates":[98.991403260331609,18.794809210155751]},"properties":{"OBJECTID":321,"idx":3169,"POINT_Y":18.79480921,"POINT_X":98.991403259999998,"name":"ถนนศรีภูมิ ซอย 2","kom":0,"kalae":2,"text_lanna":0,"total_detect":2}},{"type":"Feature","id":322,"geometry":{"type":"Point","coordinates":[98.986466910381907,18.794930460021501]},"properties":{"OBJECTID":322,"idx":6250,"POINT_Y":18.79493046,"POINT_X":98.986466910000004,"name":"ถนนศรีภูมิ ซอย 4","kom":0,"kalae":1,"text_lanna":0,"total_detect":1}},{"type":"Feature","id":323,"geometry":{"type":"Point","coordinates":[98.989072159855567,18.794947689672231]},"properties":{"OBJECTID":323,"idx":208,"POINT_Y":18.794947690000001,"POINT_X":98.989072160000006,"name":"ถนนศรีภูมิ ซอย3","kom":1,"kalae":1,"text_lanna":0,"total_detect":2}},{"type":"Feature","id":324,"geometry":{"type":"Point","coordinates":[98.989030330105678,18.795232140182616]},"properties":{"OBJECTID":324,"idx":209,"POINT_Y":18.79523214,"POINT_X":98.989030330000006,"name":"ถนนศรีภูมิ ซอย3","kom":2,"kalae":0,"text_lanna":0,"total_detect":2}},{"type":"Feature","id":325,"geometry":{"type":"Point","coordinates":[98.981710220426464,18.796056830303549]},"properties":{"OBJECTID":325,"idx":4483,"POINT_Y":18.796056830000001,"POINT_X":98.981710219999997,"name":null,"kom":0,"kalae":1,"text_lanna":1,"total_detect":2}}]
}