{
  "type" : "FeatureCollection",
  "features" : [{"type":"Feature","id":1,"geometry":{"type":"Polygon","coordinates":[[[98.988715399634373,18.841044700175878],[98.98789460006779,18.841755500077209],[98.986784199961846,18.842486600281344],[98.986223699863871,18.843005900097427],[98.986072500016135,18.843021199858448],[98.986058399785264,18.843048099929625],[98.985918599610926,18.843229599936063],[98.985850200043686,18.843327300109944],[98.985586800194866,18.843822200049864],[98.985480800066227,18.844017599806275],[98.985416999997625,18.844169600400619],[98.98180070033456,18.842466299628644],[98.979070199912869,18.840968600204775],[98.978217200311732,18.840597999799009],[98.977664700283569,18.840455799893181],[98.977407200402482,18.840623400002645],[98.976699099897715,18.841557500076952],[98.975626199958526,18.84181140021283],[98.975260700263249,18.842453799578319],[98.974865100355402,18.842267500280055],[98.974847499847272,18.842260499906551],[98.97455490045526,18.842144500190145],[98.973149599794496,18.841587300068973],[98.972764099931254,18.842509400103726],[98.970935299612293,18.841859299608007],[98.974285100412175,18.83351290027597],[98.975014700029107,18.831603800208153],[98.975674500024326,18.830090799602662],[98.976758100464409,18.827882099582563],[98.976940499776561,18.827349000077163],[98.977037099845461,18.827049399932875],[98.977283800364077,18.825932400205748],[98.977755900274317,18.823962399843282],[98.978394299905219,18.821641900124117],[98.978823400223703,18.820083100239117],[98.979472499634099,18.818336400082487],[98.980041000469726,18.81688960028276],[98.982058199741047,18.811755599617303],[98.981513699910479,18.811702299861949],[98.979864100335703,18.811402700027397],[98.978866300054634,18.81115390006735],[98.977715700264667,18.810755300109943],[98.976050000198484,18.81006469993282],[98.974403099663903,18.809175999902301],[98.973362399815755,18.808465099813418],[98.972075000068443,18.807457100348071],[98.970849199685262,18.806268899909629],[98.969604700209615,18.804857199688257],[98.969036000279644,18.803920299747375],[98.968381599790163,18.80278020028226],[98.967767400147878,18.801510700107229],[98.952097899771587,18.809782800269446],[98.94883630020594,18.810727299926754],[98.947650800117088,18.810757800163262],[98.947521999975734,18.810823800060273],[98.94740940024505,18.811179299950268],[98.946395500170084,18.810280500163103],[98.945354799841468,18.806761500255],[98.945843000259643,18.803531799948058],[98.943246599597117,18.8041208997867],[98.94412640012726,18.801485299997875],[98.942645800243,18.797691899827878],[98.945918099603688,18.798646600349411],[98.946078999639241,18.79507649991125],[98.950561000280459,18.794055799886216],[98.953138600308719,18.793293999730327],[98.957285300017489,18.792082799676528],[98.960521400142483,18.790956600328514],[98.959114500205303,18.786844300317188],[98.962818699559932,18.787022000124729],[98.965136100419969,18.78353680009991],[98.970243000004174,18.783563500074031],[98.970653400294751,18.781643699866311],[98.970798200057303,18.781597999832918],[98.971661899537679,18.781562399694231],[98.972241300172527,18.783411099782317],[98.973233699707393,18.78319780023654],[98.973024499540216,18.784309999725796],[98.972777699799352,18.784406500388091],[98.972793799811612,18.786245000076629],[98.972879599733218,18.786387200294641],[98.973496599534442,18.786382100201116],[98.973872099813875,18.786448200211932],[98.973947200325355,18.786204399990357],[98.974086600330537,18.786113000190735],[98.975223900134495,18.786112999949744],[98.97574419985132,18.786054600297401],[98.975961499698386,18.783736100347724],[98.975706699820549,18.781486300005369],[98.975513600448352,18.781425299719469],[98.975317800125126,18.779256699801092],[98.975430399642676,18.779228699863175],[98.975564499712149,18.778779200328373],[98.975572600109302,18.778332299815037],[98.975685200057029,18.778078400105979],[98.97591590024183,18.777692400446522],[98.976023199899586,18.777397800354876],[98.976023200354163,18.777052399774963],[98.975781799855213,18.776615600287148],[98.973780900336152,18.775848700146664],[98.973813100099704,18.775213800104737],[98.973448299859655,18.774350400164554],[98.973340999633507,18.77346160006201],[98.972804499566109,18.773299099866144],[98.972718699992569,18.772913100116021],[98.970771399590788,18.772913100383981],[98.970766099767772,18.772019099733981],[98.972885000026182,18.771633100125609],[98.973421400384851,18.771429999596013],[98.975207799875022,18.770378599558377],[98.97583010046057,18.770106199869961],[98.97613580011307,18.769972300052864],[98.976358500089304,18.767775499921925],[98.990922899694866,18.765136900440531],[98.991325199820594,18.764877799834913],[98.994170999953226,18.762520999966586],[98.995608700157007,18.761362899792424],[98.997147600205707,18.760088800052646],[98.998225199700414,18.75919659994527],[98.998987600419937,18.758537499951856],[98.999310800400011,18.758237800367134],[99.000130900414945,18.75737050010272],[99.000538599618963,18.757093600053281],[99.000970399872557,18.756875199644213],[99.001415699751135,18.756774900273413],[99.001976300194201,18.75672160037217],[99.003628500473255,18.757055600036782],[99.007415800305907,18.757929200333844],[99.009145799863887,18.758289900357951],[99.011672399595923,18.758670800266039],[99.01378869963375,18.7590086003054],[99.015035899621793,18.759338800383887],[99.018209000239295,18.760479100072978],[99.028326300031139,18.763963600065185],[99.029812199918311,18.76429880039365],[99.028970000299736,18.770210999941238],[99.028251199727137,18.775198599572573],[99.027183599550099,18.783279100023933],[99.027151400250119,18.783496100056439],[99.027012000357203,18.784437000367724],[99.026711599919111,18.785965700248646],[99.026303900125143,18.787204900145262],[99.025611899798378,18.788972200438138],[99.024587300433183,18.790790299616766],[99.023659199803021,18.792323999917631],[99.022822399726479,18.793964399971177],[99.022151800334413,18.795442200190578],[99.021438400375047,18.797110400154601],[99.019834400153627,18.801079099974817],[99.019855399760814,18.804705700413201],[99.018655100215128,18.803857200256367],[99.018444999600916,18.804227500200827],[99.018150000310996,18.804778499699051],[99.017624300223758,18.80563669990719],[99.017098500028737,18.80635520015597],[99.01636899980835,18.807149899792144],[99.015786899702789,18.807657700343142],[99.014896400365728,18.80831279966457],[99.014094499914805,18.80876729969911],[99.013254900310017,18.809176000441806],[99.012605799729386,18.809409600274648],[99.011449800079177,18.809747299813075],[99.01045739964718,18.809889500273147],[99.007152899825215,18.810153499659144],[99.005152000251869,18.810295699699005],[99.003478300313887,18.81038710042624],[99.003381699899805,18.81065119960833],[99.003124199660277,18.811483900065664],[99.003097400274115,18.812316700341938],[99.002743399992241,18.813332300120727],[99.001804600342695,18.815094299656341],[99.000742400007951,18.816658200054938],[98.999605199716058,18.817815899912446],[98.998736099593529,18.818811199688714],[98.997277000149623,18.819938399727715],[98.996182699907806,18.820821900086926],[98.995581899921334,18.821624200215268],[98.995163400397544,18.822670099646881],[98.995174199753478,18.823624700152969],[98.995506799536642,18.824264500166588],[98.996171900228688,18.825046399837813],[98.99729849981469,18.826437600353845],[98.997781299921741,18.827513999778279],[98.99786709970634,18.828204600315036],[98.997781300346091,18.828783399661916],[98.997073200222061,18.829910500383889],[98.996526000185,18.83046909976996],[98.995667699935055,18.831098599709978],[98.994626999563934,18.831738399961502],[98.993618499673389,18.832225800158842],[98.99293180004139,18.832631999572868],[98.992271999547569,18.83318539969839],[98.991794599870886,18.834089099880309],[98.991188400220935,18.835784900243322],[98.990619800161383,18.837333399631362],[98.990228200194011,18.838521499820398],[98.989804399584443,18.839389599832998],[98.989283999923572,18.840339000398458],[98.988715399634373,18.841044700175878]],[[98.977281248679134,18.790352956038436],[98.977318345790025,18.794567590210558],[98.97712986146405,18.795858856737066],[98.977995971963495,18.796791559193586],[98.994398001173224,18.796075388842389],[98.994962942529241,18.795860189419944],[98.995113603698229,18.795429763277188],[98.995331323567825,18.794792816680904],[98.995188962523713,18.794210213798213],[98.995151316579353,18.793672174817523],[98.995377305385048,18.792990666056742],[98.996057934104343,18.792575177457],[98.996318855071777,18.792596126278877],[98.996695475537891,18.792345049060714],[98.996846128508267,18.791950490022799],[98.997034446249373,18.791340716730211],[98.997787676007604,18.790946166390199],[98.999205498313316,18.789913540190518],[98.999730680620175,18.789432272227742],[98.999934363646275,18.788507074370781],[99.000077812811796,18.788121074155473],[99.000040275109498,18.787612256217564],[98.999595421877885,18.786964698019109],[98.999595422819937,18.786570136148629],[98.999557765699365,18.785601667918836],[98.99936946995939,18.784453852046592],[98.9992564944625,18.783557121567878],[98.999444795491442,18.782552783256445],[98.99925650413924,18.781351164288431],[98.999105873775164,18.780310955715034],[98.998126761105553,18.778840309524707],[98.997863158081543,18.778266399085346],[98.996808734543592,18.777728345127812],[98.996243873620983,18.777190295671897],[98.995603713447863,18.776114204608319],[98.994775272018217,18.775073974791589],[98.993796208779045,18.774105475526564],[98.992930116648523,18.773423928856413],[98.991781599335326,18.772796169481477],[98.990538949932599,18.772150463446561],[98.989861124448126,18.772150427908805],[98.98880671936179,18.772293845417131],[98.987639351532465,18.77229377186562],[98.984438500385863,18.772329401530445],[98.983346440152502,18.772401045805854],[98.982480294047832,18.772723790701921],[98.981840080613793,18.773118291132267],[98.981124553755393,18.773476913025085],[98.97969349096546,18.774194147639864],[98.978601362427099,18.774696196160168],[98.977923493167651,18.774947202040355],[98.976793735697356,18.775162280257469],[98.976454792055293,18.775341584213077],[98.976191142879188,18.775664373869549],[98.976153434261661,18.776023061736844],[98.976717859008204,18.779251364564107],[98.976755307990132,18.780775811517199],[98.976453982527687,18.781170335875913],[98.976566899306036,18.781600780846958],[98.976642093759878,18.782497520454054],[98.977018249093248,18.785725796532972],[98.977281248679134,18.790352956038436]]]},"properties":{"OBJECTID":1,"id":"relation/18271830","F_id":"relation/18271830","admin_leve":"7","boundary":"administrative","name":"เทศบาลนครเชียงใหม่","name_en":"Chiang Mai City Municipality","type":"boundary","wikidata":"Q52028","Shape_Length":46708.306210719384,"Shape_Area":35743189.33381322,"Area_km2":35.74318933381322}}]
}