{
  "type" : "FeatureCollection",
  "features" : [{"type":"Feature","id":0,"geometry":{"type":"Polygon","coordinates":[[[98.975260700000007,18.842453800000001],[98.974865100000002,18.842267499999998],[98.974847499999996,18.842260499999998],[98.974554900000001,18.8421445],[98.973149599999999,18.8415873],[98.972764100000006,18.842509400000001],[98.970935299999994,18.841859299999999],[98.974285100000003,18.833512899999999],[98.975014700000003,18.8316038],[98.975674499999997,18.830090800000001],[98.976758099999998,18.8278821],[98.976940499999998,18.827349000000002],[98.977037100000004,18.8270494],[98.977283799999995,18.825932399999999],[98.977755900000005,18.823962399999999],[98.978394300000005,18.821641899999999],[98.978823399999996,18.820083100000002],[98.9794725,18.8183364],[98.980041,18.8168896],[98.982058199999997,18.811755600000001],[98.981513699999994,18.8117023],[98.9798641,18.811402699999999],[98.978866300000007,18.811153900000001],[98.977715700000005,18.8107553],[98.976050000000001,18.810064700000002],[98.974403100000004,18.809176000000001],[98.973362399999999,18.808465099999999],[98.972075000000004,18.807457100000001],[98.970849200000004,18.806268899999999],[98.969604700000005,18.804857200000001],[98.969036000000003,18.803920300000001],[98.968381600000001,18.802780200000001],[98.9677674,18.801510700000001],[98.952097899999998,18.809782800000001],[98.948836299999996,18.8107273],[98.947650800000005,18.810757800000001],[98.947522000000006,18.810823800000001],[98.947409399999998,18.811179299999999],[98.946395499999994,18.810280500000001],[98.945354800000004,18.8067615],[98.945842999999996,18.803531799999998],[98.943246599999995,18.804120900000001],[98.944126400000002,18.8014853],[98.942645799999994,18.7976919],[98.9459181,18.798646600000001],[98.946078999999997,18.7950765],[98.950560999999993,18.794055799999999],[98.953138600000003,18.793293999999999],[98.957285299999995,18.792082799999999],[98.960521400000005,18.790956600000001],[98.959114499999998,18.786844299999998],[98.9628187,18.787022],[98.965136099999995,18.7835368],[98.970242999999996,18.7835635],[98.970653400000003,18.7816437],[98.970798200000004,18.781597999999999],[98.971661900000001,18.781562399999999],[98.972241299999993,18.783411099999999],[98.973233699999994,18.7831978],[98.973024499999994,18.784310000000001],[98.972777699999995,18.784406499999999],[98.972793800000005,18.786245000000001],[98.972879599999999,18.7863872],[98.973496600000004,18.786382100000001],[98.973872099999994,18.786448199999999],[98.973947199999998,18.786204399999999],[98.974086600000007,18.786113],[98.975223900000003,18.786113],[98.975744199999994,18.7860546],[98.975961499999997,18.783736099999999],[98.975706700000003,18.781486300000001],[98.975513599999999,18.781425299999999],[98.975317799999999,18.779256700000001],[98.975430399999993,18.779228700000001],[98.975564500000004,18.778779199999999],[98.975572600000007,18.778332299999999],[98.975685200000001,18.778078399999998],[98.975915900000004,18.777692399999999],[98.9760232,18.777397799999999],[98.9760232,18.777052399999999],[98.975781799999993,18.7766156],[98.973780899999994,18.775848700000001],[98.973813100000001,18.7752138],[98.973448300000001,18.774350399999999],[98.973341000000005,18.773461600000001],[98.972804499999995,18.773299099999999],[98.972718700000001,18.7729131],[98.970771400000004,18.7729131],[98.970766100000006,18.772019100000001],[98.972885000000005,18.771633099999999],[98.973421400000007,18.771429999999999],[98.975207800000007,18.770378600000001],[98.975830099999996,18.770106200000001],[98.976135799999994,18.769972299999999],[98.976358500000003,18.767775499999999],[98.990922900000001,18.765136900000002],[98.991325200000006,18.764877800000001],[98.994170999999994,18.762521],[98.995608700000005,18.761362900000002],[98.997147600000005,18.760088799999998],[98.998225199999993,18.759196599999999],[98.998987600000007,18.758537499999999],[98.999310800000003,18.7582378],[99.000130900000002,18.7573705],[99.000538599999999,18.757093600000001],[99.0009704,18.7568752],[99.001415699999995,18.7567749],[99.001976299999995,18.756721599999999],[99.003628500000005,18.757055600000001],[99.007415800000004,18.7579292],[99.009145799999999,18.758289900000001],[99.011672399999995,18.758670800000001],[99.013788700000006,18.759008600000001],[99.015035900000001,18.759338799999998],[99.018208999999999,18.760479100000001],[99.028326300000003,18.7639636],[99.029812199999995,18.764298799999999],[99.028970000000001,18.770211],[99.0282512,18.7751986],[99.027183600000001,18.783279100000001],[99.027151399999994,18.783496100000001],[99.027011999999999,18.784437],[99.026711599999999,18.785965699999998],[99.026303900000002,18.787204899999999],[99.025611900000001,18.7889722],[99.024587299999993,18.790790300000001],[99.023659199999997,18.792324000000001],[99.022822399999995,18.7939644],[99.022151800000003,18.7954422],[99.021438399999994,18.797110400000001],[99.019834399999993,18.801079099999999],[99.019855399999997,18.8047057],[99.018655100000004,18.803857199999999],[99.018445,18.8042275],[99.018150000000006,18.804778500000001],[99.017624299999994,18.805636700000001],[99.017098500000003,18.806355199999999],[99.016368999999997,18.807149899999999],[99.015786899999995,18.8076577],[99.014896399999998,18.808312799999999],[99.014094499999999,18.8087673],[99.013254900000007,18.809176000000001],[99.012605800000003,18.809409599999999],[99.011449799999994,18.809747300000002],[99.010457400000007,18.809889500000001],[99.007152899999994,18.810153499999998],[99.005151999999995,18.810295700000001],[99.003478299999998,18.8103871],[99.003381700000006,18.810651199999999],[99.003124200000002,18.811483899999999],[99.003097400000001,18.8123167],[99.0027434,18.813332299999999],[99.0018046,18.815094299999998],[99.000742399999993,18.816658199999999],[98.999605200000005,18.817815899999999],[98.998736100000002,18.818811199999999],[98.997276999999997,18.819938400000002],[98.996182700000006,18.820821899999999],[98.995581900000005,18.821624199999999],[98.995163399999996,18.8226701],[98.995174199999994,18.8236247],[98.995506800000001,18.824264500000002],[98.996171899999993,18.825046400000002],[98.997298499999999,18.826437599999998],[98.9977813,18.827514000000001],[98.997867099999993,18.828204599999999],[98.9977813,18.828783399999999],[98.997073200000003,18.8299105],[98.996526000000003,18.830469099999998],[98.995667699999998,18.831098600000001],[98.994626999999994,18.831738399999999],[98.993618499999997,18.8322258],[98.992931799999994,18.832632],[98.992272,18.833185400000001],[98.991794600000006,18.8340891],[98.991188399999999,18.8357849],[98.990619800000005,18.837333399999999],[98.990228200000004,18.838521499999999],[98.989804399999997,18.839389600000001],[98.989283999999998,18.840339],[98.988715400000004,18.841044700000001],[98.987894600000004,18.841755500000001],[98.986784200000002,18.842486600000001],[98.986223699999996,18.843005900000001],[98.986072500000006,18.843021199999999],[98.986058400000005,18.843048100000001],[98.985918600000005,18.843229600000001],[98.985850200000002,18.843327299999999],[98.985586799999993,18.843822200000002],[98.985480800000005,18.844017600000001],[98.985416999999998,18.844169600000001],[98.981800699999994,18.842466300000002],[98.979070199999995,18.8409686],[98.978217200000003,18.840598],[98.977664700000005,18.840455800000001],[98.977407200000002,18.840623399999998],[98.976699100000005,18.8415575],[98.975626199999994,18.841811400000001],[98.975260700000007,18.842453800000001]]]},"properties":{"FID":0,"id":"relation/18271830","@id":"relation/18271830","admin_leve":"7","boundary":"administrative","name":"เทศบาลนครเชียงใหม่","name_en":"Chiang Mai City Municipality","type":"boundary","wikidata":"Q52028"}}]
}