{
  "type" : "FeatureCollection",
  "features" : [{"type":"Feature","id":1,"geometry":{"type":"Polygon","coordinates":[[[98.994398001173224,18.796075388842389],[98.977995971963495,18.796791559193586],[98.97712986146405,18.795858856737066],[98.977318345790025,18.794567590210558],[98.977281248679134,18.790352956038436],[98.977018249093248,18.785725796532972],[98.976642093759878,18.782497520454054],[98.976566899306036,18.781600780846958],[98.976453982527687,18.781170335875913],[98.976755307990132,18.780775811517199],[98.976717859008204,18.779251364564107],[98.976153434261661,18.776023061736844],[98.976191142879188,18.775664373869549],[98.976454792055293,18.775341584213077],[98.976793735697356,18.775162280257469],[98.977923493167651,18.774947202040355],[98.978601362427099,18.774696196160168],[98.97969349096546,18.774194147639864],[98.981124553755393,18.773476913025085],[98.981840080613793,18.773118291132267],[98.982480294047832,18.772723790701921],[98.983346440152502,18.772401045805854],[98.984438500385863,18.772329401530445],[98.987639351532465,18.77229377186562],[98.98880671936179,18.772293845417131],[98.989861124448126,18.772150427908805],[98.990538949932599,18.772150463446561],[98.991781599335326,18.772796169481477],[98.992930116648523,18.773423928856413],[98.993796208779045,18.774105475526564],[98.994775272018217,18.775073974791589],[98.995603713447863,18.776114204608319],[98.996243873620983,18.777190295671897],[98.996808734543592,18.777728345127812],[98.997863158081543,18.778266399085346],[98.998126761105553,18.778840309524707],[98.999105873775164,18.780310955715034],[98.99925650413924,18.781351164288431],[98.999444795491442,18.782552783256445],[98.9992564944625,18.783557121567878],[98.99936946995939,18.784453852046592],[98.999557765699365,18.785601667918836],[98.999595422819937,18.786570136148629],[98.999595421877885,18.786964698019109],[99.000040275109498,18.787612256217564],[99.000077812811796,18.788121074155473],[98.999934363646275,18.788507074370781],[98.999730680620175,18.789432272227742],[98.999205498313316,18.789913540190518],[98.997787676007604,18.790946166390199],[98.997034446249373,18.791340716730211],[98.996846128508267,18.791950490022799],[98.996695475537891,18.792345049060714],[98.996318855071777,18.792596126278877],[98.996057934104343,18.792575177457],[98.995377305385048,18.792990666056742],[98.995151316579353,18.793672174817523],[98.995188962523713,18.794210213798213],[98.995331323567825,18.794792816680904],[98.995113603698229,18.795429763277188],[98.994962942529241,18.795860189419944],[98.994398001173224,18.796075388842389]]]},"properties":{"OBJECTID":1,"Id":0,"OT_CODE":2,"OT_NAME":"เมืองเก่าเชียงใหม่","ZONE_CODE":1,"ZONE_DETAI":"พื้นที่เมืองเก่า","AREA":5.61897,"GROUP_":"กลุ่มที่ 1","AGREE":1289260800000,"NOTICE":1292198400000,"subcommitt":1487721600000,"Master_pla":-2209161600000,"reg_code":1,"reg_name":"ภาคเหนือ","PROV_CODE":50,"PROVINCE":"จ.เชียงใหม่","Shape_Length":9100.6064659315198,"Shape_Area":5618965.1941071218,"Area_km2":5.6189651941071217}}]
}